{
"type": "FeatureCollection",
"name": "2002",
"crs": { "type": "name", "properties": { "name": "urn:ogc:def:crs:OGC:1.3:CRS84" } },
"features": [
{ "type": "Feature", "properties": { "_uid_": 3313.0, "id": 975232.0, "initialdat": "2002-01-08", "finaldate": "2002-01-08", "area_ha": 21.443325917017461 }, "geometry": { "type": "MultiPolygon", "coordinates": [ [ [ [ -59.904427782200351, -30.387499997325534 ], [ -59.899597559028109, -30.387499997325534 ], [ -59.90215221179983, -30.391666663991835 ], [ -59.906982640975848, -30.391666663991835 ], [ -59.904427782200351, -30.387499997325534 ] ] ] ] } },
{ "type": "Feature", "properties": { "_uid_": 3314.0, "id": 975233.0, "initialdat": "2002-01-02", "finaldate": "2002-01-02", "area_ha": 21.443344040334225 }, "geometry": { "type": "MultiPolygon", "coordinates": [ [ [ [ -59.90215221179983, -30.391666663991835 ], [ -59.897321782623791, -30.391666663991835 ], [ -59.899876764083615, -30.395833330658128 ], [ -59.904707399306552, -30.395833330658128 ], [ -59.90215221179983, -30.391666663991835 ] ] ] ] } },
{ "type": "Feature", "properties": { "_uid_": 3317.0, "id": 975236.0, "initialdat": "2002-01-02", "finaldate": "2002-01-03", "area_ha": 64.330617127764228 }, "geometry": { "type": "MultiPolygon", "coordinates": [ [ [ [ -59.937393148875664, -30.433333330654811 ], [ -59.932560657289038, -30.433333330654811 ], [ -59.935121403879357, -30.437499997321105 ], [ -59.939954101944508, -30.437499997321105 ], [ -59.937393148875664, -30.433333330654811 ] ] ], [ [ [ -59.935121403879357, -30.437499997321105 ], [ -59.930288705814213, -30.437499997321105 ], [ -59.925456007749048, -30.437499997321105 ], [ -59.928016877125778, -30.441666663987405 ], [ -59.932849781712676, -30.441666663987405 ], [ -59.937682686299546, -30.441666663987405 ], [ -59.935121403879357, -30.437499997321105 ] ] ] ] } },
{ "type": "Feature", "properties": { "_uid_": 3322.0, "id": 975242.0, "initialdat": "2002-01-12", "finaldate": "2002-01-12", "area_ha": 21.444038902652263 }, "geometry": { "type": "MultiPolygon", "coordinates": [ [ [ [ -60.057685602683016, -30.549999997311136 ], [ -60.052847313340976, -30.549999997311136 ], [ -60.055425176384738, -30.554166663977433 ], [ -60.060263673417978, -30.554166663977433 ], [ -60.057685602683016, -30.549999997311136 ] ] ] ] } },
{ "type": "Feature", "properties": { "_uid_": 3328.0, "id": 975252.0, "initialdat": "2002-01-01", "finaldate": "2002-01-03", "area_ha": 150.10941665232181 }, "geometry": { "type": "MultiPolygon", "coordinates": [ [ [ [ -60.184804211934171, -30.583333330641519 ], [ -60.179964259846365, -30.583333330641519 ], [ -60.185138309064911, -30.591666663974113 ], [ -60.189978677273785, -30.591666663974113 ], [ -60.187391444603975, -30.587499997307813 ], [ -60.192231334364642, -30.587499997307813 ], [ -60.197071494491247, -30.587499997307813 ], [ -60.201911654617867, -30.587499997307813 ], [ -60.196737022542685, -30.579166663975219 ], [ -60.187057534357663, -30.579166663975219 ], [ -60.189644164022006, -30.583333330641519 ], [ -60.184804211934171, -30.583333330641519 ] ] ] ] } },
{ "type": "Feature", "properties": { "_uid_": 3332.0, "id": 975256.0, "initialdat": "2002-01-03", "finaldate": "2002-01-06", "area_ha": 42.888407778215409 }, "geometry": { "type": "MultiPolygon", "coordinates": [ [ [ [ -60.143829733098556, -30.587499997307813 ], [ -60.138989572971937, -30.587499997307813 ], [ -60.134149412845339, -30.587499997307813 ], [ -60.136734626976114, -30.591666663974113 ], [ -60.141574995184989, -30.591666663974113 ], [ -60.146415363393878, -30.591666663974113 ], [ -60.143829733098556, -30.587499997307813 ] ] ] ] } },
{ "type": "Feature", "properties": { "_uid_": 3335.0, "id": 975262.0, "initialdat": "2002-01-01", "finaldate": "2002-01-05", "area_ha": 107.22180341740847 }, "geometry": { "type": "MultiPolygon", "coordinates": [ [ [ [ -60.196172076267636, -30.624999997304489 ], [ -60.191330041834206, -30.624999997304489 ], [ -60.193921581934745, -30.629166663970789 ], [ -60.198763824842167, -30.629166663970789 ], [ -60.196172076267636, -30.624999997304489 ] ] ], [ [ [ -60.193921581934745, -30.629166663970789 ], [ -60.189079339027323, -30.629166663970789 ], [ -60.194263626837461, -30.637499997303383 ], [ -60.199106286823536, -30.637499997303383 ], [ -60.2087916067957, -30.637499997303383 ], [ -60.206198566415317, -30.633333330637083 ], [ -60.201356114990361, -30.633333330637083 ], [ -60.196513663565398, -30.633333330637083 ], [ -60.193921581934745, -30.629166663970789 ] ] ] ] } },
{ "type": "Feature", "properties": { "_uid_": 3336.0, "id": 975264.0, "initialdat": "2002-01-01", "finaldate": "2002-01-03", "area_ha": 278.77838480309248 }, "geometry": { "type": "MultiPolygon", "coordinates": [ [ [ [ -60.213979313090093, -30.64583333063598 ], [ -60.209136235851034, -30.64583333063598 ], [ -60.211730693268116, -30.649999997302281 ], [ -60.216573979199055, -30.649999997302281 ], [ -60.213979313090093, -30.64583333063598 ] ] ], [ [ [ -60.211730693268116, -30.649999997302281 ], [ -60.206887407337177, -30.649999997302281 ], [ -60.209482198079684, -30.654166663968574 ], [ -60.214325692746101, -30.654166663968574 ], [ -60.211730693268116, -30.649999997302281 ] ] ], [ [ [ -60.209482198079684, -30.654166663968574 ], [ -60.204638703413266, -30.654166663968574 ], [ -60.207233827491535, -30.658333330634875 ], [ -60.19754642060051, -30.658333330634875 ], [ -60.202737459982878, -30.666666663967465 ], [ -60.207581581117424, -30.666666663967465 ], [ -60.210178123084845, -30.670833330633766 ], [ -60.212775207470216, -30.674999997300059 ], [ -60.217619746468351, -30.674999997300059 ], [ -60.215022453129357, -30.670833330633766 ], [ -60.21986678317387, -30.670833330633766 ], [ -60.214673406006789, -30.662499997301168 ], [ -60.21207753093703, -30.658333330634875 ], [ -60.209482198079684, -30.654166663968574 ] ] ], [ [ [ -60.212775207470216, -30.674999997300059 ], [ -60.207930668472102, -30.674999997300059 ], [ -60.210528086375874, -30.67916666396636 ], [ -60.215372834371244, -30.67916666396636 ], [ -60.212775207470216, -30.674999997300059 ] ] ] ] } },
{ "type": "Feature", "properties": { "_uid_": 3337.0, "id": 975266.0, "initialdat": "2002-01-01", "finaldate": "2002-01-03", "area_ha": 85.778416199314591 }, "geometry": { "type": "MultiPolygon", "coordinates": [ [ [ [ -60.161047251415511, -30.654166663968574 ], [ -60.156203756749093, -30.654166663968574 ], [ -60.158796793036458, -30.658333330634875 ], [ -60.168484199927491, -30.658333330634875 ], [ -60.165890746081942, -30.654166663968574 ], [ -60.170734240748359, -30.654166663968574 ], [ -60.168141119889675, -30.649999997302281 ], [ -60.163297833958744, -30.649999997302281 ], [ -60.158454548027798, -30.649999997302281 ], [ -60.161047251415511, -30.654166663968574 ] ] ] ] } },
{ "type": "Feature", "properties": { "_uid_": 50181.0, "id": 975238.0, "initialdat": "2002-01-29", "finaldate": "2002-02-02", "area_ha": 150.10605769431592 }, "geometry": { "type": "MultiPolygon", "coordinates": [ [ [ [ -60.076792721710071, -30.479166663984081 ], [ -60.071957956482173, -30.479166663984081 ], [ -60.07710130624065, -30.487499997316675 ], [ -60.086771664599837, -30.487499997316675 ], [ -60.084199575768899, -30.483333330650375 ], [ -60.089034278967276, -30.483333330650375 ], [ -60.086462252165859, -30.479166663984081 ], [ -60.08389076327888, -30.474999997317781 ], [ -60.074221646644922, -30.474999997317781 ], [ -60.076792721710071, -30.479166663984081 ] ] ] ] } },
{ "type": "Feature", "properties": { "_uid_": 50182.0, "id": 975243.0, "initialdat": "2002-01-13", "finaldate": "2002-01-22", "area_ha": 150.10797543450593 }, "geometry": { "type": "MultiPolygon", "coordinates": [ [ [ [ -60.062842283153721, -30.558333330643727 ], [ -60.060263673417978, -30.554166663977433 ], [ -60.050586679351511, -30.554166663977433 ], [ -60.053164873618037, -30.558333330643727 ], [ -60.048326168850181, -30.558333330643727 ], [ -60.050904694349292, -30.562499997310027 ], [ -60.055743606895177, -30.562499997310027 ], [ -60.060582519441056, -30.562499997310027 ], [ -60.065421431986948, -30.562499997310027 ], [ -60.062842283153721, -30.558333330643727 ] ] ], [ [ [ -60.062842283153721, -30.558333330643727 ], [ -60.06768098792157, -30.558333330643727 ], [ -60.062523892025062, -30.549999997311136 ], [ -60.057685602683016, -30.549999997311136 ], [ -60.062842283153721, -30.558333330643727 ] ] ] ] } },
{ "type": "Feature", "properties": { "_uid_": 50186.0, "id": 975258.0, "initialdat": "2002-01-28", "finaldate": "2002-02-07", "area_ha": 2315.992333933234 }, "geometry": { "type": "MultiPolygon", "coordinates": [ [ [ [ -60.172984405820628, -30.649999997302281 ], [ -60.175577735414777, -30.654166663968574 ], [ -60.18042123008118, -30.654166663968574 ], [ -60.185264724747597, -30.654166663968574 ], [ -60.190108219414014, -30.654166663968574 ], [ -60.192702717155001, -30.658333330634875 ], [ -60.183015310263997, -30.658333330634875 ], [ -60.185609932397504, -30.662499997301168 ], [ -60.200141669202146, -30.662499997301168 ], [ -60.194951714080432, -30.654166663968574 ], [ -60.204638703413266, -30.654166663968574 ], [ -60.202044392393098, -30.649999997302281 ], [ -60.206887407337177, -30.649999997302281 ], [ -60.204293158611968, -30.64583333063598 ], [ -60.209136235851034, -30.64583333063598 ], [ -60.206542320397361, -30.64166666396968 ], [ -60.201699722717748, -30.64166666396968 ], [ -60.199106286823536, -30.637499997303383 ], [ -60.194264168486313, -30.637499997303383 ], [ -60.191671753756815, -30.633333330637083 ], [ -60.196513663565398, -30.633333330637083 ], [ -60.191330041834206, -30.624999997304489 ], [ -60.188739043166422, -30.620833330638192 ], [ -60.183897217163427, -30.620833330638192 ], [ -60.176128093813674, -30.608333330639304 ], [ -60.171286892840698, -30.608333330639304 ], [ -60.168699016270693, -30.604166663973004 ], [ -60.173539468160342, -30.604166663973004 ], [ -60.170951383409957, -30.599999997306703 ], [ -60.166111139700696, -30.599999997306703 ], [ -60.163523263130699, -30.59583333064041 ], [ -60.16836383946535, -30.59583333064041 ], [ -60.165776836229405, -30.591666663974113 ], [ -60.151255731602753, -30.591666663974113 ], [ -60.153842110461412, -30.59583333064041 ], [ -60.149001534126775, -30.59583333064041 ], [ -60.151588245394329, -30.599999997306703 ], [ -60.14674746089041, -30.599999997306703 ], [ -60.149334504576949, -30.604166663973004 ], [ -60.144493511860269, -30.604166663973004 ], [ -60.147080887975889, -30.608333330639304 ], [ -60.142239687002913, -30.608333330639304 ], [ -60.147415644905138, -30.616666663971898 ], [ -60.150004435142414, -30.620833330638192 ], [ -60.145162609139419, -30.620833330638192 ], [ -60.147751731933326, -30.624999997304489 ], [ -60.15034139576801, -30.629166663970789 ], [ -60.152931600740736, -30.633333330637083 ], [ -60.155522346948821, -30.637499997303383 ], [ -60.150679686962725, -30.637499997303383 ], [ -60.153270765898803, -30.64166666396968 ], [ -60.158113634489595, -30.64166666396968 ], [ -60.167799371671144, -30.64166666396968 ], [ -60.170391617938563, -30.64583333063598 ], [ -60.16554854069949, -30.64583333063598 ], [ -60.168141119889675, -30.649999997302281 ], [ -60.172984405820628, -30.649999997302281 ] ] ] ] } },
{ "type": "Feature", "properties": { "_uid_": 50187.0, "id": 975267.0, "initialdat": "2002-01-26", "finaldate": "2002-01-26", "area_ha": 21.444497250258923 }, "geometry": { "type": "MultiPolygon", "coordinates": [ [ [ [ -60.199795208746842, -30.654166663968574 ], [ -60.194951714080432, -30.654166663968574 ], [ -60.19754642060051, -30.658333330634875 ], [ -60.202390124046012, -30.658333330634875 ], [ -60.199795208746842, -30.654166663968574 ] ] ] ] } },
{ "type": "Feature", "properties": { "_uid_": 81155.0, "id": 1058760.0, "initialdat": "2002-02-04", "finaldate": "2002-02-04", "area_ha": 42.888004781258104 }, "geometry": { "type": "MultiPolygon", "coordinates": [ [ [ [ -60.062206826008598, -30.541666663978543 ], [ -60.052531077828782, -30.541666663978543 ], [ -60.055108070852157, -30.545833330644836 ], [ -60.064784234240719, -30.545833330644836 ], [ -60.062206826008598, -30.541666663978543 ] ] ] ] } },
{ "type": "Feature", "properties": { "_uid_": 81159.0, "id": 1058793.0, "initialdat": "2002-02-07", "finaldate": "2002-02-07", "area_ha": 21.445619116008281 }, "geometry": { "type": "MultiPolygon", "coordinates": [ [ [ [ -60.295948624588497, -30.90833333061272 ], [ -60.291092314293337, -30.90833333061272 ], [ -60.293717518512352, -30.912499997279014 ], [ -60.298574040261741, -30.912499997279014 ], [ -60.295948624588497, -30.90833333061272 ] ] ] ] } },
{ "type": "Feature", "properties": { "_uid_": 111954.0, "id": 1058761.0, "initialdat": "2002-02-19", "finaldate": "2002-02-19", "area_ha": 42.888480948126315 }, "geometry": { "type": "MultiPolygon", "coordinates": [ [ [ [ -60.149001534126775, -30.59583333064041 ], [ -60.139320381457495, -30.59583333064041 ], [ -60.141906676386505, -30.599999997306703 ], [ -60.151588245394329, -30.599999997306703 ], [ -60.149001534126775, -30.59583333064041 ] ] ] ] } },
{ "type": "Feature", "properties": { "_uid_": 111960.0, "id": 1058767.0, "initialdat": "2002-02-13", "finaldate": "2002-02-13", "area_ha": 21.444478801047801 }, "geometry": { "type": "MultiPolygon", "coordinates": [ [ [ [ -60.172984405820628, -30.649999997302281 ], [ -60.168141119889675, -30.649999997302281 ], [ -60.170734240748359, -30.654166663968574 ], [ -60.175577735414777, -30.654166663968574 ], [ -60.172984405820628, -30.649999997302281 ] ] ] ] } },
{ "type": "Feature", "properties": { "_uid_": 111980.0, "id": 1058791.0, "initialdat": "2002-02-13", "finaldate": "2002-02-13", "area_ha": 21.445600849103929 }, "geometry": { "type": "MultiPolygon", "coordinates": [ [ [ [ -60.298179855260074, -30.904166663946423 ], [ -60.293323756375038, -30.904166663946423 ], [ -60.295948624588497, -30.90833333061272 ], [ -60.300804934883672, -30.90833333061272 ], [ -60.298179855260074, -30.904166663946423 ] ] ] ] } },
{ "type": "Feature", "properties": { "_uid_": 111990.0, "id": 1058805.0, "initialdat": "2002-02-19", "finaldate": "2002-02-28", "area_ha": 922.23923678243159 }, "geometry": { "type": "MultiPolygon", "coordinates": [ [ [ [ -60.359492848883505, -31.337499997241363 ], [ -60.369249217263302, -31.337499997241363 ], [ -60.366576289448005, -31.333333330575062 ], [ -60.376332503797833, -31.333333330575062 ], [ -60.373659699988551, -31.329166663908769 ], [ -60.383415482439894, -31.329166663908769 ], [ -60.380742802714146, -31.324999997242468 ], [ -60.385620478035491, -31.324999997242468 ], [ -60.382948138330285, -31.320833330576171 ], [ -60.37319321940646, -31.320833330576171 ], [ -60.370521867153116, -31.316666663909871 ], [ -60.365644623505737, -31.316666663909871 ], [ -60.362974042653022, -31.312499997243577 ], [ -60.358097014775275, -31.312499997243577 ], [ -60.343465931142063, -31.312499997243577 ], [ -60.346135648916217, -31.316666663909871 ], [ -60.351476750786127, -31.324999997242468 ], [ -60.341721400143435, -31.324999997242468 ], [ -60.347063860748335, -31.333333330575062 ], [ -60.344392352634522, -31.329166663908769 ], [ -60.339514461408839, -31.329166663908769 ], [ -60.342185753573418, -31.333333330575062 ], [ -60.344857601417885, -31.337499997241363 ], [ -60.339979278248798, -31.337499997241363 ], [ -60.345324209262543, -31.345833330573956 ], [ -60.350202964554754, -31.345833330573956 ], [ -60.355081719846979, -31.345833330573956 ], [ -60.352408544252476, -31.341666663907663 ], [ -60.36216562266884, -31.341666663907663 ], [ -60.359492848883505, -31.337499997241363 ] ] ], [ [ [ -60.345324209262543, -31.345833330573956 ], [ -60.342651465836113, -31.341666663907663 ], [ -60.337772926627935, -31.341666663907663 ], [ -60.340445453970332, -31.345833330573956 ], [ -60.345324209262543, -31.345833330573956 ] ] ] ] } },
{ "type": "Feature", "properties": { "_uid_": 965503.0, "id": 2035149.0, "initialdat": "2002-12-12", "finaldate": "2002-12-12", "area_ha": 21.444497138929368 }, "geometry": { "type": "MultiPolygon", "coordinates": [ [ [ [ -59.991524938090933, -30.654166663968574 ], [ -59.986681443424516, -30.654166663968574 ], [ -59.989267172443761, -30.658333330634875 ], [ -59.994110875889263, -30.658333330634875 ], [ -59.991524938090933, -30.654166663968574 ] ] ] ] } }
]
}
