{
"type": "FeatureCollection",
"name": "2003",
"crs": { "type": "name", "properties": { "name": "urn:ogc:def:crs:OGC:1.3:CRS84" } },
"features": [
{ "type": "Feature", "properties": { "_uid_": 290672.0, "id": 2438569.0, "initialdat": "2003-04-21", "finaldate": "2003-04-26", "area_ha": 85.778495353984837 }, "geometry": { "type": "MultiPolygon", "coordinates": [ [ [ [ -60.258523713821333, -30.724999997295637 ], [ -60.263370763669613, -30.724999997295637 ], [ -60.260766324730533, -30.720833330629336 ], [ -60.25816242955829, -30.716666663963036 ], [ -60.253315798622097, -30.716666663963036 ], [ -60.248469167685911, -30.716666663963036 ], [ -60.253676663973025, -30.724999997295637 ], [ -60.258523713821333, -30.724999997295637 ] ] ] ] } },
{ "type": "Feature", "properties": { "_uid_": 702015.0, "id": 2863217.0, "initialdat": "2003-08-16", "finaldate": "2003-08-16", "area_ha": 21.444497138929368 }, "geometry": { "type": "MultiPolygon", "coordinates": [ [ [ [ -59.991524938090933, -30.654166663968574 ], [ -59.986681443424516, -30.654166663968574 ], [ -59.989267172443761, -30.658333330634875 ], [ -59.994110875889263, -30.658333330634875 ], [ -59.991524938090933, -30.654166663968574 ] ] ] ] } },
{ "type": "Feature", "properties": { "_uid_": 702016.0, "id": 2863218.0, "initialdat": "2003-08-17", "finaldate": "2003-08-17", "area_ha": 21.444534036433694 }, "geometry": { "type": "MultiPolygon", "coordinates": [ [ [ [ -60.001541266205422, -30.662499997301168 ], [ -59.996697353937201, -30.662499997301168 ], [ -59.999284372331964, -30.666666663967465 ], [ -60.004128493466524, -30.666666663967465 ], [ -60.001541266205422, -30.662499997301168 ] ] ] ] } },
{ "type": "Feature", "properties": { "_uid_": 786677.0, "id": 3030795.0, "initialdat": "2003-09-12", "finaldate": "2003-09-12", "area_ha": 21.443819203388692 }, "geometry": { "type": "MultiPolygon", "coordinates": [ [ [ [ -59.925238951695874, -30.499999997315566 ], [ -59.920403151264004, -30.499999997315566 ], [ -59.92297020376553, -30.504166663981866 ], [ -59.927806211368136, -30.504166663981866 ], [ -59.925238951695874, -30.499999997315566 ] ] ] ] } },
{ "type": "Feature", "properties": { "_uid_": 786697.0, "id": 3030823.0, "initialdat": "2003-09-02", "finaldate": "2003-09-04", "area_ha": 85.783043011784557 }, "geometry": { "type": "MultiPolygon", "coordinates": [ [ [ [ -60.120026380472936, -30.937499997276799 ], [ -60.115168589071793, -30.937499997276799 ], [ -60.117789157458105, -30.941666663943099 ], [ -60.12264716062235, -30.941666663943099 ], [ -60.120026380472936, -30.937499997276799 ] ] ], [ [ [ -60.117789157458105, -30.941666663943099 ], [ -60.112931154293847, -30.941666663943099 ], [ -60.108073151129602, -30.941666663943099 ], [ -60.113315080017529, -30.949999997275697 ], [ -60.118173506840463, -30.949999997275697 ], [ -60.115552330567155, -30.9458333306094 ], [ -60.120410272288908, -30.9458333306094 ], [ -60.117789157458105, -30.941666663943099 ] ] ] ] } },
{ "type": "Feature", "properties": { "_uid_": 959672.0, "id": 3150303.0, "initialdat": "2003-10-16", "finaldate": "2003-10-16", "area_ha": 21.446820672786234 }, "geometry": { "type": "MultiPolygon", "coordinates": [ [ [ [ -60.36060069335916, -31.179166663922061 ], [ -60.355730546457941, -31.179166663922061 ], [ -60.358386831629929, -31.183333330588354 ], [ -60.363257192868673, -31.183333330588354 ], [ -60.36060069335916, -31.179166663922061 ] ] ] ] } }
]
}
