{
"type": "FeatureCollection",
"name": "2004",
"crs": { "type": "name", "properties": { "name": "urn:ogc:def:crs:OGC:1.3:CRS84" } },
"features": [
{ "type": "Feature", "properties": { "_uid_": 48527.0, "id": 3407911.0, "initialdat": "2004-01-19", "finaldate": "2004-01-25", "area_ha": 64.337927961814401 }, "geometry": { "type": "MultiPolygon", "coordinates": [ [ [ [ -60.31453725327102, -30.99166666393867 ], [ -60.317172152666515, -30.995833330604967 ], [ -60.322032912772293, -30.995833330604967 ], [ -60.319397801039038, -30.99166666393867 ], [ -60.324258348807064, -30.99166666393867 ], [ -60.3216235739661, -30.987499997272369 ], [ -60.316763238491589, -30.987499997272369 ], [ -60.311902903017085, -30.987499997272369 ], [ -60.31453725327102, -30.99166666393867 ] ] ] ] } },
{ "type": "Feature", "properties": { "_uid_": 48528.0, "id": 3407912.0, "initialdat": "2004-01-18", "finaldate": "2004-01-20", "area_ha": 42.892457031095027 }, "geometry": { "type": "MultiPolygon", "coordinates": [ [ [ [ -60.329380568373381, -31.045833330600537 ], [ -60.324517256759641, -31.045833330600537 ], [ -60.31965394514588, -31.045833330600537 ], [ -60.32229471499592, -31.049999997266838 ], [ -60.327158239523463, -31.049999997266838 ], [ -60.332021764051014, -31.049999997266838 ], [ -60.329380568373381, -31.045833330600537 ] ] ] ] } },
{ "type": "Feature", "properties": { "_uid_": 48532.0, "id": 3407917.0, "initialdat": "2004-01-25", "finaldate": "2004-01-27", "area_ha": 42.893493280220035 }, "geometry": { "type": "MultiPolygon", "coordinates": [ [ [ [ -60.252594424326333, -31.162499997256862 ], [ -60.247725134329215, -31.162499997256862 ], [ -60.242855844332077, -31.162499997256862 ], [ -60.245505420963923, -31.166666663923163 ], [ -60.250374925120191, -31.166666663923163 ], [ -60.255244429276431, -31.166666663923163 ], [ -60.252594424326333, -31.162499997256862 ] ] ] ] } },
{ "type": "Feature", "properties": { "_uid_": 48533.0, "id": 3407918.0, "initialdat": "2004-01-25", "finaldate": "2004-01-26", "area_ha": 557.61952009518143 }, "geometry": { "type": "MultiPolygon", "coordinates": [ [ [ [ -60.264067910962062, -31.195833330587245 ], [ -60.254325901923728, -31.195833330587245 ], [ -60.259633582589835, -31.204166663919839 ], [ -60.264505016185865, -31.204166663919839 ], [ -60.261850685077079, -31.199999997253546 ], [ -60.266721904112337, -31.199999997253546 ], [ -60.264067910962062, -31.195833330587245 ] ] ], [ [ [ -60.259633582589835, -31.204166663919839 ], [ -60.256979466041827, -31.199999997253546 ], [ -60.252108247006568, -31.199999997253546 ], [ -60.254762148993827, -31.204166663919839 ], [ -60.249890715397818, -31.204166663919839 ], [ -60.252544955265996, -31.208333330586139 ], [ -60.262288251668878, -31.208333330586139 ], [ -60.259633582589835, -31.204166663919839 ] ] ], [ [ [ -60.252544955265996, -31.208333330586139 ], [ -60.247673307064566, -31.208333330586139 ], [ -60.250327884825431, -31.21249999725244 ], [ -60.255199747676961, -31.21249999725244 ], [ -60.252544955265996, -31.208333330586139 ] ] ], [ [ [ -60.250327884825431, -31.21249999725244 ], [ -60.240584159122335, -31.21249999725244 ], [ -60.243238860092831, -31.21666666391873 ], [ -60.252983015185485, -31.21666666391873 ], [ -60.250327884825431, -31.21249999725244 ] ] ], [ [ [ -60.252108247006568, -31.199999997253546 ], [ -60.249454897404568, -31.195833330587245 ], [ -60.254325901923728, -31.195833330587245 ], [ -60.251672890134522, -31.191666663920952 ], [ -60.256543680182254, -31.191666663920952 ], [ -60.253891006194117, -31.187499997254655 ], [ -60.25876158181503, -31.187499997254655 ], [ -60.253457461532676, -31.179166663922061 ], [ -60.248587314631493, -31.179166663922061 ], [ -60.251238884377521, -31.183333330588354 ], [ -60.241498161900033, -31.183333330588354 ], [ -60.246802100086818, -31.191666663920952 ], [ -60.237060519991388, -31.191666663920952 ], [ -60.232189729943656, -31.191666663920952 ], [ -60.22731893989593, -31.191666663920952 ], [ -60.229970879327901, -31.195833330587245 ], [ -60.225099874808748, -31.195833330587245 ], [ -60.227752151830252, -31.199999997253546 ], [ -60.232623370865511, -31.199999997253546 ], [ -60.235276414609757, -31.204166663919839 ], [ -60.24014784820578, -31.204166663919839 ], [ -60.237494589900777, -31.199999997253546 ], [ -60.252108247006568, -31.199999997253546 ] ] ] ] } },
{ "type": "Feature", "properties": { "_uid_": 48534.0, "id": 3407919.0, "initialdat": "2004-01-20", "finaldate": "2004-01-20", "area_ha": 21.446857872605325 }, "geometry": { "type": "MultiPolygon", "coordinates": [ [ [ [ -60.244149854952298, -31.187499997254655 ], [ -60.23927927933137, -31.187499997254655 ], [ -60.241931310039092, -31.191666663920952 ], [ -60.246802100086818, -31.191666663920952 ], [ -60.244149854952298, -31.187499997254655 ] ] ] ] } },
{ "type": "Feature", "properties": { "_uid_": 48535.0, "id": 3407920.0, "initialdat": "2004-01-16", "finaldate": "2004-01-20", "area_ha": 128.6810250173807 }, "geometry": { "type": "MultiPolygon", "coordinates": [ [ [ [ -60.254325901923728, -31.195833330587245 ], [ -60.249454897404568, -31.195833330587245 ], [ -60.252108247006568, -31.199999997253546 ], [ -60.256979466041827, -31.199999997253546 ], [ -60.254325901923728, -31.195833330587245 ] ] ], [ [ [ -60.252108247006568, -31.199999997253546 ], [ -60.247237027971295, -31.199999997253546 ], [ -60.237494589900777, -31.199999997253546 ], [ -60.24014784820578, -31.204166663919839 ], [ -60.242801658863122, -31.208333330586139 ], [ -60.247673307064566, -31.208333330586139 ], [ -60.252544955265996, -31.208333330586139 ], [ -60.249890715397818, -31.204166663919839 ], [ -60.254762148993827, -31.204166663919839 ], [ -60.252108247006568, -31.199999997253546 ] ] ] ] } },
{ "type": "Feature", "properties": { "_uid_": 48536.0, "id": 3407921.0, "initialdat": "2004-01-25", "finaldate": "2004-01-31", "area_ha": 428.94571624276631 }, "geometry": { "type": "MultiPolygon", "coordinates": [ [ [ [ -60.435192082278228, -31.295833330578386 ], [ -60.440068247526114, -31.295833330578386 ], [ -60.444944412774014, -31.295833330578386 ], [ -60.442272512961594, -31.291666663912086 ], [ -60.447148462664174, -31.291666663912086 ], [ -60.441805899461166, -31.283333330579492 ], [ -60.436930380714728, -31.283333330579492 ], [ -60.432054861968297, -31.283333330579492 ], [ -60.427179343221859, -31.283333330579492 ], [ -60.417428305728976, -31.283333330579492 ], [ -60.420098232167454, -31.287499997245792 ], [ -60.41522249796536, -31.287499997245792 ], [ -60.41789276444873, -31.291666663912086 ], [ -60.41301681474615, -31.291666663912086 ], [ -60.415687421286634, -31.295833330578386 ], [ -60.418358583486651, -31.299999997244687 ], [ -60.423234964324713, -31.299999997244687 ], [ -60.428111345162783, -31.299999997244687 ], [ -60.432987726000839, -31.299999997244687 ], [ -60.43031591703032, -31.295833330578386 ], [ -60.435192082278228, -31.295833330578386 ] ] ] ] } },
{ "type": "Feature", "properties": { "_uid_": 48537.0, "id": 3407922.0, "initialdat": "2004-01-30", "finaldate": "2004-01-30", "area_ha": 21.447377431190013 }, "geometry": { "type": "MultiPolygon", "coordinates": [ [ [ [ -60.421030301448162, -31.30416666391098 ], [ -60.416153704975073, -31.30416666391098 ], [ -60.418825763120175, -31.308333330577277 ], [ -60.423702575273161, -31.308333330577277 ], [ -60.421030301448162, -31.30416666391098 ] ] ] ] } },
{ "type": "Feature", "properties": { "_uid_": 48538.0, "id": 3407923.0, "initialdat": "2004-01-31", "finaldate": "2004-01-31", "area_ha": 21.447433135151861 }, "geometry": { "type": "MultiPolygon", "coordinates": [ [ [ [ -60.429048790921712, -31.316666663909871 ], [ -60.424171547274327, -31.316666663909871 ], [ -60.426845273487501, -31.320833330576171 ], [ -60.431722732949424, -31.320833330576171 ], [ -60.429048790921712, -31.316666663909871 ] ] ] ] } },
{ "type": "Feature", "properties": { "_uid_": 87634.0, "id": 3499705.0, "initialdat": "2004-02-07", "finaldate": "2004-02-09", "area_ha": 42.894513578426839 }, "geometry": { "type": "MultiPolygon", "coordinates": [ [ [ [ -60.47492764603313, -31.281763187643467 ], [ -60.473262574761293, -31.279166663913195 ], [ -60.468387271425691, -31.279166663913195 ], [ -60.471059011939808, -31.283333330579492 ], [ -60.472974128683134, -31.283333330579492 ], [ -60.47492764603313, -31.281763187643467 ] ] ], [ [ [ -60.470591174715771, -31.274999997246901 ], [ -60.473262574761293, -31.279166663913195 ], [ -60.478137878096916, -31.279166663913195 ], [ -60.475466262685373, -31.274999997246901 ], [ -60.470591174715771, -31.274999997246901 ] ] ] ] } },
{ "type": "Feature", "properties": { "_uid_": 87635.0, "id": 3499712.0, "initialdat": "2004-02-05", "finaldate": "2004-02-05", "area_ha": 42.894884879660609 }, "geometry": { "type": "MultiPolygon", "coordinates": [ [ [ [ -60.426845273487501, -31.320833330576171 ], [ -60.421967814025592, -31.320833330576171 ], [ -60.424641880606217, -31.324999997242468 ], [ -60.429519555927548, -31.324999997242468 ], [ -60.426845273487501, -31.320833330576171 ] ] ], [ [ [ -60.43392603456909, -31.316666663909871 ], [ -60.429048790921712, -31.316666663909871 ], [ -60.431722732949424, -31.320833330576171 ], [ -60.436600192411326, -31.320833330576171 ], [ -60.43392603456909, -31.316666663909871 ] ] ] ] } },
{ "type": "Feature", "properties": { "_uid_": 87636.0, "id": 3499716.0, "initialdat": "2004-02-13", "finaldate": "2004-02-13", "area_ha": 21.447711951112748 }, "geometry": { "type": "MultiPolygon", "coordinates": [ [ [ [ -60.425292006144389, -31.379166663904332 ], [ -60.420411520561132, -31.379166663904332 ], [ -60.423091652516867, -31.383333330570633 ], [ -60.427972354588974, -31.383333330570633 ], [ -60.425292006144389, -31.379166663904332 ] ] ] ] } },
{ "type": "Feature", "properties": { "_uid_": 141052.0, "id": 3499690.0, "initialdat": "2004-02-17", "finaldate": "2004-02-17", "area_ha": 21.443490219676494 }, "geometry": { "type": "MultiPolygon", "coordinates": [ [ [ [ -59.890567057355867, -30.427904120709798 ], [ -59.891342165222326, -30.429166663988511 ], [ -59.896174450373628, -30.429166663988511 ], [ -59.893616219900714, -30.42499999732221 ], [ -59.89158807274589, -30.42499999732221 ], [ -59.890567057355867, -30.427904120709798 ] ] ] ] } },
{ "type": "Feature", "properties": { "_uid_": 141054.0, "id": 3499692.0, "initialdat": "2004-02-10", "finaldate": "2004-02-17", "area_ha": 214.43846219071153 }, "geometry": { "type": "MultiPolygon", "coordinates": [ [ [ [ -60.084509174257853, -30.491666663982965 ], [ -60.079673788037482, -30.491666663982965 ], [ -60.082246807907772, -30.495833330649273 ], [ -60.084820365947884, -30.499999997315566 ], [ -60.094491966811638, -30.499999997315566 ], [ -60.099327767243516, -30.499999997315566 ], [ -60.096753587821183, -30.495833330649273 ], [ -60.101589181125654, -30.495833330649273 ], [ -60.096442022959003, -30.487499997316675 ], [ -60.086771664599837, -30.487499997316675 ], [ -60.08193648542025, -30.487499997316675 ], [ -60.084509174257853, -30.491666663982965 ] ] ] ] } },
{ "type": "Feature", "properties": { "_uid_": 141063.0, "id": 3499704.0, "initialdat": "2004-02-16", "finaldate": "2004-02-17", "area_ha": 85.788216625964637 }, "geometry": { "type": "MultiPolygon", "coordinates": [ [ [ [ -60.460375384483299, -31.266666663914307 ], [ -60.455500727111335, -31.266666663914307 ], [ -60.460840998776575, -31.274999997246901 ], [ -60.46571608674617, -31.274999997246901 ], [ -60.463045457799332, -31.270833330580601 ], [ -60.467920330447726, -31.270833330580601 ], [ -60.465250041855285, -31.266666663914307 ], [ -60.462580308836593, -31.262499997248007 ], [ -60.45770586669623, -31.262499997248007 ], [ -60.460375384483299, -31.266666663914307 ] ] ] ] } },
{ "type": "Feature", "properties": { "_uid_": 141064.0, "id": 3499706.0, "initialdat": "2004-02-16", "finaldate": "2004-02-17", "area_ha": 64.341834967446331 }, "geometry": { "type": "MultiPolygon", "coordinates": [ [ [ [ -60.471588233991397, -31.284447245825913 ], [ -60.472974128683134, -31.283333330579492 ], [ -60.466183493193377, -31.283333330579492 ], [ -60.467770585140357, -31.285808136966061 ], [ -60.471588233991397, -31.284447245825913 ] ] ], [ [ [ -60.478144773547747, -31.279177415860396 ], [ -60.478137878096916, -31.279166663913195 ], [ -60.473262574761293, -31.279166663913195 ], [ -60.47492764603313, -31.281763187643467 ], [ -60.478144773547747, -31.279177415860396 ] ] ] ] } },
{ "type": "Feature", "properties": { "_uid_": 141069.0, "id": 3499711.0, "initialdat": "2004-02-12", "finaldate": "2004-02-24", "area_ha": 1029.4794439575076 }, "geometry": { "type": "MultiPolygon", "coordinates": [ [ [ [ -60.452720711825215, -31.353523256654483 ], [ -60.450455908475369, -31.349999997240253 ], [ -60.455334879896562, -31.349999997240253 ], [ -60.45553265830717, -31.349999997240253 ], [ -60.455682074434321, -31.349812784652812 ], [ -60.455711744758737, -31.349826810666578 ], [ -60.455879649407812, -31.349565213046404 ], [ -60.457605432808954, -31.347402649837221 ], [ -60.457893152232224, -31.346389239599606 ], [ -60.457535859471015, -31.345833330573956 ], [ -60.45805098152811, -31.345833330573956 ], [ -60.458184318268593, -31.345363689642788 ], [ -60.460599942654817, -31.340600267077686 ], [ -60.461149005185312, -31.339166525557371 ], [ -60.461449605109685, -31.338355864308546 ], [ -60.461998175775278, -31.336826669220986 ], [ -60.462681110413655, -31.333333330575062 ], [ -60.459260325771425, -31.333333330575062 ], [ -60.45658385082497, -31.329166663908769 ], [ -60.461461742050638, -31.329166663908769 ], [ -60.458785607855589, -31.324999997242468 ], [ -60.456110030258976, -31.320833330576171 ], [ -60.453435009158625, -31.316666663909871 ], [ -60.448557765511246, -31.316666663909871 ], [ -60.451232570797067, -31.320833330576171 ], [ -60.446355111335144, -31.320833330576171 ], [ -60.443680521863847, -31.316666663909871 ], [ -60.438803278216469, -31.316666663909871 ], [ -60.43392603456909, -31.316666663909871 ], [ -60.439274906570226, -31.324999997242468 ], [ -60.434397231248894, -31.324999997242468 ], [ -60.437072285922277, -31.329166663908769 ], [ -60.432194394696602, -31.329166663908769 ], [ -60.434869789896837, -31.333333330575062 ], [ -60.437545741630473, -31.337499997241363 ], [ -60.440222249999721, -31.341666663907663 ], [ -60.435343710791543, -31.341666663907663 ], [ -60.438020559814632, -31.345833330573956 ], [ -60.433141804522421, -31.345833330573956 ], [ -60.435818994211786, -31.349999997240253 ], [ -60.43094002279058, -31.349999997240253 ], [ -60.436295640436633, -31.358333330572847 ], [ -60.44117504425067, -31.358333330572847 ], [ -60.446054448064714, -31.358333330572847 ], [ -60.45093385187873, -31.358333330572847 ], [ -60.448255115944015, -31.354166663906554 ], [ -60.452207202444775, -31.354166663906554 ], [ -60.452720711825215, -31.353523256654483 ] ], [ [ -60.444152581891565, -31.324999997242468 ], [ -60.446828068373627, -31.329166663908769 ], [ -60.441950177147945, -31.329166663908769 ], [ -60.439274906570226, -31.324999997242468 ], [ -60.444152581891565, -31.324999997242468 ] ] ], [ [ [ -60.445883516574625, -31.312499997243577 ], [ -60.441006488696871, -31.312499997243577 ], [ -60.443680521863847, -31.316666663909871 ], [ -60.448557765511246, -31.316666663909871 ], [ -60.445883516574625, -31.312499997243577 ] ] ], [ [ [ -60.431722732949424, -31.320833330576171 ], [ -60.426845273487501, -31.320833330576171 ], [ -60.429519555927548, -31.324999997242468 ], [ -60.434397231248894, -31.324999997242468 ], [ -60.431722732949424, -31.320833330576171 ] ] ] ] } },
{ "type": "Feature", "properties": { "_uid_": 141070.0, "id": 3499713.0, "initialdat": "2004-02-15", "finaldate": "2004-02-15", "area_ha": 21.4474888651371 }, "geometry": { "type": "MultiPolygon", "coordinates": [ [ [ [ -60.463021127597841, -31.331594078964368 ], [ -60.461461742050638, -31.329166663908769 ], [ -60.45658385082497, -31.329166663908769 ], [ -60.459260325771425, -31.333333330575062 ], [ -60.462681110413655, -31.333333330575062 ], [ -60.463021127597841, -31.331594078964368 ] ] ] ] } },
{ "type": "Feature", "properties": { "_uid_": 141072.0, "id": 3499715.0, "initialdat": "2004-02-18", "finaldate": "2004-02-18", "area_ha": 21.447563146400451 }, "geometry": { "type": "MultiPolygon", "coordinates": [ [ [ [ -60.423384293937985, -31.345833330573956 ], [ -60.418505538645775, -31.345833330573956 ], [ -60.421182079948188, -31.349999997240253 ], [ -60.426061051369388, -31.349999997240253 ], [ -60.423384293937985, -31.345833330573956 ] ] ] ] } },
{ "type": "Feature", "properties": { "_uid_": 174994.0, "id": 3591865.0, "initialdat": "2004-03-01", "finaldate": "2004-03-03", "area_ha": 85.776445519471167 }, "geometry": { "type": "MultiPolygon", "coordinates": [ [ [ [ -60.08255845465159, -30.504166663981866 ], [ -60.07772244704897, -30.504166663981866 ], [ -60.080296667289787, -30.508333330648163 ], [ -60.075460452473131, -30.508333330648163 ], [ -60.078035003828923, -30.512499997314457 ], [ -60.087707847977043, -30.512499997314457 ], [ -60.085133151314317, -30.508333330648163 ], [ -60.089969096923127, -30.508333330648163 ], [ -60.087394462254188, -30.504166663981866 ], [ -60.08255845465159, -30.504166663981866 ] ] ] ] } },
{ "type": "Feature", "properties": { "_uid_": 364496.0, "id": 3751632.0, "initialdat": "2004-05-27", "finaldate": "2004-06-03", "area_ha": 171.55962859739066 }, "geometry": { "type": "MultiPolygon", "coordinates": [ [ [ [ -60.033140766834514, -30.78333333062379 ], [ -60.03799075397032, -30.78333333062379 ], [ -60.035390036902079, -30.779166663957497 ], [ -60.040239813946826, -30.779166663957497 ], [ -60.037639429606052, -30.7749999972912 ], [ -60.032789862608503, -30.7749999972912 ], [ -60.027940295610946, -30.7749999972912 ], [ -60.023090728613397, -30.7749999972912 ], [ -60.028290779698708, -30.78333333062379 ], [ -60.033140766834514, -30.78333333062379 ] ] ], [ [ [ -60.023090728613397, -30.7749999972912 ], [ -60.020491517003222, -30.770833330624907 ], [ -60.015642160009023, -30.770833330624907 ], [ -60.01824116161584, -30.7749999972912 ], [ -60.023090728613397, -30.7749999972912 ] ] ], [ [ [ -60.020491517003222, -30.770833330624907 ], [ -60.025340873997422, -30.770833330624907 ], [ -60.022741994918732, -30.766666663958606 ], [ -60.017892847884063, -30.766666663958606 ], [ -60.020491517003222, -30.770833330624907 ] ] ], [ [ [ -60.023440792562901, -30.78333333062379 ], [ -60.01859080542711, -30.78333333062379 ], [ -60.021191224828485, -30.787499997290091 ], [ -60.026041422099183, -30.787499997290091 ], [ -60.023440792562901, -30.78333333062379 ] ] ] ] } },
{ "type": "Feature", "properties": { "_uid_": 412581.0, "id": 3852447.0, "initialdat": "2004-06-09", "finaldate": "2004-06-09", "area_ha": 42.885521972441673 }, "geometry": { "type": "MultiPolygon", "coordinates": [ [ [ [ -60.037741660238247, -30.258333330670311 ], [ -60.028093943435998, -30.258333330670311 ], [ -60.030640867458104, -30.262499997336612 ], [ -60.04028899360204, -30.262499997336612 ], [ -60.037741660238247, -30.258333330670311 ] ] ] ] } },
{ "type": "Feature", "properties": { "_uid_": 412585.0, "id": 3852453.0, "initialdat": "2004-06-09", "finaldate": "2004-06-12", "area_ha": 64.335145039260382 }, "geometry": { "type": "MultiPolygon", "coordinates": [ [ [ [ -60.023440792562901, -30.78333333062379 ], [ -60.026041422099183, -30.787499997290091 ], [ -60.030891619369903, -30.787499997290091 ], [ -60.028290779698708, -30.78333333062379 ], [ -60.025690482812564, -30.779166663957497 ], [ -60.023090728613397, -30.7749999972912 ], [ -60.01824116161584, -30.7749999972912 ], [ -60.020840705767803, -30.779166663957497 ], [ -60.023440792562901, -30.78333333062379 ] ] ] ] } },
{ "type": "Feature", "properties": { "_uid_": 412586.0, "id": 3852455.0, "initialdat": "2004-06-09", "finaldate": "2004-06-09", "area_ha": 21.445103440642356 }, "geometry": { "type": "MultiPolygon", "coordinates": [ [ [ [ -60.004390557227367, -30.791666663956391 ], [ -59.9995401497779, -30.791666663956391 ], [ -60.002140603754931, -30.795833330622688 ], [ -60.006991221427043, -30.795833330622688 ], [ -60.004390557227367, -30.791666663956391 ] ] ] ] } },
{ "type": "Feature", "properties": { "_uid_": 412588.0, "id": 3852457.0, "initialdat": "2004-06-01", "finaldate": "2004-06-01", "area_ha": 21.445619184374809 }, "geometry": { "type": "MultiPolygon", "coordinates": [ [ [ [ -60.140546695143314, -30.90833333061272 ], [ -60.135690384848139, -30.90833333061272 ], [ -60.138308822531911, -30.912499997279014 ], [ -60.1431653442813, -30.912499997279014 ], [ -60.140546695143314, -30.90833333061272 ] ] ] ] } },
{ "type": "Feature", "properties": { "_uid_": 505027.0, "id": 3959534.0, "initialdat": "2004-07-12", "finaldate": "2004-07-15", "area_ha": 214.43256604640484 }, "geometry": { "type": "MultiPolygon", "coordinates": [ [ [ [ -60.081173408909613, -30.399999997324425 ], [ -60.07634256759669, -30.399999997324425 ], [ -60.071511726283745, -30.399999997324425 ], [ -60.074074992074159, -30.404166663990726 ], [ -60.078906039520263, -30.404166663990726 ], [ -60.083737086966352, -30.404166663990726 ], [ -60.081173408909613, -30.399999997324425 ] ] ], [ [ [ -60.071511726283745, -30.399999997324425 ], [ -60.068948996885879, -30.395833330658128 ], [ -60.059287726440033, -30.395833330658128 ], [ -60.054457091217117, -30.395833330658128 ], [ -60.059581849735871, -30.404166663990726 ], [ -60.064412897181967, -30.404166663990726 ], [ -60.069243944628063, -30.404166663990726 ], [ -60.0666808849708, -30.399999997324425 ], [ -60.071511726283745, -30.399999997324425 ] ] ], [ [ [ -60.068948996885879, -30.395833330658128 ], [ -60.078610267331719, -30.395833330658128 ], [ -60.076047662136887, -30.391666663991835 ], [ -60.06638680378483, -30.391666663991835 ], [ -60.068948996885879, -30.395833330658128 ] ] ], [ [ [ -60.054457091217117, -30.395833330658128 ], [ -60.049626455994193, -30.395833330658128 ], [ -60.05218836103198, -30.399999997324425 ], [ -60.057019202344918, -30.399999997324425 ], [ -60.054457091217117, -30.395833330658128 ] ] ] ] } },
{ "type": "Feature", "properties": { "_uid_": 505028.0, "id": 3959537.0, "initialdat": "2004-07-12", "finaldate": "2004-07-12", "area_ha": 21.443417331731322 }, "geometry": { "type": "MultiPolygon", "coordinates": [ [ [ [ -60.057313779863321, -30.408333330657019 ], [ -60.052482526240937, -30.408333330657019 ], [ -60.055045834006592, -30.412499997323319 ], [ -60.05987729384843, -30.412499997323319 ], [ -60.057313779863321, -30.408333330657019 ] ] ] ] } },
{ "type": "Feature", "properties": { "_uid_": 505037.0, "id": 3959553.0, "initialdat": "2004-07-13", "finaldate": "2004-07-14", "area_ha": 107.22099559526445 }, "geometry": { "type": "MultiPolygon", "coordinates": [ [ [ [ -60.038316391556627, -30.612499997305598 ], [ -60.04090005735052, -30.616666663971898 ], [ -60.045741674966635, -30.616666663971898 ], [ -60.043157800829391, -30.612499997305598 ], [ -60.047999210102169, -30.612499997305598 ], [ -60.045415667543601, -30.608333330639304 ], [ -60.05025686851657, -30.608333330639304 ], [ -60.047673657526708, -30.604166663973004 ], [ -60.037991672093355, -30.604166663973004 ], [ -60.040574466570639, -30.608333330639304 ], [ -60.035733265597678, -30.608333330639304 ], [ -60.038316391556627, -30.612499997305598 ] ] ] ] } },
{ "type": "Feature", "properties": { "_uid_": 505040.0, "id": 3959559.0, "initialdat": "2004-07-13", "finaldate": "2004-07-13", "area_ha": 21.445305946993827 }, "geometry": { "type": "MultiPolygon", "coordinates": [ [ [ [ -60.222283904712853, -30.837499997285661 ], [ -60.217431182399814, -30.837499997285661 ], [ -60.220045829794664, -30.841666663951958 ], [ -60.224898762813432, -30.841666663951958 ], [ -60.222283904712853, -30.837499997285661 ] ] ] ] } },
{ "type": "Feature", "properties": { "_uid_": 505041.0, "id": 3959560.0, "initialdat": "2004-07-09", "finaldate": "2004-07-09", "area_ha": 21.445342777168751 }, "geometry": { "type": "MultiPolygon", "coordinates": [ [ [ [ -60.242073597830974, -30.845833330618259 ], [ -60.237220454062509, -30.845833330618259 ], [ -60.239836825072274, -30.849999997284552 ], [ -60.244690179634425, -30.849999997284552 ], [ -60.242073597830974, -30.845833330618259 ] ] ] ] } },
{ "type": "Feature", "properties": { "_uid_": 505043.0, "id": 3959561.0, "initialdat": "2004-07-09", "finaldate": "2004-07-13", "area_ha": 107.22686120930911 }, "geometry": { "type": "MultiPolygon", "coordinates": [ [ [ [ -60.227514166525573, -30.845833330618259 ], [ -60.222661022757109, -30.845833330618259 ], [ -60.225276761385892, -30.849999997284552 ], [ -60.230130115948008, -30.849999997284552 ], [ -60.227514166525573, -30.845833330618259 ] ] ], [ [ [ -60.225276761385892, -30.849999997284552 ], [ -60.220423406823741, -30.849999997284552 ], [ -60.223039480379974, -30.854166663950853 ], [ -60.218185914980197, -30.854166663950853 ], [ -60.220802323474715, -30.858333330617153 ], [ -60.223419277843973, -30.862499997283447 ], [ -60.228273265051023, -30.862499997283447 ], [ -60.225656099756129, -30.858333330617153 ], [ -60.230509876037566, -30.858333330617153 ], [ -60.227893045779766, -30.854166663950853 ], [ -60.225276761385892, -30.849999997284552 ] ] ] ] } },
{ "type": "Feature", "properties": { "_uid_": 505044.0, "id": 3959562.0, "initialdat": "2004-07-09", "finaldate": "2004-07-09", "area_ha": 21.445379683148861 }, "geometry": { "type": "MultiPolygon", "coordinates": [ [ [ [ -60.237600176579342, -30.854166663950853 ], [ -60.23274661117955, -30.854166663950853 ], [ -60.235363652318981, -30.858333330617153 ], [ -60.240217428600403, -30.858333330617153 ], [ -60.237600176579342, -30.854166663950853 ] ] ] ] } },
{ "type": "Feature", "properties": { "_uid_": 505045.0, "id": 3959565.0, "initialdat": "2004-07-13", "finaldate": "2004-07-15", "area_ha": 386.01915373525617 }, "geometry": { "type": "MultiPolygon", "coordinates": [ [ [ [ -60.239132472967029, -30.887499997281235 ], [ -60.241753251229014, -30.891666663947529 ], [ -60.246608716148124, -30.891666663947529 ], [ -60.243987726652279, -30.887499997281235 ], [ -60.248842980337564, -30.887499997281235 ], [ -60.253698234022821, -30.887499997281235 ], [ -60.251077368758793, -30.883333330614935 ], [ -60.24583727793302, -30.874999997282345 ], [ -60.240982657685002, -30.874999997282345 ], [ -60.238363642982904, -30.870833330616037 ], [ -60.243218052173255, -30.870833330616037 ], [ -60.237981239465157, -30.862499997283447 ], [ -60.233127252258093, -30.862499997283447 ], [ -60.235745174540256, -30.866666663949744 ], [ -60.230890976363533, -30.866666663949744 ], [ -60.233509233792539, -30.870833330616037 ], [ -60.223800415411823, -30.870833330616037 ], [ -60.226418796940891, -30.874999997282345 ], [ -60.23127341718893, -30.874999997282345 ], [ -60.23389255604598, -30.879166663948638 ], [ -60.238747387395719, -30.879166663948638 ], [ -60.241367283767836, -30.883333330614935 ], [ -60.236512241272351, -30.883333330614935 ], [ -60.239132472967029, -30.887499997281235 ] ] ], [ [ [ -60.230890976363533, -30.866666663949744 ], [ -60.228273265051023, -30.862499997283447 ], [ -60.218565290636903, -30.862499997283447 ], [ -60.221182580010137, -30.866666663949744 ], [ -60.230890976363533, -30.866666663949744 ] ] ], [ [ [ -60.223800415411823, -30.870833330616037 ], [ -60.221182580010137, -30.866666663949744 ], [ -60.216328381833442, -30.866666663949744 ], [ -60.218946006221472, -30.870833330616037 ], [ -60.223800415411823, -30.870833330616037 ] ] ] ] } },
{ "type": "Feature", "properties": { "_uid_": 505052.0, "id": 3959590.0, "initialdat": "2004-07-14", "finaldate": "2004-07-14", "area_ha": 21.446839424574375 }, "geometry": { "type": "MultiPolygon", "coordinates": [ [ [ [ -60.455794056404848, -31.183333330588354 ], [ -60.45092369516609, -31.183333330588354 ], [ -60.453584606651638, -31.187499997254655 ], [ -60.458455182272552, -31.187499997254655 ], [ -60.455794056404848, -31.183333330588354 ] ] ] ] } },
{ "type": "Feature", "properties": { "_uid_": 505053.0, "id": 3959591.0, "initialdat": "2004-07-07", "finaldate": "2004-07-09", "area_ha": 42.89434627972841 }, "geometry": { "type": "MultiPolygon", "coordinates": [ [ [ [ -60.323432776591311, -31.25833333058171 ], [ -60.3185585496378, -31.25833333058171 ], [ -60.313684322684281, -31.25833333058171 ], [ -60.316347044625886, -31.262499997248007 ], [ -60.321221486766255, -31.262499997248007 ], [ -60.326095928906611, -31.262499997248007 ], [ -60.323432776591311, -31.25833333058171 ] ] ] ] } },
{ "type": "Feature", "properties": { "_uid_": 505054.0, "id": 3959592.0, "initialdat": "2004-07-09", "finaldate": "2004-07-09", "area_ha": 42.894420504927638 }, "geometry": { "type": "MultiPolygon", "coordinates": [ [ [ [ -60.309261005952017, -31.266666663914307 ], [ -60.299511691208068, -31.266666663914307 ], [ -60.302174660402564, -31.270833330580601 ], [ -60.31192440569933, -31.270833330580601 ], [ -60.309261005952017, -31.266666663914307 ] ] ] ] } },
{ "type": "Feature", "properties": { "_uid_": 505055.0, "id": 3959594.0, "initialdat": "2004-07-14", "finaldate": "2004-07-14", "area_ha": 21.447284615969657 }, "geometry": { "type": "MultiPolygon", "coordinates": [ [ [ [ -60.344295524532384, -31.283333330579492 ], [ -60.339420005785946, -31.283333330579492 ], [ -60.342086484934001, -31.287499997245792 ], [ -60.346962219136095, -31.287499997245792 ], [ -60.344295524532384, -31.283333330579492 ] ] ] ] } },
{ "type": "Feature", "properties": { "_uid_": 505056.0, "id": 3959595.0, "initialdat": "2004-07-01", "finaldate": "2004-07-09", "area_ha": 450.39340742861032 }, "geometry": { "type": "MultiPolygon", "coordinates": [ [ [ [ -60.340796768672504, -31.308333330577277 ], [ -60.338128161405621, -31.30416666391098 ], [ -60.332792612072403, -31.295833330578386 ], [ -60.330125669802399, -31.291666663912086 ], [ -60.325249720099812, -31.291666663912086 ], [ -60.322583548125621, -31.287499997245792 ], [ -60.317707813923541, -31.287499997245792 ], [ -60.320373770397254, -31.291666663912086 ], [ -60.315497820694674, -31.291666663912086 ], [ -60.318164116328703, -31.295833330578386 ], [ -60.320830966725332, -31.299999997244687 ], [ -60.330583728401464, -31.299999997244687 ], [ -60.327916446824503, -31.295833330578386 ], [ -60.333251564932517, -31.30416666391098 ], [ -60.328374968459443, -31.30416666391098 ], [ -60.331043144366539, -31.308333330577277 ], [ -60.335919956519511, -31.308333330577277 ], [ -60.340796768672504, -31.308333330577277 ] ] ], [ [ [ -60.340796768672504, -31.308333330577277 ], [ -60.345673580825483, -31.308333330577277 ], [ -60.343005312990421, -31.30416666391098 ], [ -60.347881354351813, -31.30416666391098 ], [ -60.345212870915667, -31.299999997244687 ], [ -60.350089251753737, -31.299999997244687 ], [ -60.354965632591792, -31.299999997244687 ], [ -60.352297273063989, -31.295833330578386 ], [ -60.34962946861269, -31.291666663912086 ], [ -60.344753518910117, -31.291666663912086 ], [ -60.342086484934001, -31.287499997245792 ], [ -60.337210750731906, -31.287499997245792 ], [ -60.339877569207545, -31.291666663912086 ], [ -60.342544942568189, -31.295833330578386 ], [ -60.337668777320289, -31.295833330578386 ], [ -60.332792612072403, -31.295833330578386 ], [ -60.340796768672504, -31.308333330577277 ] ] ], [ [ [ -60.331043144366539, -31.308333330577277 ], [ -60.326166332213546, -31.308333330577277 ], [ -60.32883484750883, -31.312499997243577 ], [ -60.333711875386577, -31.312499997243577 ], [ -60.331043144366539, -31.308333330577277 ] ] ] ] } },
{ "type": "Feature", "properties": { "_uid_": 505057.0, "id": 3959596.0, "initialdat": "2004-07-14", "finaldate": "2004-07-14", "area_ha": 21.447321753525735 }, "geometry": { "type": "MultiPolygon", "coordinates": [ [ [ [ -60.354505418315256, -31.291666663912086 ], [ -60.34962946861269, -31.291666663912086 ], [ -60.352297273063989, -31.295833330578386 ], [ -60.357173438311875, -31.295833330578386 ], [ -60.354505418315256, -31.291666663912086 ] ] ] ] } },
{ "type": "Feature", "properties": { "_uid_": 505058.0, "id": 3959598.0, "initialdat": "2004-07-01", "finaldate": "2004-07-01", "area_ha": 64.34149074685574 }, "geometry": { "type": "MultiPolygon", "coordinates": [ [ [ [ -60.359842013429862, -31.299999997244687 ], [ -60.354965632591792, -31.299999997244687 ], [ -60.360304017284413, -31.308333330577277 ], [ -60.365180829437385, -31.308333330577277 ], [ -60.370057641590378, -31.308333330577277 ], [ -60.367387740244162, -31.30416666391098 ], [ -60.362511143771073, -31.30416666391098 ], [ -60.359842013429862, -31.299999997244687 ] ] ] ] } },
{ "type": "Feature", "properties": { "_uid_": 505059.0, "id": 3959599.0, "initialdat": "2004-07-05", "finaldate": "2004-07-07", "area_ha": 42.894754827976229 }, "geometry": { "type": "MultiPolygon", "coordinates": [ [ [ [ -60.318621775513257, -31.30416666391098 ], [ -60.313745179040168, -31.30416666391098 ], [ -60.308868582567079, -31.30416666391098 ], [ -60.311535895754616, -31.308333330577277 ], [ -60.316412707907595, -31.308333330577277 ], [ -60.321289520060581, -31.308333330577277 ], [ -60.318621775513257, -31.30416666391098 ] ] ] ] } },
{ "type": "Feature", "properties": { "_uid_": 505060.0, "id": 3959600.0, "initialdat": "2004-07-07", "finaldate": "2004-07-09", "area_ha": 42.894884733855726 }, "geometry": { "type": "MultiPolygon", "coordinates": [ [ [ [ -60.341258405268825, -31.316666663909871 ], [ -60.336381161621439, -31.316666663909871 ], [ -60.339051003173076, -31.320833330576171 ], [ -60.343928462634985, -31.320833330576171 ], [ -60.341258405268825, -31.316666663909871 ] ] ], [ [ [ -60.339051003173076, -31.320833330576171 ], [ -60.334173543711167, -31.320833330576171 ], [ -60.336843724822103, -31.324999997242468 ], [ -60.341721400143435, -31.324999997242468 ], [ -60.339051003173076, -31.320833330576171 ] ] ] ] } },
{ "type": "Feature", "properties": { "_uid_": 558849.0, "id": 3959535.0, "initialdat": "2004-07-20", "finaldate": "2004-07-30", "area_ha": 343.09424863814121 }, "geometry": { "type": "MultiPolygon", "coordinates": [ [ [ [ -60.078610267331719, -30.395833330658128 ], [ -60.068948996885879, -30.395833330658128 ], [ -60.071511726283745, -30.399999997324425 ], [ -60.081173408909613, -30.399999997324425 ], [ -60.078610267331719, -30.395833330658128 ] ] ], [ [ [ -60.071511726283745, -30.399999997324425 ], [ -60.0666808849708, -30.399999997324425 ], [ -60.071807540730518, -30.408333330657019 ], [ -60.069243944628063, -30.404166663990726 ], [ -60.064412897181967, -30.404166663990726 ], [ -60.059582117915319, -30.404166663990726 ], [ -60.057019202344918, -30.399999997324425 ], [ -60.047357519719043, -30.399999997324425 ], [ -60.052482526240937, -30.408333330657019 ], [ -60.057313779863321, -30.408333330657019 ], [ -60.05987729384843, -30.412499997323319 ], [ -60.064708753690276, -30.412499997323319 ], [ -60.074371673373967, -30.412499997323319 ], [ -60.079203133215806, -30.412499997323319 ], [ -60.07663879435291, -30.408333330657019 ], [ -60.081470047975309, -30.408333330657019 ], [ -60.078906039520263, -30.404166663990726 ], [ -60.074075260318331, -30.404166663990726 ], [ -60.071511726283745, -30.399999997324425 ] ] ], [ [ [ -60.052482526240937, -30.408333330657019 ], [ -60.049919754843678, -30.404166663990726 ], [ -60.045088707397568, -30.404166663990726 ], [ -60.047651272618523, -30.408333330657019 ], [ -60.052482526240937, -30.408333330657019 ] ] ] ] } },
{ "type": "Feature", "properties": { "_uid_": 558860.0, "id": 3959563.0, "initialdat": "2004-07-20", "finaldate": "2004-07-20", "area_ha": 21.44539801888466 }, "geometry": { "type": "MultiPolygon", "coordinates": [ [ [ [ -60.220802323474715, -30.858333330617153 ], [ -60.215948547193278, -30.858333330617153 ], [ -60.218565290636903, -30.862499997283447 ], [ -60.223419277843973, -30.862499997283447 ], [ -60.220802323474715, -30.858333330617153 ] ] ] ] } },
{ "type": "Feature", "properties": { "_uid_": 558861.0, "id": 3959564.0, "initialdat": "2004-07-20", "finaldate": "2004-07-20", "area_ha": 21.445416415715219 }, "geometry": { "type": "MultiPolygon", "coordinates": [ [ [ [ -60.233127252258093, -30.862499997283447 ], [ -60.228273265051023, -30.862499997283447 ], [ -60.230890976363533, -30.866666663949744 ], [ -60.235745174540256, -30.866666663949744 ], [ -60.233127252258093, -30.862499997283447 ] ] ] ] } },
{ "type": "Feature", "properties": { "_uid_": 558875.0, "id": 3959587.0, "initialdat": "2004-07-23", "finaldate": "2004-07-23", "area_ha": 42.893511983942986 }, "geometry": { "type": "MultiPolygon", "coordinates": [ [ [ [ -60.442496734214359, -31.162499997256862 ], [ -60.437627444217235, -31.162499997256862 ], [ -60.442944283705906, -31.17083333058946 ], [ -60.447814002065876, -31.17083333058946 ], [ -60.442496734214359, -31.162499997256862 ] ] ] ] } },
{ "type": "Feature", "properties": { "_uid_": 558876.0, "id": 3959588.0, "initialdat": "2004-07-16", "finaldate": "2004-07-16", "area_ha": 64.339269786107536 }, "geometry": { "type": "MultiPolygon", "coordinates": [ [ [ [ -60.452683720425831, -31.17083333058946 ], [ -60.442944283705906, -31.17083333058946 ], [ -60.448263337580798, -31.179166663922061 ], [ -60.453133484482002, -31.179166663922061 ], [ -60.450473466402755, -31.17499999725576 ], [ -60.455343399011028, -31.17499999725576 ], [ -60.452683720425831, -31.17083333058946 ] ] ] ] } },
{ "type": "Feature", "properties": { "_uid_": 558878.0, "id": 3959597.0, "initialdat": "2004-07-23", "finaldate": "2004-07-23", "area_ha": 21.447358889448644 }, "geometry": { "type": "MultiPolygon", "coordinates": [ [ [ [ -60.350089251753737, -31.299999997244687 ], [ -60.345212870915667, -31.299999997244687 ], [ -60.347881354351813, -31.30416666391098 ], [ -60.352757950824888, -31.30416666391098 ], [ -60.350089251753737, -31.299999997244687 ] ] ] ] } },
{ "type": "Feature", "properties": { "_uid_": 626176.0, "id": 4103903.0, "initialdat": "2004-08-01", "finaldate": "2004-08-02", "area_ha": 42.890924992620945 }, "geometry": { "type": "MultiPolygon", "coordinates": [ [ [ [ -60.289528860165319, -30.874999997282345 ], [ -60.284674239917294, -30.874999997282345 ], [ -60.287295700893104, -30.879166663948638 ], [ -60.292150532242843, -30.879166663948638 ], [ -60.289528860165319, -30.874999997282345 ] ] ], [ [ [ -60.284674239917294, -30.874999997282345 ], [ -60.282053325696104, -30.870833330616037 ], [ -60.277198916505739, -30.870833330616037 ], [ -60.279819619669247, -30.874999997282345 ], [ -60.284674239917294, -30.874999997282345 ] ] ] ] } },
{ "type": "Feature", "properties": { "_uid_": 626180.0, "id": 4103912.0, "initialdat": "2004-08-09", "finaldate": "2004-08-09", "area_ha": 21.446209989118575 }, "geometry": { "type": "MultiPolygon", "coordinates": [ [ [ [ -60.292698231750137, -31.041666663934237 ], [ -60.287835133005828, -31.041666663934237 ], [ -60.290474075463415, -31.045833330600537 ], [ -60.295337387077154, -31.045833330600537 ], [ -60.292698231750137, -31.041666663934237 ] ] ] ] } },
{ "type": "Feature", "properties": { "_uid_": 626181.0, "id": 4103914.0, "initialdat": "2004-08-09", "finaldate": "2004-08-09", "area_ha": 21.446228455162046 }, "geometry": { "type": "MultiPolygon", "coordinates": [ [ [ [ -60.280747452235929, -31.045833330600537 ], [ -60.275884140622182, -31.045833330600537 ], [ -60.278522994248021, -31.049999997266838 ], [ -60.283386518775565, -31.049999997266838 ], [ -60.280747452235929, -31.045833330600537 ] ] ] ] } },
{ "type": "Feature", "properties": { "_uid_": 626182.0, "id": 4103915.0, "initialdat": "2004-08-11", "finaldate": "2004-08-13", "area_ha": 64.339194050538538 }, "geometry": { "type": "MultiPolygon", "coordinates": [ [ [ [ -60.156934881059385, -31.049999997266838 ], [ -60.152071356531842, -31.049999997266838 ], [ -60.154705223122036, -31.054166663933131 ], [ -60.164432698093449, -31.054166663933131 ], [ -60.161798405586921, -31.049999997266838 ], [ -60.15916466189227, -31.045833330600537 ], [ -60.15430135027853, -31.045833330600537 ], [ -60.156934881059385, -31.049999997266838 ] ] ] ] } },
{ "type": "Feature", "properties": { "_uid_": 626183.0, "id": 4103917.0, "initialdat": "2004-08-12", "finaldate": "2004-08-14", "area_ha": 42.892494004023078 }, "geometry": { "type": "MultiPolygon", "coordinates": [ [ [ [ -60.32229471499592, -31.049999997266838 ], [ -60.317431190468376, -31.049999997266838 ], [ -60.31256766594084, -31.049999997266838 ], [ -60.315208560150495, -31.054166663933131 ], [ -60.320072297636202, -31.054166663933131 ], [ -60.324936035121901, -31.054166663933131 ], [ -60.32229471499592, -31.049999997266838 ] ] ] ] } },
{ "type": "Feature", "properties": { "_uid_": 626184.0, "id": 4103918.0, "initialdat": "2004-08-13", "finaldate": "2004-08-13", "area_ha": 21.446246921241283 }, "geometry": { "type": "MultiPolygon", "coordinates": [ [ [ [ -60.297977092358188, -31.049999997266838 ], [ -60.293113567830645, -31.049999997266838 ], [ -60.29575361020764, -31.054166663933131 ], [ -60.300617347693354, -31.054166663933131 ], [ -60.297977092358188, -31.049999997266838 ] ] ] ] } },
{ "type": "Feature", "properties": { "_uid_": 626185.0, "id": 4103922.0, "initialdat": "2004-08-13", "finaldate": "2004-08-13", "area_ha": 21.446283931517598 }, "geometry": { "type": "MultiPolygon", "coordinates": [ [ [ [ -60.308122103671117, -31.058333330599432 ], [ -60.303258153182867, -31.058333330599432 ], [ -60.30589950892692, -31.062499997265729 ], [ -60.310763672462087, -31.062499997265729 ], [ -60.308122103671117, -31.058333330599432 ] ] ] ] } },
{ "type": "Feature", "properties": { "_uid_": 626186.0, "id": 4103924.0, "initialdat": "2004-08-14", "finaldate": "2004-08-14", "area_ha": 21.446302467417716 }, "geometry": { "type": "MultiPolygon", "coordinates": [ [ [ [ -60.194023747617955, -31.062499997265729 ], [ -60.18915958408278, -31.062499997265729 ], [ -60.191796375990123, -31.066666663932022 ], [ -60.196660752616609, -31.066666663932022 ], [ -60.194023747617955, -31.062499997265729 ] ] ] ] } },
{ "type": "Feature", "properties": { "_uid_": 626187.0, "id": 4103925.0, "initialdat": "2004-08-11", "finaldate": "2004-08-13", "area_ha": 85.785321065390107 }, "geometry": { "type": "MultiPolygon", "coordinates": [ [ [ [ -60.277131743244325, -31.070833330598322 ], [ -60.27226715348214, -31.070833330598322 ], [ -60.269626402013891, -31.066666663932022 ], [ -60.259897648760926, -31.066666663932022 ], [ -60.262537973957748, -31.070833330598322 ], [ -60.267402563719948, -31.070833330598322 ], [ -60.270043652208187, -31.074999997264616 ], [ -60.279773258092824, -31.074999997264616 ], [ -60.277131743244325, -31.070833330598322 ] ] ] ] } },
{ "type": "Feature", "properties": { "_uid_": 626188.0, "id": 4103931.0, "initialdat": "2004-08-11", "finaldate": "2004-08-13", "area_ha": 64.340091732740404 }, "geometry": { "type": "MultiPolygon", "coordinates": [ [ [ [ -60.281378102113827, -31.154166663924268 ], [ -60.284028502254422, -31.158333330590569 ], [ -60.288897578136996, -31.158333330590569 ], [ -60.286246963926452, -31.154166663924268 ], [ -60.28359690157091, -31.149999997257975 ], [ -60.278728253783655, -31.149999997257975 ], [ -60.2738596059964, -31.149999997257975 ], [ -60.276509240301174, -31.154166663924268 ], [ -60.281378102113827, -31.154166663924268 ] ] ] ] } },
{ "type": "Feature", "properties": { "_uid_": 626189.0, "id": 4103934.0, "initialdat": "2004-08-10", "finaldate": "2004-08-13", "area_ha": 64.340666231822965 }, "geometry": { "type": "MultiPolygon", "coordinates": [ [ [ [ -60.271593123147611, -31.199999997253546 ], [ -60.276464342182869, -31.199999997253546 ], [ -60.273809920000389, -31.195833330587245 ], [ -60.271156050325402, -31.191666663920952 ], [ -60.266285260277698, -31.191666663920952 ], [ -60.268938915481229, -31.195833330587245 ], [ -60.264067910962062, -31.195833330587245 ], [ -60.266721904112337, -31.199999997253546 ], [ -60.271593123147611, -31.199999997253546 ] ] ] ] } },
{ "type": "Feature", "properties": { "_uid_": 626190.0, "id": 4103937.0, "initialdat": "2004-08-01", "finaldate": "2004-08-01", "area_ha": 42.89382683494091 }, "geometry": { "type": "MultiPolygon", "coordinates": [ [ [ [ -60.325176532535494, -31.199999997253546 ], [ -60.315434094464969, -31.199999997253546 ], [ -60.318090785742058, -31.204166663919839 ], [ -60.327833652934096, -31.204166663919839 ], [ -60.325176532535494, -31.199999997253546 ] ] ] ] } },
{ "type": "Feature", "properties": { "_uid_": 626191.0, "id": 4103941.0, "initialdat": "2004-08-09", "finaldate": "2004-08-09", "area_ha": 21.447098920679093 }, "geometry": { "type": "MultiPolygon", "coordinates": [ [ [ [ -60.400506307248477, -31.241666663916515 ], [ -60.395632940594652, -31.241666663916515 ], [ -60.398297532185602, -31.245833330582816 ], [ -60.403171113847222, -31.245833330582816 ], [ -60.400506307248477, -31.241666663916515 ] ] ] ] } },
{ "type": "Feature", "properties": { "_uid_": 626192.0, "id": 4103946.0, "initialdat": "2004-08-08", "finaldate": "2004-08-13", "area_ha": 214.47008725643158 }, "geometry": { "type": "MultiPolygon", "coordinates": [ [ [ [ -60.315896166581062, -31.254166663915417 ], [ -60.311022154769603, -31.254166663915417 ], [ -60.313684322684281, -31.25833333058171 ], [ -60.3185585496378, -31.25833333058171 ], [ -60.323432776591311, -31.25833333058171 ], [ -60.320770178392507, -31.254166663915417 ], [ -60.318108411165362, -31.249999997249109 ], [ -60.322981930922801, -31.249999997249109 ], [ -60.327855727636951, -31.249999997249109 ], [ -60.330518202015412, -31.254166663915417 ], [ -60.335392213826871, -31.254166663915417 ], [ -60.330067388923062, -31.245833330582816 ], [ -60.31544664393823, -31.245833330582816 ], [ -60.310573062276625, -31.245833330582816 ], [ -60.315896166581062, -31.254166663915417 ] ] ], [ [ [ -60.313684322684281, -31.25833333058171 ], [ -60.30881009573077, -31.25833333058171 ], [ -60.311472602485544, -31.262499997248007 ], [ -60.316347044625886, -31.262499997248007 ], [ -60.313684322684281, -31.25833333058171 ] ] ], [ [ [ -60.30881009573077, -31.25833333058171 ], [ -60.306148142958158, -31.254166663915417 ], [ -60.301274131146698, -31.254166663915417 ], [ -60.303935868777238, -31.25833333058171 ], [ -60.30881009573077, -31.25833333058171 ] ] ] ] } },
{ "type": "Feature", "properties": { "_uid_": 626193.0, "id": 4103947.0, "initialdat": "2004-08-13", "finaldate": "2004-08-13", "area_ha": 21.447136068248749 }, "geometry": { "type": "MultiPolygon", "coordinates": [ [ [ [ -60.386341288206786, -31.249999997249109 ], [ -60.381467491492629, -31.249999997249109 ], [ -60.384132331941402, -31.254166663915417 ], [ -60.389006343752861, -31.254166663915417 ], [ -60.386341288206786, -31.249999997249109 ] ] ] ] } },
{ "type": "Feature", "properties": { "_uid_": 626194.0, "id": 4103952.0, "initialdat": "2004-08-07", "finaldate": "2004-08-09", "area_ha": 128.68424957995416 }, "geometry": { "type": "MultiPolygon", "coordinates": [ [ [ [ -60.323884978067959, -31.266666663914307 ], [ -60.326549023644503, -31.270833330580601 ], [ -60.331423896292883, -31.270833330580601 ], [ -60.32875963543993, -31.266666663914307 ], [ -60.338508950183886, -31.266666663914307 ], [ -60.33318123049834, -31.25833333058171 ], [ -60.328307003544843, -31.25833333058171 ], [ -60.330970371046966, -31.262499997248007 ], [ -60.326095928906611, -31.262499997248007 ], [ -60.321221486766255, -31.262499997248007 ], [ -60.316347044625886, -31.262499997248007 ], [ -60.319010320695966, -31.266666663914307 ], [ -60.323884978067959, -31.266666663914307 ] ] ] ] } },
{ "type": "Feature", "properties": { "_uid_": 704485.0, "id": 4103905.0, "initialdat": "2004-08-31", "finaldate": "2004-09-05", "area_ha": 471.80474527844183 }, "geometry": { "type": "MultiPolygon", "coordinates": [ [ [ [ -60.298179855260074, -30.904166663946423 ], [ -60.300804934883672, -30.90833333061272 ], [ -60.310517555473986, -30.90833333061272 ], [ -60.307892053030123, -30.904166663946423 ], [ -60.32246034968523, -30.904166663946423 ], [ -60.327316448570251, -30.904166663946423 ], [ -60.319440689934751, -30.891666663947529 ], [ -60.314585225015648, -30.891666663947529 ], [ -60.311961278246038, -30.887499997281235 ], [ -60.297395517190232, -30.887499997281235 ], [ -60.300018830258317, -30.891666663947529 ], [ -60.295163365339207, -30.891666663947529 ], [ -60.300411210560085, -30.89999999728013 ], [ -60.297787014324527, -30.895833330613829 ], [ -60.292931338127502, -30.895833330613829 ], [ -60.2955553230411, -30.89999999728013 ], [ -60.298179855260074, -30.904166663946423 ] ] ] ] } },
{ "type": "Feature", "properties": { "_uid_": 704486.0, "id": 4103908.0, "initialdat": "2004-08-18", "finaldate": "2004-08-18", "area_ha": 21.446099106884002 }, "geometry": { "type": "MultiPolygon", "coordinates": [ [ [ [ -60.174776571583607, -31.016666663936455 ], [ -60.169914749124871, -31.016666663936455 ], [ -60.172545929553351, -31.020833330602752 ], [ -60.177407964615554, -31.020833330602752 ], [ -60.174776571583607, -31.016666663936455 ] ] ] ] } },
{ "type": "Feature", "properties": { "_uid_": 704488.0, "id": 4103911.0, "initialdat": "2004-08-26", "finaldate": "2004-08-26", "area_ha": 21.446191587662696 }, "geometry": { "type": "MultiPolygon", "coordinates": [ [ [ [ -60.15389882053897, -31.037499997267943 ], [ -60.149035934619747, -31.037499997267943 ], [ -60.151668368165275, -31.041666663934237 ], [ -60.156531466909584, -31.041666663934237 ], [ -60.15389882053897, -31.037499997267943 ] ] ] ] } },
{ "type": "Feature", "properties": { "_uid_": 704489.0, "id": 4103913.0, "initialdat": "2004-08-14", "finaldate": "2004-08-18", "area_ha": 343.13499203161001 }, "geometry": { "type": "MultiPolygon", "coordinates": [ [ [ [ -60.300200698690901, -31.045833330600537 ], [ -60.285610763849668, -31.045833330600537 ], [ -60.280747452235929, -31.045833330600537 ], [ -60.283386518775565, -31.049999997266838 ], [ -60.278522994248021, -31.049999997266838 ], [ -60.289083908519835, -31.066666663932022 ], [ -60.293948285146321, -31.066666663932022 ], [ -60.291307018321397, -31.062499997265729 ], [ -60.30589950892692, -31.062499997265729 ], [ -60.300617347693354, -31.054166663933131 ], [ -60.29575361020764, -31.054166663933131 ], [ -60.293113567830645, -31.049999997266838 ], [ -60.302840616885725, -31.049999997266838 ], [ -60.300200698690901, -31.045833330600537 ] ] ] ] } },
{ "type": "Feature", "properties": { "_uid_": 704490.0, "id": 4103916.0, "initialdat": "2004-08-24", "finaldate": "2004-08-24", "area_ha": 21.446228447818758 }, "geometry": { "type": "MultiPolygon", "coordinates": [ [ [ [ -60.15430135027853, -31.045833330600537 ], [ -60.149438038664769, -31.045833330600537 ], [ -60.152071356531842, -31.049999997266838 ], [ -60.156934881059385, -31.049999997266838 ], [ -60.15430135027853, -31.045833330600537 ] ] ] ] } },
{ "type": "Feature", "properties": { "_uid_": 704491.0, "id": 4103919.0, "initialdat": "2004-08-18", "finaldate": "2004-08-18", "area_ha": 21.446246818995476 }, "geometry": { "type": "MultiPolygon", "coordinates": [ [ [ [ -60.166661930114479, -31.049999997266838 ], [ -60.161798405586921, -31.049999997266838 ], [ -60.164432698093449, -31.054166663933131 ], [ -60.169296435579163, -31.054166663933131 ], [ -60.166661930114479, -31.049999997266838 ] ] ] ] } },
{ "type": "Feature", "properties": { "_uid_": 704492.0, "id": 4103920.0, "initialdat": "2004-08-23", "finaldate": "2004-08-23", "area_ha": 21.446265592920781 }, "geometry": { "type": "MultiPolygon", "coordinates": [ [ [ [ -60.15956896060775, -31.054166663933131 ], [ -60.154705223122036, -31.054166663933131 ], [ -60.15733963853534, -31.058333330599432 ], [ -60.162203589023605, -31.058333330599432 ], [ -60.15956896060775, -31.054166663933131 ] ] ] ] } },
{ "type": "Feature", "properties": { "_uid_": 704493.0, "id": 4103921.0, "initialdat": "2004-08-29", "finaldate": "2004-08-29", "area_ha": 21.446283961915974 }, "geometry": { "type": "MultiPolygon", "coordinates": [ [ [ [ -60.371353460018376, -31.058333330599432 ], [ -60.366489509530119, -31.058333330599432 ], [ -60.369133634884179, -31.062499997265729 ], [ -60.373997798419339, -31.062499997265729 ], [ -60.371353460018376, -31.058333330599432 ] ] ] ] } },
{ "type": "Feature", "properties": { "_uid_": 704494.0, "id": 4103923.0, "initialdat": "2004-08-18", "finaldate": "2004-08-18", "area_ha": 21.446302338159082 }, "geometry": { "type": "MultiPolygon", "coordinates": [ [ [ [ -60.271850364180715, -31.062499997265729 ], [ -60.26698620064554, -31.062499997265729 ], [ -60.269626402013891, -31.066666663932022 ], [ -60.274490778640377, -31.066666663932022 ], [ -60.271850364180715, -31.062499997265729 ] ] ] ] } },
{ "type": "Feature", "properties": { "_uid_": 704495.0, "id": 4103926.0, "initialdat": "2004-08-26", "finaldate": "2004-08-29", "area_ha": 85.785302268218999 }, "geometry": { "type": "MultiPolygon", "coordinates": [ [ [ [ -60.18470453776257, -31.070833330598322 ], [ -60.187342002188814, -31.074999997264616 ], [ -60.192206805131136, -31.074999997264616 ], [ -60.189569127524784, -31.070833330598322 ], [ -60.194433717286977, -31.070833330598322 ], [ -60.199298307049176, -31.070833330598322 ], [ -60.196660752616609, -31.066666663932022 ], [ -60.191796375990123, -31.066666663932022 ], [ -60.186931999363637, -31.066666663932022 ], [ -60.182067622737137, -31.066666663932022 ], [ -60.18470453776257, -31.070833330598322 ] ] ] ] } },
{ "type": "Feature", "properties": { "_uid_": 704496.0, "id": 4103927.0, "initialdat": "2004-08-18", "finaldate": "2004-08-18", "area_ha": 21.44633945171833 }, "geometry": { "type": "MultiPolygon", "coordinates": [ [ [ [ -60.267402563719948, -31.070833330598322 ], [ -60.262537973957748, -31.070833330598322 ], [ -60.26517884926588, -31.074999997264616 ], [ -60.270043652208187, -31.074999997264616 ], [ -60.267402563719948, -31.070833330598322 ] ] ] ] } },
{ "type": "Feature", "properties": { "_uid_": 704497.0, "id": 4103928.0, "initialdat": "2004-08-27", "finaldate": "2004-09-05", "area_ha": 621.94951665854455 }, "geometry": { "type": "MultiPolygon", "coordinates": [ [ [ [ -60.324330084410484, -31.137499997259084 ], [ -60.329198090388907, -31.137499997259084 ], [ -60.326548433934008, -31.133333330592784 ], [ -60.331415674257705, -31.133333330592784 ], [ -60.328766355785049, -31.129166663926483 ], [ -60.333633382362279, -31.129166663926483 ], [ -60.330983850165062, -31.12499999726019 ], [ -60.328334869696526, -31.120833330593893 ], [ -60.323467718839744, -31.120833330593893 ], [ -60.313733417126173, -31.120833330593893 ], [ -60.311085629293039, -31.116666663927592 ], [ -60.306218692105375, -31.116666663927592 ], [ -60.308866266269384, -31.120833330593893 ], [ -60.311514391883392, -31.12499999726019 ], [ -60.292044933601723, -31.12499999726019 ], [ -60.294692755733792, -31.129166663926483 ], [ -60.297341129339124, -31.133333330592784 ], [ -60.299990054518396, -31.137499997259084 ], [ -60.304858060496819, -31.137499997259084 ], [ -60.307507751242468, -31.141666663925378 ], [ -60.317244190982763, -31.141666663925378 ], [ -60.322112410852903, -31.141666663925378 ], [ -60.31946263025128, -31.137499997259084 ], [ -60.324330084410484, -31.137499997259084 ] ] ] ] } },
{ "type": "Feature", "properties": { "_uid_": 704498.0, "id": 4103929.0, "initialdat": "2004-08-18", "finaldate": "2004-08-18", "area_ha": 64.340764571380618 }, "geometry": { "type": "MultiPolygon", "coordinates": [ [ [ [ -60.306218692105375, -31.116666663927592 ], [ -60.301351754917718, -31.116666663927592 ], [ -60.303999115412608, -31.120833330593893 ], [ -60.299131964555812, -31.120833330593893 ], [ -60.301779662742547, -31.12499999726019 ], [ -60.311514391883392, -31.12499999726019 ], [ -60.306218692105375, -31.116666663927592 ] ] ] ] } },
{ "type": "Feature", "properties": { "_uid_": 704499.0, "id": 4103930.0, "initialdat": "2004-08-18", "finaldate": "2004-08-18", "area_ha": 21.446672588157654 }, "geometry": { "type": "MultiPolygon", "coordinates": [ [ [ [ -60.344237030453023, -31.145833330591678 ], [ -60.339368596646594, -31.145833330591678 ], [ -60.342020675017906, -31.149999997257975 ], [ -60.346889322805147, -31.149999997257975 ], [ -60.344237030453023, -31.145833330591678 ] ] ] ] } },
{ "type": "Feature", "properties": { "_uid_": 704500.0, "id": 4103932.0, "initialdat": "2004-08-18", "finaldate": "2004-08-23", "area_ha": 85.786912468314171 }, "geometry": { "type": "MultiPolygon", "coordinates": [ [ [ [ -60.286679454306245, -31.162499997256862 ], [ -60.289330958370172, -31.166666663923163 ], [ -60.294200462526412, -31.166666663923163 ], [ -60.291548744303363, -31.162499997256862 ], [ -60.288897578136996, -31.158333330590569 ], [ -60.284028502254422, -31.158333330590569 ], [ -60.281378102113827, -31.154166663924268 ], [ -60.276509240301174, -31.154166663924268 ], [ -60.279159426371812, -31.158333330590569 ], [ -60.281810164309107, -31.162499997256862 ], [ -60.286679454306245, -31.162499997256862 ] ] ] ] } },
{ "type": "Feature", "properties": { "_uid_": 704501.0, "id": 4103933.0, "initialdat": "2004-08-11", "finaldate": "2004-08-18", "area_ha": 300.25200645270348 }, "geometry": { "type": "MultiPolygon", "coordinates": [ [ [ [ -60.460213331619308, -31.17499999725576 ], [ -60.457553438785801, -31.17083333058946 ], [ -60.454894099682633, -31.166666663923163 ], [ -60.450024595526372, -31.166666663923163 ], [ -60.452683720425831, -31.17083333058946 ], [ -60.455343399011028, -31.17499999725576 ], [ -60.460213331619308, -31.17499999725576 ] ] ], [ [ [ -60.460213331619308, -31.17499999725576 ], [ -60.465083264227587, -31.17499999725576 ], [ -60.462423157145757, -31.17083333058946 ], [ -60.467292875505727, -31.17083333058946 ], [ -60.472162593865683, -31.17083333058946 ], [ -60.469502612151381, -31.166666663923163 ], [ -60.47437211630762, -31.166666663923163 ], [ -60.471712474197133, -31.162499997256862 ], [ -60.476581764194265, -31.162499997256862 ], [ -60.473922461675592, -31.158333330590569 ], [ -60.459315234027812, -31.158333330590569 ], [ -60.454446158145224, -31.158333330590569 ], [ -60.457104604205753, -31.162499997256862 ], [ -60.452235314208629, -31.162499997256862 ], [ -60.454894099682633, -31.166666663923163 ], [ -60.460213331619308, -31.17499999725576 ] ] ] ] } },
{ "type": "Feature", "properties": { "_uid_": 704502.0, "id": 4103935.0, "initialdat": "2004-08-19", "finaldate": "2004-08-19", "area_ha": 107.23456757593155 }, "geometry": { "type": "MultiPolygon", "coordinates": [ [ [ [ -60.31277795615371, -31.195833330587245 ], [ -60.30790695163455, -31.195833330587245 ], [ -60.31056287542971, -31.199999997253546 ], [ -60.300820437359178, -31.199999997253546 ], [ -60.306133085481839, -31.208333330586139 ], [ -60.311004733683269, -31.208333330586139 ], [ -60.308347918550012, -31.204166663919839 ], [ -60.318090785742058, -31.204166663919839 ], [ -60.31277795615371, -31.195833330587245 ] ] ] ] } },
{ "type": "Feature", "properties": { "_uid_": 704503.0, "id": 4103936.0, "initialdat": "2004-08-18", "finaldate": "2004-08-19", "area_ha": 85.787690542066102 }, "geometry": { "type": "MultiPolygon", "coordinates": [ [ [ [ -60.293733617761966, -31.204166663919839 ], [ -60.288862184165957, -31.204166663919839 ], [ -60.291518140877514, -31.208333330586139 ], [ -60.296389789078965, -31.208333330586139 ], [ -60.293733617761966, -31.204166663919839 ] ] ], [ [ [ -60.288862184165957, -31.204166663919839 ], [ -60.283551929038723, -31.195833330587245 ], [ -60.278680924519563, -31.195833330587245 ], [ -60.283990750569934, -31.204166663919839 ], [ -60.288862184165957, -31.204166663919839 ] ] ], [ [ [ -60.286646492676084, -31.208333330586139 ], [ -60.28177484447464, -31.208333330586139 ], [ -60.2844309247862, -31.21249999725244 ], [ -60.28930278763773, -31.21249999725244 ], [ -60.286646492676084, -31.208333330586139 ] ] ] ] } },
{ "type": "Feature", "properties": { "_uid_": 704504.0, "id": 4103938.0, "initialdat": "2004-08-24", "finaldate": "2004-08-27", "area_ha": 107.23523510296344 }, "geometry": { "type": "MultiPolygon", "coordinates": [ [ [ [ -60.319871628113404, -31.237499997250218 ], [ -60.317211369137993, -31.233333330583925 ], [ -60.314551663759801, -31.229166663917624 ], [ -60.309678941860952, -31.229166663917624 ], [ -60.312338432365557, -31.233333330583925 ], [ -60.314998476422645, -31.237499997250218 ], [ -60.319871628113404, -31.237499997250218 ] ] ], [ [ [ -60.319871628113404, -31.237499997250218 ], [ -60.324744779804163, -31.237499997250218 ], [ -60.319424385658643, -31.229166663917624 ], [ -60.316765018947414, -31.224999997251331 ], [ -60.311892511877438, -31.224999997251331 ], [ -60.314551663759801, -31.229166663917624 ], [ -60.319871628113404, -31.237499997250218 ] ] ] ] } },
{ "type": "Feature", "properties": { "_uid_": 704505.0, "id": 4103939.0, "initialdat": "2004-08-19", "finaldate": "2004-08-19", "area_ha": 21.44704328664541 }, "geometry": { "type": "MultiPolygon", "coordinates": [ [ [ [ -60.324297107557484, -31.229166663917624 ], [ -60.319424385658643, -31.229166663917624 ], [ -60.322084305910444, -31.233333330583925 ], [ -60.32695724268288, -31.233333330583925 ], [ -60.324297107557484, -31.229166663917624 ] ] ] ] } },
{ "type": "Feature", "properties": { "_uid_": 704506.0, "id": 4103940.0, "initialdat": "2004-08-18", "finaldate": "2004-08-18", "area_ha": 21.44704346967935 }, "geometry": { "type": "MultiPolygon", "coordinates": [ [ [ [ -60.309678941860952, -31.229166663917624 ], [ -60.30480621996211, -31.229166663917624 ], [ -60.307465495593121, -31.233333330583925 ], [ -60.312338432365557, -31.233333330583925 ], [ -60.309678941860952, -31.229166663917624 ] ] ] ] } },
{ "type": "Feature", "properties": { "_uid_": 704507.0, "id": 4103942.0, "initialdat": "2004-08-26", "finaldate": "2004-08-26", "area_ha": 85.788433039426806 }, "geometry": { "type": "MultiPolygon", "coordinates": [ [ [ [ -60.395632940594652, -31.241666663916515 ], [ -60.385886207287015, -31.241666663916515 ], [ -60.39121508492093, -31.249999997249109 ], [ -60.400962678349231, -31.249999997249109 ], [ -60.395632940594652, -31.241666663916515 ] ] ] ] } },
{ "type": "Feature", "properties": { "_uid_": 704508.0, "id": 4103943.0, "initialdat": "2004-08-19", "finaldate": "2004-08-19", "area_ha": 128.68077768507004 }, "geometry": { "type": "MultiPolygon", "coordinates": [ [ [ [ -60.403171113847222, -31.245833330582816 ], [ -60.398297532185602, -31.245833330582816 ], [ -60.400962678349231, -31.249999997249109 ], [ -60.405836475063403, -31.249999997249109 ], [ -60.403171113847222, -31.245833330582816 ] ] ], [ [ [ -60.400962678349231, -31.249999997249109 ], [ -60.396088881635087, -31.249999997249109 ], [ -60.39121508492093, -31.249999997249109 ], [ -60.38855036886239, -31.245833330582816 ], [ -60.38367678720077, -31.245833330582816 ], [ -60.391671953940573, -31.25833333058171 ], [ -60.396546180894092, -31.25833333058171 ], [ -60.393880355564306, -31.254166663915417 ], [ -60.403628379187211, -31.254166663915417 ], [ -60.400962678349231, -31.249999997249109 ] ] ] ] } },
{ "type": "Feature", "properties": { "_uid_": 704509.0, "id": 4103944.0, "initialdat": "2004-08-31", "finaldate": "2004-09-03", "area_ha": 278.81289858816859 }, "geometry": { "type": "MultiPolygon", "coordinates": [ [ [ [ -60.347803911358916, -31.25833333058171 ], [ -60.350468139608388, -31.262499997248007 ], [ -60.355342581748744, -31.262499997248007 ], [ -60.352678138312427, -31.25833333058171 ], [ -60.357552365265946, -31.25833333058171 ], [ -60.362426592219457, -31.25833333058171 ], [ -60.357098507921876, -31.249999997249109 ], [ -60.35443529723112, -31.245833330582816 ], [ -60.349561715569507, -31.245833330582816 ], [ -60.34689927405649, -31.241666663916515 ], [ -60.342025907402672, -31.241666663916515 ], [ -60.344688133907894, -31.245833330582816 ], [ -60.334940970584661, -31.245833330582816 ], [ -60.337603321065252, -31.249999997249109 ], [ -60.340266225638317, -31.254166663915417 ], [ -60.345140237449783, -31.254166663915417 ], [ -60.347803911358916, -31.25833333058171 ] ] ] ] } },
{ "type": "Feature", "properties": { "_uid_": 704510.0, "id": 4103945.0, "initialdat": "2004-08-18", "finaldate": "2004-08-19", "area_ha": 85.787445392608646 }, "geometry": { "type": "MultiPolygon", "coordinates": [ [ [ [ -60.327855727636951, -31.249999997249109 ], [ -60.318108134208643, -31.249999997249109 ], [ -60.323432776591311, -31.25833333058171 ], [ -60.328307003544843, -31.25833333058171 ], [ -60.325644190203967, -31.254166663915417 ], [ -60.330518202015412, -31.254166663915417 ], [ -60.327855727636951, -31.249999997249109 ] ] ], [ [ [ -60.334940970584661, -31.245833330582816 ], [ -60.330067388923062, -31.245833330582816 ], [ -60.332729524351095, -31.249999997249109 ], [ -60.337603321065252, -31.249999997249109 ], [ -60.334940970584661, -31.245833330582816 ] ] ] ] } },
{ "type": "Feature", "properties": { "_uid_": 704511.0, "id": 4103948.0, "initialdat": "2004-08-18", "finaldate": "2004-08-18", "area_ha": 42.894272330904009 }, "geometry": { "type": "MultiPolygon", "coordinates": [ [ [ [ -60.313234337494499, -31.249999997249109 ], [ -60.303486744066198, -31.249999997249109 ], [ -60.306148142958158, -31.254166663915417 ], [ -60.315896166581062, -31.254166663915417 ], [ -60.313234337494499, -31.249999997249109 ] ] ] ] } },
{ "type": "Feature", "properties": { "_uid_": 704512.0, "id": 4103949.0, "initialdat": "2004-08-24", "finaldate": "2004-08-24", "area_ha": 42.89429054269791 }, "geometry": { "type": "MultiPolygon", "coordinates": [ [ [ [ -60.311022154769603, -31.254166663915417 ], [ -60.306148142958158, -31.254166663915417 ], [ -60.30881009573077, -31.25833333058171 ], [ -60.313684322684281, -31.25833333058171 ], [ -60.311022154769603, -31.254166663915417 ] ] ], [ [ [ -60.306148142958158, -31.254166663915417 ], [ -60.303486744066198, -31.249999997249109 ], [ -60.298612947352026, -31.249999997249109 ], [ -60.301274131146698, -31.254166663915417 ], [ -60.306148142958158, -31.254166663915417 ] ] ] ] } },
{ "type": "Feature", "properties": { "_uid_": 704513.0, "id": 4103950.0, "initialdat": "2004-08-26", "finaldate": "2004-08-26", "area_ha": 21.447154566490649 }, "geometry": { "type": "MultiPolygon", "coordinates": [ [ [ [ -60.398754367375766, -31.254166663915417 ], [ -60.393880355564306, -31.254166663915417 ], [ -60.396546180894092, -31.25833333058171 ], [ -60.401420407847603, -31.25833333058171 ], [ -60.398754367375766, -31.254166663915417 ] ] ] ] } },
{ "type": "Feature", "properties": { "_uid_": 704514.0, "id": 4103953.0, "initialdat": "2004-08-12", "finaldate": "2004-08-27", "area_ha": 793.54902047241922 }, "geometry": { "type": "MultiPolygon", "coordinates": [ [ [ [ -60.385507114720312, -31.279166663913195 ], [ -60.395257721391538, -31.279166663913195 ], [ -60.392589767202246, -31.274999997246901 ], [ -60.39746485517184, -31.274999997246901 ], [ -60.389463676731246, -31.262499997248007 ], [ -60.384589234590898, -31.262499997248007 ], [ -60.387255523903661, -31.266666663914307 ], [ -60.382380866531683, -31.266666663914307 ], [ -60.377506209159698, -31.266666663914307 ], [ -60.374840350310158, -31.262499997248007 ], [ -60.369965908169817, -31.262499997248007 ], [ -60.365091466029469, -31.262499997248007 ], [ -60.367756894415749, -31.266666663914307 ], [ -60.373089415323861, -31.274999997246901 ], [ -60.370422877479989, -31.270833330580601 ], [ -60.365548004831595, -31.270833330580601 ], [ -60.368214327354259, -31.274999997246901 ], [ -60.363339239384658, -31.274999997246901 ], [ -60.366005901377875, -31.279166663913195 ], [ -60.361130598042266, -31.279166663913195 ], [ -60.369133267422988, -31.291666663912086 ], [ -60.374471155944065, -31.299999997244687 ], [ -60.37934753678212, -31.299999997244687 ], [ -60.38422391762019, -31.299999997244687 ], [ -60.381554264551362, -31.295833330578386 ], [ -60.386430429799262, -31.295833330578386 ], [ -60.383761116530714, -31.291666663912086 ], [ -60.388637066233287, -31.291666663912086 ], [ -60.380631811384703, -31.279166663913195 ], [ -60.385507114720312, -31.279166663913195 ] ] ] ] } },
{ "type": "Feature", "properties": { "_uid_": 704515.0, "id": 4103954.0, "initialdat": "2004-08-18", "finaldate": "2004-08-18", "area_ha": 21.447228848981862 }, "geometry": { "type": "MultiPolygon", "coordinates": [ [ [ [ -60.326549023644503, -31.270833330580601 ], [ -60.32167415099611, -31.270833330580601 ], [ -60.324338535627902, -31.274999997246901 ], [ -60.329213623597511, -31.274999997246901 ], [ -60.326549023644503, -31.270833330580601 ] ] ] ] } },
{ "type": "Feature", "properties": { "_uid_": 789084.0, "id": 4275567.0, "initialdat": "2004-09-11", "finaldate": "2004-09-11", "area_ha": 21.445527105057234 }, "geometry": { "type": "MultiPolygon", "coordinates": [ [ [ [ -60.297395517190232, -30.887499997281235 ], [ -60.292540263504968, -30.887499997281235 ], [ -60.295163365339207, -30.891666663947529 ], [ -60.300018830258317, -30.891666663947529 ], [ -60.297395517190232, -30.887499997281235 ] ] ] ] } },
{ "type": "Feature", "properties": { "_uid_": 789085.0, "id": 4275568.0, "initialdat": "2004-09-08", "finaldate": "2004-09-08", "area_ha": 21.445563781976698 }, "geometry": { "type": "MultiPolygon", "coordinates": [ [ [ [ -60.326921071506582, -30.895833330613829 ], [ -60.322065395309572, -30.895833330613829 ], [ -60.324690648154991, -30.89999999728013 ], [ -60.32954653567397, -30.89999999728013 ], [ -60.326921071506582, -30.895833330613829 ] ] ] ] } },
{ "type": "Feature", "properties": { "_uid_": 789086.0, "id": 4275571.0, "initialdat": "2004-09-05", "finaldate": "2004-09-05", "area_ha": 21.4458407361269 }, "geometry": { "type": "MultiPolygon", "coordinates": [ [ [ [ -60.254607013556523, -30.958333330608291 ], [ -60.2497481628982, -30.958333330608291 ], [ -60.2523767640985, -30.962499997274591 ], [ -60.257235826740789, -30.962499997274591 ], [ -60.254607013556523, -30.958333330608291 ] ] ] ] } },
{ "type": "Feature", "properties": { "_uid_": 789088.0, "id": 4275576.0, "initialdat": "2004-09-03", "finaldate": "2004-09-05", "area_ha": 471.81216820278161 }, "geometry": { "type": "MultiPolygon", "coordinates": [ [ [ [ -60.356761608553619, -31.058333330599432 ], [ -60.35940530781383, -31.062499997265729 ], [ -60.369133634884179, -31.062499997265729 ], [ -60.363845935007596, -31.054166663933131 ], [ -60.373573409979009, -31.054166663933131 ], [ -60.370929960271368, -31.049999997266838 ], [ -60.366066435743818, -31.049999997266838 ], [ -60.360781614170399, -31.041666663934237 ], [ -60.365644712914701, -31.041666663934237 ], [ -60.363002915065195, -31.037499997267943 ], [ -60.343551371388337, -31.037499997267943 ], [ -60.346192317937486, -31.041666663934237 ], [ -60.348833814828367, -31.045833330600537 ], [ -60.343970503214614, -31.045833330600537 ], [ -60.351897658065354, -31.058333330599432 ], [ -60.356761608553619, -31.058333330599432 ] ] ], [ [ [ -60.376217410506626, -31.058333330599432 ], [ -60.371353460018376, -31.058333330599432 ], [ -60.373997798419339, -31.062499997265729 ], [ -60.378861961954513, -31.062499997265729 ], [ -60.376217410506626, -31.058333330599432 ] ] ] ] } },
{ "type": "Feature", "properties": { "_uid_": 789089.0, "id": 4275585.0, "initialdat": "2004-09-03", "finaldate": "2004-09-03", "area_ha": 21.447674771964554 }, "geometry": { "type": "MultiPolygon", "coordinates": [ [ [ [ -60.429693086532765, -31.370833330571738 ], [ -60.424813033792176, -31.370833330571738 ], [ -60.427492484138845, -31.374999997238039 ], [ -60.432372753278251, -31.374999997238039 ], [ -60.429693086532765, -31.370833330571738 ] ] ] ] } },
{ "type": "Feature", "properties": { "_uid_": 866757.0, "id": 4275544.0, "initialdat": "2004-09-30", "finaldate": "2004-09-30", "area_ha": 42.887986326432227 }, "geometry": { "type": "MultiPolygon", "coordinates": [ [ [ [ -60.078980622689862, -30.537499997312242 ], [ -60.074142956160941, -30.537499997312242 ], [ -60.079298479323533, -30.545833330644836 ], [ -60.084136561017793, -30.545833330644836 ], [ -60.078980622689862, -30.537499997312242 ] ] ] ] } },
{ "type": "Feature", "properties": { "_uid_": 866768.0, "id": 4275569.0, "initialdat": "2004-09-23", "finaldate": "2004-09-24", "area_ha": 64.337023568499092 }, "geometry": { "type": "MultiPolygon", "coordinates": [ [ [ [ -60.160738881732023, -30.924999997277908 ], [ -60.155881725355314, -30.924999997277908 ], [ -60.158502771309841, -30.929166663944205 ], [ -60.163360139317213, -30.929166663944205 ], [ -60.160738881732023, -30.924999997277908 ] ] ], [ [ [ -60.155881725355314, -30.924999997277908 ], [ -60.153261225890034, -30.920833330611615 ], [ -60.148404281099893, -30.920833330611615 ], [ -60.151024568978613, -30.924999997277908 ], [ -60.155881725355314, -30.924999997277908 ] ] ], [ [ [ -60.160354739310293, -30.916666663945314 ], [ -60.155498006062565, -30.916666663945314 ], [ -60.158118170680176, -30.920833330611615 ], [ -60.162975115470338, -30.920833330611615 ], [ -60.160354739310293, -30.916666663945314 ] ] ] ] } },
{ "type": "Feature", "properties": { "_uid_": 866769.0, "id": 4275570.0, "initialdat": "2004-09-30", "finaldate": "2004-09-30", "area_ha": 64.337023451256755 }, "geometry": { "type": "MultiPolygon", "coordinates": [ [ [ [ -60.155881725355314, -30.924999997277908 ], [ -60.151024568978613, -30.924999997277908 ], [ -60.153645403302463, -30.929166663944205 ], [ -60.158502771309841, -30.929166663944205 ], [ -60.155881725355314, -30.924999997277908 ] ] ], [ [ [ -60.155881725355314, -30.924999997277908 ], [ -60.160738881732023, -30.924999997277908 ], [ -60.155498006062565, -30.916666663945314 ], [ -60.150641272814852, -30.916666663945314 ], [ -60.155881725355314, -30.924999997277908 ] ] ] ] } },
{ "type": "Feature", "properties": { "_uid_": 866772.0, "id": 4275575.0, "initialdat": "2004-09-20", "finaldate": "2004-09-23", "area_ha": 42.892401497316357 }, "geometry": { "type": "MultiPolygon", "coordinates": [ [ [ [ -60.367865800984404, -31.037499997267943 ], [ -60.363002915065195, -31.037499997267943 ], [ -60.365644712914701, -31.041666663934237 ], [ -60.37050781165901, -31.041666663934237 ], [ -60.367865800984404, -31.037499997267943 ] ] ], [ [ [ -60.365644712914701, -31.041666663934237 ], [ -60.360781614170399, -31.041666663934237 ], [ -60.3634237496696, -31.045833330600537 ], [ -60.368287061283354, -31.045833330600537 ], [ -60.365644712914701, -31.041666663934237 ] ] ] ] } },
{ "type": "Feature", "properties": { "_uid_": 866773.0, "id": 4275577.0, "initialdat": "2004-09-17", "finaldate": "2004-09-20", "area_ha": 107.23184949173927 }, "geometry": { "type": "MultiPolygon", "coordinates": [ [ [ [ -60.273947795071145, -31.104166663928705 ], [ -60.269081498623926, -31.104166663928705 ], [ -60.27701706897944, -31.116666663927592 ], [ -60.28188400616709, -31.116666663927592 ], [ -60.279238602468446, -31.112499997261299 ], [ -60.284104775038642, -31.112499997261299 ], [ -60.278814091518356, -31.104166663928705 ], [ -60.273947795071145, -31.104166663928705 ] ] ] ] } },
{ "type": "Feature", "properties": { "_uid_": 866774.0, "id": 4275578.0, "initialdat": "2004-09-23", "finaldate": "2004-09-23", "area_ha": 21.447043352138994 }, "geometry": { "type": "MultiPolygon", "coordinates": [ [ [ [ -60.392515214141334, -31.229166663917624 ], [ -60.387642492242477, -31.229166663917624 ], [ -60.390305420724623, -31.233333330583925 ], [ -60.395178357497066, -31.233333330583925 ], [ -60.392515214141334, -31.229166663917624 ] ] ] ] } },
{ "type": "Feature", "properties": { "_uid_": 866775.0, "id": 4275579.0, "initialdat": "2004-09-21", "finaldate": "2004-09-21", "area_ha": 107.23619947814943 }, "geometry": { "type": "MultiPolygon", "coordinates": [ [ [ [ -60.408961445292661, -31.262499997248007 ], [ -60.404087003152313, -31.262499997248007 ], [ -60.40675415339156, -31.266666663914307 ], [ -60.397004838647611, -31.266666663914307 ], [ -60.399672113370308, -31.270833330580601 ], [ -60.404546986018687, -31.270833330580601 ], [ -60.407215031111029, -31.274999997246901 ], [ -60.412090119080617, -31.274999997246901 ], [ -60.409421858667081, -31.270833330580601 ], [ -60.41429673131546, -31.270833330580601 ], [ -60.408961445292661, -31.262499997248007 ] ] ] ] } },
{ "type": "Feature", "properties": { "_uid_": 866776.0, "id": 4275580.0, "initialdat": "2004-09-16", "finaldate": "2004-09-16", "area_ha": 21.447191816091536 }, "geometry": { "type": "MultiPolygon", "coordinates": [ [ [ [ -60.404087003152313, -31.262499997248007 ], [ -60.399212561011957, -31.262499997248007 ], [ -60.401879496019582, -31.266666663914307 ], [ -60.40675415339156, -31.266666663914307 ], [ -60.404087003152313, -31.262499997248007 ] ] ] ] } },
{ "type": "Feature", "properties": { "_uid_": 866777.0, "id": 4275581.0, "initialdat": "2004-09-16", "finaldate": "2004-09-16", "area_ha": 21.447228866851329 }, "geometry": { "type": "MultiPolygon", "coordinates": [ [ [ [ -60.404546986018687, -31.270833330580601 ], [ -60.399672113370308, -31.270833330580601 ], [ -60.402339943141442, -31.274999997246901 ], [ -60.407215031111029, -31.274999997246901 ], [ -60.404546986018687, -31.270833330580601 ] ] ] ] } },
{ "type": "Feature", "properties": { "_uid_": 866779.0, "id": 4275583.0, "initialdat": "2004-09-21", "finaldate": "2004-09-23", "area_ha": 407.50463025527 }, "geometry": { "type": "MultiPolygon", "coordinates": [ [ [ [ -60.405471029561184, -31.287499997245792 ], [ -60.395719561157009, -31.287499997245792 ], [ -60.390843826954899, -31.287499997245792 ], [ -60.385968092752819, -31.287499997245792 ], [ -60.388637066233287, -31.291666663912086 ], [ -60.383761116530714, -31.291666663912086 ], [ -60.386430429799262, -31.295833330578386 ], [ -60.381554264551362, -31.295833330578386 ], [ -60.38422391762019, -31.299999997244687 ], [ -60.389100298458267, -31.299999997244687 ], [ -60.391770722609614, -31.30416666391098 ], [ -60.401523915555792, -31.30416666391098 ], [ -60.398853060134378, -31.299999997244687 ], [ -60.418358583486651, -31.299999997244687 ], [ -60.41301681474615, -31.291666663912086 ], [ -60.408140865043578, -31.291666663912086 ], [ -60.405471029561184, -31.287499997245792 ] ] ] ] } },
{ "type": "Feature", "properties": { "_uid_": 866780.0, "id": 4275584.0, "initialdat": "2004-09-30", "finaldate": "2004-09-30", "area_ha": 21.44748875135183 }, "geometry": { "type": "MultiPolygon", "coordinates": [ [ [ [ -60.363903917537201, -31.329166663908769 ], [ -60.359026026311533, -31.329166663908769 ], [ -60.361698182273095, -31.333333330575062 ], [ -60.366576289448005, -31.333333330575062 ], [ -60.363903917537201, -31.329166663908769 ] ] ] ] } },
{ "type": "Feature", "properties": { "_uid_": 866781.0, "id": 4275586.0, "initialdat": "2004-09-23", "finaldate": "2004-09-25", "area_ha": 64.343080180311205 }, "geometry": { "type": "MultiPolygon", "coordinates": [ [ [ [ -60.398210869302325, -31.374999997238039 ], [ -60.388450331023492, -31.374999997238039 ], [ -60.383570061884079, -31.374999997238039 ], [ -60.386248121478353, -31.379166663904332 ], [ -60.391128607061596, -31.379166663904332 ], [ -60.40088957822811, -31.379166663904332 ], [ -60.398210869302325, -31.374999997238039 ] ] ] ] } },
{ "type": "Feature", "properties": { "_uid_": 866782.0, "id": 4275587.0, "initialdat": "2004-09-30", "finaldate": "2004-09-30", "area_ha": 21.447712038362027 }, "geometry": { "type": "MultiPolygon", "coordinates": [ [ [ [ -60.391128607061596, -31.379166663904332 ], [ -60.386248121478353, -31.379166663904332 ], [ -60.388926738012145, -31.383333330570633 ], [ -60.393807440084238, -31.383333330570633 ], [ -60.391128607061596, -31.379166663904332 ] ] ] ] } },
{ "type": "Feature", "properties": { "_uid_": 926418.0, "id": 4416063.0, "initialdat": "2004-10-07", "finaldate": "2004-10-11", "area_ha": 150.11861966745855 }, "geometry": { "type": "MultiPolygon", "coordinates": [ [ [ [ -60.16444636002862, -30.89999999728013 ], [ -60.159590472509635, -30.89999999728013 ], [ -60.162209086479258, -30.904166663946423 ], [ -60.157352987594237, -30.904166663946423 ], [ -60.162591431278862, -30.912499997279014 ], [ -60.167447953028244, -30.912499997279014 ], [ -60.164828246619123, -30.90833333061272 ], [ -60.169684556914277, -30.90833333061272 ], [ -60.167065458471448, -30.904166663946423 ], [ -60.171921284249315, -30.904166663946423 ], [ -60.169302247547591, -30.89999999728013 ], [ -60.17415813506657, -30.89999999728013 ], [ -60.171539433202263, -30.895833330613829 ], [ -60.161828080808242, -30.895833330613829 ], [ -60.16444636002862, -30.89999999728013 ] ] ] ] } },
{ "type": "Feature", "properties": { "_uid_": 926423.0, "id": 4416068.0, "initialdat": "2004-10-07", "finaldate": "2004-10-07", "area_ha": 21.445932868397236 }, "geometry": { "type": "MultiPolygon", "coordinates": [ [ [ [ -60.267756561373091, -30.979166663939775 ], [ -60.262896650352879, -30.979166663939775 ], [ -60.265527992777777, -30.983333330606076 ], [ -60.270388116003033, -30.983333330606076 ], [ -60.267756561373091, -30.979166663939775 ] ] ] ] } }
]
}
