{
"type": "FeatureCollection",
"name": "2005",
"crs": { "type": "name", "properties": { "name": "urn:ogc:def:crs:OGC:1.3:CRS84" } },
"features": [
{ "type": "Feature", "properties": { "_uid_": 17071.0, "id": 5119427.0, "initialdat": "2005-05-09", "finaldate": "2005-05-09", "area_ha": 21.443070600020885 }, "geometry": { "type": "MultiPolygon", "coordinates": [ [ [ [ -60.047327572436174, -30.329166663997366 ], [ -60.042500228793386, -30.329166663997366 ], [ -60.045055005115181, -30.333333330663667 ], [ -60.049882554158863, -30.333333330663667 ], [ -60.047327572436174, -30.329166663997366 ] ] ] ] } },
{ "type": "Feature", "properties": { "_uid_": 17072.0, "id": 5119429.0, "initialdat": "2005-05-09", "finaldate": "2005-05-09", "area_ha": 64.329321482467648 }, "geometry": { "type": "MultiPolygon", "coordinates": [ [ [ [ -60.042782561942488, -30.337499997329964 ], [ -60.028299298479752, -30.337499997329964 ], [ -60.030854322935369, -30.341666663996264 ], [ -60.0453382028589, -30.341666663996264 ], [ -60.042782561942488, -30.337499997329964 ] ] ] ] } },
{ "type": "Feature", "properties": { "_uid_": 50697.0, "id": 5119428.0, "initialdat": "2005-05-15", "finaldate": "2005-05-17", "area_ha": 171.54432503618003 }, "geometry": { "type": "MultiPolygon", "coordinates": [ [ [ [ -60.049882554158863, -30.333333330663667 ], [ -60.045055005115181, -30.333333330663667 ], [ -60.042500228793386, -30.329166663997366 ], [ -60.037672885150592, -30.329166663997366 ], [ -60.040227456071491, -30.333333330663667 ], [ -60.030572357984141, -30.333333330663667 ], [ -60.033127052967323, -30.337499997329964 ], [ -60.037954807454916, -30.337499997329964 ], [ -60.042782561942488, -30.337499997329964 ], [ -60.0453382028589, -30.341666663996264 ], [ -60.05016616283342, -30.341666663996264 ], [ -60.047610316430088, -30.337499997329964 ], [ -60.052438070917667, -30.337499997329964 ], [ -60.049882554158863, -30.333333330663667 ] ] ], [ [ [ -60.040510242884395, -30.341666663996264 ], [ -60.030854322935369, -30.341666663996264 ], [ -60.033409882402673, -30.345833330662565 ], [ -60.04306621341162, -30.345833330662565 ], [ -60.040510242884395, -30.341666663996264 ] ] ] ] } },
{ "type": "Feature", "properties": { "_uid_": 251784.0, "id": 5321636.0, "initialdat": "2005-07-29", "finaldate": "2005-07-29", "area_ha": 21.446339325094218 }, "geometry": { "type": "MultiPolygon", "coordinates": [ [ [ [ -60.354965179439503, -31.070833330598322 ], [ -60.350100589677297, -31.070833330598322 ], [ -60.352745302227568, -31.074999997264616 ], [ -60.35761010516989, -31.074999997264616 ], [ -60.354965179439503, -31.070833330598322 ] ] ] ] } },
{ "type": "Feature", "properties": { "_uid_": 410241.0, "id": 5487505.0, "initialdat": "2005-08-31", "finaldate": "2005-08-31", "area_ha": 21.446302501690386 }, "geometry": { "type": "MultiPolygon", "coordinates": [ [ [ [ -60.364269471349004, -31.062499997265729 ], [ -60.35940530781383, -31.062499997265729 ], [ -60.362049557917139, -31.066666663932022 ], [ -60.366913934543611, -31.066666663932022 ], [ -60.364269471349004, -31.062499997265729 ] ] ] ] } },
{ "type": "Feature", "properties": { "_uid_": 876008.0, "id": 6024163.0, "initialdat": "2005-12-31", "finaldate": "2005-12-31", "area_ha": 21.444112201309203 }, "geometry": { "type": "MultiPolygon", "coordinates": [ [ [ [ -60.169622647729177, -30.566666663976328 ], [ -60.164783527361799, -30.566666663976328 ], [ -60.167367911978729, -30.570833330642628 ], [ -60.17220724021103, -30.570833330642628 ], [ -60.169622647729177, -30.566666663976328 ] ] ] ] } },
{ "type": "Feature", "properties": { "_uid_": 876009.0, "id": 6024164.0, "initialdat": "2005-12-31", "finaldate": "2005-12-31", "area_ha": 42.888481205344199 }, "geometry": { "type": "MultiPolygon", "coordinates": [ [ [ [ -60.226450755481061, -30.59583333064041 ], [ -60.216769602811766, -30.59583333064041 ], [ -60.219359228449008, -30.599999997306703 ], [ -60.229040797456825, -30.599999997306703 ], [ -60.226450755481061, -30.59583333064041 ] ] ] ] } },
{ "type": "Feature", "properties": { "_uid_": 876016.0, "id": 6024171.0, "initialdat": "2005-12-27", "finaldate": "2005-12-27", "area_ha": 21.447470294940473 }, "geometry": { "type": "MultiPolygon", "coordinates": [ [ [ [ -60.449030257212904, -31.324999997242468 ], [ -60.444152581891565, -31.324999997242468 ], [ -60.446828068373627, -31.329166663908769 ], [ -60.451705959599295, -31.329166663908769 ], [ -60.449030257212904, -31.324999997242468 ] ] ] ] } },
{ "type": "Feature", "properties": { "_uid_": 876017.0, "id": 6024172.0, "initialdat": "2005-12-26", "finaldate": "2005-12-26", "area_ha": 193.02940881528855 }, "geometry": { "type": "MultiPolygon", "coordinates": [ [ [ [ -60.434573139273354, -31.370833330571738 ], [ -60.429693086532765, -31.370833330571738 ], [ -60.432372753278251, -31.374999997238039 ], [ -60.427492484138845, -31.374999997238039 ], [ -60.430172491727646, -31.379166663904332 ], [ -60.425292006144389, -31.379166663904332 ], [ -60.433334723787098, -31.391666663903226 ], [ -60.438215858971965, -31.391666663903226 ], [ -60.435534179041674, -31.387499997236933 ], [ -60.440415097647652, -31.387499997236933 ], [ -60.437733758733188, -31.383333330570633 ], [ -60.442614460805302, -31.383333330570633 ], [ -60.434573139273354, -31.370833330571738 ] ] ] ] } }
]
}
