{
"type": "FeatureCollection",
"name": "2006",
"crs": { "type": "name", "properties": { "name": "urn:ogc:def:crs:OGC:1.3:CRS84" } },
"features": [
{ "type": "Feature", "properties": { "_uid_": 136056.0, "id": 6609125.0, "initialdat": "2006-07-25", "finaldate": "2006-07-25", "area_ha": 42.891164773368835 }, "geometry": { "type": "MultiPolygon", "coordinates": [ [ [ [ -60.1401669224337, -30.89999999728013 ], [ -60.13045514739575, -30.89999999728013 ], [ -60.133072493169081, -30.904166663946423 ], [ -60.142784690939138, -30.904166663946423 ], [ -60.1401669224337, -30.89999999728013 ] ] ] ] } },
{ "type": "Feature", "properties": { "_uid_": 136057.0, "id": 6609126.0, "initialdat": "2006-07-29", "finaldate": "2006-08-01", "area_ha": 257.34511315002442 }, "geometry": { "type": "MultiPolygon", "coordinates": [ [ [ [ -60.111031597319815, -30.89999999728013 ], [ -60.10617570980083, -30.89999999728013 ], [ -60.114026213784967, -30.912499997279014 ], [ -60.118882735534356, -30.912499997279014 ], [ -60.128595779033134, -30.912499997279014 ], [ -60.125977764257819, -30.90833333061272 ], [ -60.130834074552979, -30.90833333061272 ], [ -60.128216394284046, -30.904166663946423 ], [ -60.125599259876765, -30.89999999728013 ], [ -60.122982671232158, -30.895833330613829 ], [ -60.118126995035155, -30.895833330613829 ], [ -60.120743372357794, -30.89999999728013 ], [ -60.115887484838794, -30.89999999728013 ], [ -60.111031597319815, -30.89999999728013 ] ] ] ] } },
{ "type": "Feature", "properties": { "_uid_": 136058.0, "id": 6609127.0, "initialdat": "2006-07-31", "finaldate": "2006-07-31", "area_ha": 21.445674508965016 }, "geometry": { "type": "MultiPolygon", "coordinates": [ [ [ [ -60.148404281099893, -30.920833330611615 ], [ -60.14354733630973, -30.920833330611615 ], [ -60.146167412601905, -30.924999997277908 ], [ -60.151024568978613, -30.924999997277908 ], [ -60.148404281099893, -30.920833330611615 ] ] ] ] } },
{ "type": "Feature", "properties": { "_uid_": 212033.0, "id": 6755622.0, "initialdat": "2006-08-01", "finaldate": "2006-08-01", "area_ha": 214.44742932040691 }, "geometry": { "type": "MultiPolygon", "coordinates": [ [ [ [ -59.918312870218188, -30.695833330631551 ], [ -59.920496950559887, -30.695833330631551 ], [ -59.918533965066324, -30.692671248115584 ], [ -59.918312870218188, -30.695833330631551 ] ] ], [ [ [ -59.918036536191579, -30.699785439879868 ], [ -59.91810463215613, -30.699999997297844 ], [ -59.918238317284342, -30.699999997297844 ], [ -59.918043476665652, -30.699686177722029 ], [ -59.918036536191579, -30.699785439879868 ] ] ] ] } },
{ "type": "Feature", "properties": { "_uid_": 212035.0, "id": 6755629.0, "initialdat": "2006-08-01", "finaldate": "2006-08-01", "area_ha": 21.44525079958439 }, "geometry": { "type": "MultiPolygon", "coordinates": [ [ [ [ -60.10284452252332, -30.824999997286767 ], [ -60.097992432063748, -30.824999997286767 ], [ -60.100600600148731, -30.829166663953067 ], [ -60.10545290118219, -30.829166663953067 ], [ -60.10284452252332, -30.824999997286767 ] ] ] ] } },
{ "type": "Feature", "properties": { "_uid_": 212036.0, "id": 6755630.0, "initialdat": "2006-08-14", "finaldate": "2006-08-14", "area_ha": 21.445287659299375 }, "geometry": { "type": "MultiPolygon", "coordinates": [ [ [ [ -60.011011591120464, -30.833333330619368 ], [ -60.006159079469199, -30.833333330619368 ], [ -60.008764122938977, -30.837499997285661 ], [ -60.013616845252031, -30.837499997285661 ], [ -60.011011591120464, -30.833333330619368 ] ] ] ] } },
{ "type": "Feature", "properties": { "_uid_": 212037.0, "id": 6755633.0, "initialdat": "2006-08-15", "finaldate": "2006-08-15", "area_ha": 21.445600807857513 }, "geometry": { "type": "MultiPolygon", "coordinates": [ [ [ [ -60.133072493169081, -30.904166663946423 ], [ -60.128216394284046, -30.904166663946423 ], [ -60.130834074552979, -30.90833333061272 ], [ -60.135690384848139, -30.90833333061272 ], [ -60.133072493169081, -30.904166663946423 ] ] ] ] } },
{ "type": "Feature", "properties": { "_uid_": 212038.0, "id": 6755634.0, "initialdat": "2006-08-07", "finaldate": "2006-08-07", "area_ha": 21.445619243693351 }, "geometry": { "type": "MultiPolygon", "coordinates": [ [ [ [ -60.130834074552979, -30.90833333061272 ], [ -60.125977764257819, -30.90833333061272 ], [ -60.128595779033134, -30.912499997279014 ], [ -60.133452300782523, -30.912499997279014 ], [ -60.130834074552979, -30.90833333061272 ] ] ] ] } },
{ "type": "Feature", "properties": { "_uid_": 212040.0, "id": 6755639.0, "initialdat": "2006-08-01", "finaldate": "2006-08-01", "area_ha": 42.891773485302927 }, "geometry": { "type": "MultiPolygon", "coordinates": [ [ [ [ -60.240428089333228, -30.966666663940885 ], [ -60.235568814662784, -30.966666663940885 ], [ -60.238197663764652, -30.970833330607185 ], [ -60.243057150507454, -30.970833330607185 ], [ -60.240428089333228, -30.966666663940885 ] ] ], [ [ [ -60.238197663764652, -30.970833330607185 ], [ -60.233338177021835, -30.970833330607185 ], [ -60.235967362075158, -30.974999997273482 ], [ -60.240827060934564, -30.974999997273482 ], [ -60.238197663764652, -30.970833330607185 ] ] ] ] } },
{ "type": "Feature", "properties": { "_uid_": 212043.0, "id": 6755644.0, "initialdat": "2006-08-01", "finaldate": "2006-08-01", "area_ha": 21.446247045660019 }, "geometry": { "type": "MultiPolygon", "coordinates": [ [ [ [ -60.205570126334834, -31.049999997266838 ], [ -60.200706601807283, -31.049999997266838 ], [ -60.20334259797913, -31.054166663933131 ], [ -60.208206335464844, -31.054166663933131 ], [ -60.205570126334834, -31.049999997266838 ] ] ] ] } },
{ "type": "Feature", "properties": { "_uid_": 212044.0, "id": 6755646.0, "initialdat": "2006-08-01", "finaldate": "2006-08-01", "area_ha": 42.892605011153222 }, "geometry": { "type": "MultiPolygon", "coordinates": [ [ [ [ -60.252393710040018, -31.062499997265729 ], [ -60.242665382969669, -31.062499997265729 ], [ -60.245304518881468, -31.066666663932022 ], [ -60.25503327213444, -31.066666663932022 ], [ -60.252393710040018, -31.062499997265729 ] ] ] ] } },
{ "type": "Feature", "properties": { "_uid_": 212045.0, "id": 6755650.0, "initialdat": "2006-08-01", "finaldate": "2006-08-01", "area_ha": 21.446376362955569 }, "geometry": { "type": "MultiPolygon", "coordinates": [ [ [ [ -60.335930501121503, -31.079166663930916 ], [ -60.331065484954657, -31.079166663930916 ], [ -60.33371023328268, -31.083333330597213 ], [ -60.338575462718481, -31.083333330597213 ], [ -60.335930501121503, -31.079166663930916 ] ] ] ] } },
{ "type": "Feature", "properties": { "_uid_": 212046.0, "id": 6755653.0, "initialdat": "2006-08-01", "finaldate": "2006-08-01", "area_ha": 42.892993185448645 }, "geometry": { "type": "MultiPolygon", "coordinates": [ [ [ [ -60.346942241779388, -31.104166663928705 ], [ -60.342075945332169, -31.104166663928705 ], [ -60.347372181357969, -31.112499997261299 ], [ -60.352238904920995, -31.112499997261299 ], [ -60.346942241779388, -31.104166663928705 ] ] ] ] } },
{ "type": "Feature", "properties": { "_uid_": 212051.0, "id": 6755664.0, "initialdat": "2006-08-08", "finaldate": "2006-08-08", "area_ha": 21.44670967478752 }, "geometry": { "type": "MultiPolygon", "coordinates": [ [ [ [ -60.266771516675902, -31.154166663924268 ], [ -60.261902654863277, -31.154166663924268 ], [ -60.264552198724033, -31.158333330590569 ], [ -60.269421274606628, -31.158333330590569 ], [ -60.266771516675902, -31.154166663924268 ] ] ] ] } },
{ "type": "Feature", "properties": { "_uid_": 212052.0, "id": 6755665.0, "initialdat": "2006-08-01", "finaldate": "2006-08-01", "area_ha": 21.44670948921442 }, "geometry": { "type": "MultiPolygon", "coordinates": [ [ [ [ -60.257033793050638, -31.154166663924268 ], [ -60.252164931237999, -31.154166663924268 ], [ -60.254814046958849, -31.158333330590569 ], [ -60.259683122841444, -31.158333330590569 ], [ -60.257033793050638, -31.154166663924268 ] ] ] ] } },
{ "type": "Feature", "properties": { "_uid_": 212054.0, "id": 6755667.0, "initialdat": "2006-08-01", "finaldate": "2006-08-01", "area_ha": 21.446802223992346 }, "geometry": { "type": "MultiPolygon", "coordinates": [ [ [ [ -60.445603533794475, -31.17499999725576 ], [ -60.440733601186196, -31.17499999725576 ], [ -60.443393190679593, -31.179166663922061 ], [ -60.448263337580798, -31.179166663922061 ], [ -60.445603533794475, -31.17499999725576 ] ] ] ] } },
{ "type": "Feature", "properties": { "_uid_": 212059.0, "id": 6755674.0, "initialdat": "2006-08-01", "finaldate": "2006-08-01", "area_ha": 21.44696899447441 }, "geometry": { "type": "MultiPolygon", "coordinates": [ [ [ [ -60.318533964746969, -31.21249999725244 ], [ -60.31366210189541, -31.21249999725244 ], [ -60.316320023287616, -31.21666666391873 ], [ -60.321192100833962, -31.21666666391873 ], [ -60.318533964746969, -31.21249999725244 ] ] ] ] } },
{ "type": "Feature", "properties": { "_uid_": 212060.0, "id": 6755675.0, "initialdat": "2006-08-01", "finaldate": "2006-08-01", "area_ha": 193.02024583996536 }, "geometry": { "type": "MultiPolygon", "coordinates": [ [ [ [ -60.2822154804634, -31.21666666391873 ], [ -60.277343402917076, -31.21666666391873 ], [ -60.280000159674856, -31.22083333058503 ], [ -60.284872451960659, -31.22083333058503 ], [ -60.2822154804634, -31.21666666391873 ] ] ], [ [ [ -60.2822154804634, -31.21666666391873 ], [ -60.287087558009716, -31.21666666391873 ], [ -60.291959635556033, -31.21666666391873 ], [ -60.28930278763773, -31.21249999725244 ], [ -60.2844309247862, -31.21249999725244 ], [ -60.28177484447464, -31.208333330586139 ], [ -60.27690319627321, -31.208333330586139 ], [ -60.2822154804634, -31.21666666391873 ] ] ], [ [ [ -60.296389789078965, -31.208333330586139 ], [ -60.291518140877514, -31.208333330586139 ], [ -60.299489328818026, -31.22083333058503 ], [ -60.304361621103816, -31.22083333058503 ], [ -60.309233913389605, -31.22083333058503 ], [ -60.303918376192343, -31.21249999725244 ], [ -60.299046513340812, -31.21249999725244 ], [ -60.296389789078965, -31.208333330586139 ] ] ] ] } },
{ "type": "Feature", "properties": { "_uid_": 212061.0, "id": 6755676.0, "initialdat": "2006-08-11", "finaldate": "2006-08-11", "area_ha": 21.44696915608645 }, "geometry": { "type": "MultiPolygon", "coordinates": [ [ [ [ -60.279559061934663, -31.21249999725244 ], [ -60.274687199083104, -31.21249999725244 ], [ -60.277343402917076, -31.21666666391873 ], [ -60.2822154804634, -31.21666666391873 ], [ -60.279559061934663, -31.21249999725244 ] ] ] ] } },
{ "type": "Feature", "properties": { "_uid_": 212062.0, "id": 6755677.0, "initialdat": "2006-08-01", "finaldate": "2006-08-01", "area_ha": 42.893993865156176 }, "geometry": { "type": "MultiPolygon", "coordinates": [ [ [ [ -60.350424566111876, -31.21666666391873 ], [ -60.345552488565545, -31.21666666391873 ], [ -60.350872568437168, -31.224999997251331 ], [ -60.355745075507137, -31.224999997251331 ], [ -60.350424566111876, -31.21666666391873 ] ] ] ] } },
{ "type": "Feature", "properties": { "_uid_": 212063.0, "id": 6755678.0, "initialdat": "2006-08-08", "finaldate": "2006-08-08", "area_ha": 42.894012440466881 }, "geometry": { "type": "MultiPolygon", "coordinates": [ [ [ [ -60.348212251675932, -31.22083333058503 ], [ -60.338467667104368, -31.22083333058503 ], [ -60.341127554297238, -31.224999997251331 ], [ -60.350872568437168, -31.224999997251331 ], [ -60.348212251675932, -31.22083333058503 ] ] ] ] } },
{ "type": "Feature", "properties": { "_uid_": 212064.0, "id": 6755682.0, "initialdat": "2006-08-01", "finaldate": "2006-08-01", "area_ha": 21.447210264217855 }, "geometry": { "type": "MultiPolygon", "coordinates": [ [ [ [ -60.270263746976205, -31.266666663914307 ], [ -60.26538908960422, -31.266666663914307 ], [ -60.268050551863844, -31.270833330580601 ], [ -60.272925424512238, -31.270833330580601 ], [ -60.270263746976205, -31.266666663914307 ] ] ] ] } },
{ "type": "Feature", "properties": { "_uid_": 212065.0, "id": 6755683.0, "initialdat": "2006-08-08", "finaldate": "2006-08-08", "area_ha": 21.447228846967221 }, "geometry": { "type": "MultiPolygon", "coordinates": [ [ [ [ -60.272925424512238, -31.270833330580601 ], [ -60.268050551863844, -31.270833330580601 ], [ -60.270712567962342, -31.274999997246901 ], [ -60.275587655931943, -31.274999997246901 ], [ -60.272925424512238, -31.270833330580601 ] ] ] ] } },
{ "type": "Feature", "properties": { "_uid_": 212066.0, "id": 6755685.0, "initialdat": "2006-08-01", "finaldate": "2006-08-01", "area_ha": 64.341798094737527 }, "geometry": { "type": "MultiPolygon", "coordinates": [ [ [ [ -60.285337831871139, -31.274999997246901 ], [ -60.280462743901538, -31.274999997246901 ], [ -60.283125744672496, -31.279166663913195 ], [ -60.28800104800812, -31.279166663913195 ], [ -60.285337831871139, -31.274999997246901 ] ] ], [ [ [ -60.283125744672496, -31.279166663913195 ], [ -60.278250441336887, -31.279166663913195 ], [ -60.280913780828669, -31.283333330579492 ], [ -60.2857892995751, -31.283333330579492 ], [ -60.283125744672496, -31.279166663913195 ] ] ], [ [ [ -60.280913780828669, -31.283333330579492 ], [ -60.276038262082231, -31.283333330579492 ], [ -60.278701940306803, -31.287499997245792 ], [ -60.283577674508898, -31.287499997245792 ], [ -60.280913780828669, -31.283333330579492 ] ] ] ] } },
{ "type": "Feature", "properties": { "_uid_": 212067.0, "id": 6755686.0, "initialdat": "2006-08-01", "finaldate": "2006-08-01", "area_ha": 64.341742569053167 }, "geometry": { "type": "MultiPolygon", "coordinates": [ [ [ [ -60.270712567962342, -31.274999997246901 ], [ -60.256087304053572, -31.274999997246901 ], [ -60.258749227994457, -31.279166663913195 ], [ -60.273375138001278, -31.279166663913195 ], [ -60.270712567962342, -31.274999997246901 ] ] ] ] } },
{ "type": "Feature", "properties": { "_uid_": 212068.0, "id": 6755687.0, "initialdat": "2006-08-01", "finaldate": "2006-08-01", "area_ha": 21.447303231465817 }, "geometry": { "type": "MultiPolygon", "coordinates": [ [ [ [ -60.337210750731906, -31.287499997245792 ], [ -60.332335016529811, -31.287499997245792 ], [ -60.335001619504972, -31.291666663912086 ], [ -60.339877569207545, -31.291666663912086 ], [ -60.337210750731906, -31.287499997245792 ] ] ] ] } },
{ "type": "Feature", "properties": { "_uid_": 298099.0, "id": 6755635.0, "initialdat": "2006-08-22", "finaldate": "2006-09-01", "area_ha": 128.67396711355448 }, "geometry": { "type": "MultiPolygon", "coordinates": [ [ [ [ -60.11216731796496, -30.924999997277908 ], [ -60.109548722778669, -30.920833330611615 ], [ -60.104691777988513, -30.920833330611615 ], [ -60.107310161588259, -30.924999997277908 ], [ -60.109929091236005, -30.929166663944205 ], [ -60.114786459243376, -30.929166663944205 ], [ -60.11216731796496, -30.924999997277908 ] ] ], [ [ [ -60.11216731796496, -30.924999997277908 ], [ -60.117024474341669, -30.924999997277908 ], [ -60.114405940587403, -30.920833330611615 ], [ -60.119262612358973, -30.920833330611615 ], [ -60.116644140080837, -30.916666663945314 ], [ -60.111787406833137, -30.916666663945314 ], [ -60.109169692035579, -30.912499997279014 ], [ -60.10431317028619, -30.912499997279014 ], [ -60.106930673585417, -30.916666663945314 ], [ -60.11216731796496, -30.924999997277908 ] ] ] ] } },
{ "type": "Feature", "properties": { "_uid_": 298101.0, "id": 6755638.0, "initialdat": "2006-08-22", "finaldate": "2006-08-26", "area_ha": 128.67477677689791 }, "geometry": { "type": "MultiPolygon", "coordinates": [ [ [ [ -60.204181256564951, -30.970833330607185 ], [ -60.206809168918788, -30.974999997273482 ], [ -60.211668867778187, -30.974999997273482 ], [ -60.209040743307767, -30.970833330607185 ], [ -60.213900230050584, -30.970833330607185 ], [ -60.2187597167934, -30.970833330607185 ], [ -60.216131715981014, -30.966666663940885 ], [ -60.213504262960278, -30.962499997274591 ], [ -60.203786137675735, -30.962499997274591 ], [ -60.206413166640125, -30.966666663940885 ], [ -60.201553891969681, -30.966666663940885 ], [ -60.204181256564951, -30.970833330607185 ] ] ] ] } },
{ "type": "Feature", "properties": { "_uid_": 298102.0, "id": 6755641.0, "initialdat": "2006-08-26", "finaldate": "2006-08-26", "area_ha": 85.784507461714739 }, "geometry": { "type": "MultiPolygon", "coordinates": [ [ [ [ -60.380509926830747, -31.029088995656821 ], [ -60.380516554016154, -31.02889105288099 ], [ -60.380525388121399, -31.028592991877193 ], [ -60.380546027199145, -31.027792947010251 ], [ -60.38094761298467, -31.02591444584894 ], [ -60.38094630722653, -31.02558631825336 ], [ -60.380833437584421, -31.024999997269052 ], [ -60.379392062179193, -31.024999997269052 ], [ -60.376751402165468, -31.020833330602752 ], [ -60.367027332041076, -31.020833330602752 ], [ -60.369667566759261, -31.024999997269052 ], [ -60.37452981446922, -31.024999997269052 ], [ -60.377170812130892, -31.029166663935346 ], [ -60.380510235593128, -31.029166663935346 ], [ -60.380509926830747, -31.029088995656821 ] ] ] ] } },
{ "type": "Feature", "properties": { "_uid_": 298103.0, "id": 6755642.0, "initialdat": "2006-08-25", "finaldate": "2006-08-28", "area_ha": 171.56750900449754 }, "geometry": { "type": "MultiPolygon", "coordinates": [ [ [ [ -60.379812360188446, -31.033333330601646 ], [ -60.365224340773032, -31.033333330601646 ], [ -60.37050781165901, -31.041666663934237 ], [ -60.375370910403333, -31.041666663934237 ], [ -60.372728686903628, -31.037499997267943 ], [ -60.382454458742053, -31.037499997267943 ], [ -60.379812360188446, -31.033333330601646 ] ] ], [ [ [ -60.37050781165901, -31.041666663934237 ], [ -60.367865800984404, -31.037499997267943 ], [ -60.363002915065195, -31.037499997267943 ], [ -60.365644712914701, -31.041666663934237 ], [ -60.37050781165901, -31.041666663934237 ] ] ], [ [ [ -60.365644712914701, -31.041666663934237 ], [ -60.360781614170399, -31.041666663934237 ], [ -60.355918515426104, -31.041666663934237 ], [ -60.358560438055868, -31.045833330600537 ], [ -60.3634237496696, -31.045833330600537 ], [ -60.368287061283354, -31.045833330600537 ], [ -60.365644712914701, -31.041666663934237 ] ] ], [ [ [ -60.358560438055868, -31.045833330600537 ], [ -60.353697126442114, -31.045833330600537 ], [ -60.356339386688738, -31.049999997266838 ], [ -60.361202911216274, -31.049999997266838 ], [ -60.358560438055868, -31.045833330600537 ] ] ] ] } },
{ "type": "Feature", "properties": { "_uid_": 298104.0, "id": 6755645.0, "initialdat": "2006-08-26", "finaldate": "2006-08-28", "area_ha": 42.892586488676073 }, "geometry": { "type": "MultiPolygon", "coordinates": [ [ [ [ -60.218344565293798, -31.062499997265729 ], [ -60.213480401758638, -31.062499997265729 ], [ -60.216118259122538, -31.066666663932022 ], [ -60.220982635749024, -31.066666663932022 ], [ -60.218344565293798, -31.062499997265729 ] ] ], [ [ [ -60.22543494537085, -31.058333330599432 ], [ -60.2205709948826, -31.058333330599432 ], [ -60.223208728828986, -31.062499997265729 ], [ -60.228072892364146, -31.062499997265729 ], [ -60.22543494537085, -31.058333330599432 ] ] ] ] } },
{ "type": "Feature", "properties": { "_uid_": 298106.0, "id": 6755648.0, "initialdat": "2006-08-26", "finaldate": "2006-08-26", "area_ha": 21.446320746815204 }, "geometry": { "type": "MultiPolygon", "coordinates": [ [ [ [ -60.274490778640377, -31.066666663932022 ], [ -60.269626402013891, -31.066666663932022 ], [ -60.27226715348214, -31.070833330598322 ], [ -60.277131743244325, -31.070833330598322 ], [ -60.274490778640377, -31.066666663932022 ] ] ] ] } },
{ "type": "Feature", "properties": { "_uid_": 298107.0, "id": 6755649.0, "initialdat": "2006-08-17", "finaldate": "2006-08-17", "area_ha": 21.446320981252192 }, "geometry": { "type": "MultiPolygon", "coordinates": [ [ [ [ -60.25503327213444, -31.066666663932022 ], [ -60.25016889550794, -31.066666663932022 ], [ -60.252808794433342, -31.070833330598322 ], [ -60.257673384195549, -31.070833330598322 ], [ -60.25503327213444, -31.066666663932022 ] ] ] ] } },
{ "type": "Feature", "properties": { "_uid_": 298108.0, "id": 6755651.0, "initialdat": "2006-08-23", "finaldate": "2006-08-29", "area_ha": 364.58969068055154 }, "geometry": { "type": "MultiPolygon", "coordinates": [ [ [ [ -60.30758669804235, -31.095833330596108 ], [ -60.31023215680532, -31.099999997262408 ], [ -60.31509823976134, -31.099999997262408 ], [ -60.319964322717368, -31.099999997262408 ], [ -60.317318437060926, -31.095833330596108 ], [ -60.322184306570215, -31.095833330596108 ], [ -60.319539034086972, -31.091666663929807 ], [ -60.324404414687514, -31.091666663929807 ], [ -60.329270070794529, -31.091666663929807 ], [ -60.33413572690155, -31.091666663929807 ], [ -60.331490089851293, -31.087499997263507 ], [ -60.3363555326005, -31.087499997263507 ], [ -60.33371023328268, -31.083333330597213 ], [ -60.328845003846858, -31.083333330597213 ], [ -60.323979774411058, -31.083333330597213 ], [ -60.319114544975257, -31.083333330597213 ], [ -60.314249315539442, -31.083333330597213 ], [ -60.316893761603723, -31.087499997263507 ], [ -60.31202831885453, -31.087499997263507 ], [ -60.309384086103641, -31.083333330597213 ], [ -60.304518856667826, -31.083333330597213 ], [ -60.30716287610533, -31.087499997263507 ], [ -60.302297433356152, -31.087499997263507 ], [ -60.304941790259427, -31.091666663929807 ], [ -60.300076134152413, -31.091666663929807 ], [ -60.30272082853304, -31.095833330596108 ], [ -60.30758669804235, -31.095833330596108 ] ] ] ] } },
{ "type": "Feature", "properties": { "_uid_": 298109.0, "id": 6755652.0, "initialdat": "2006-08-19", "finaldate": "2006-08-19", "area_ha": 21.446431957519053 }, "geometry": { "type": "MultiPolygon", "coordinates": [ [ [ [ -60.324404414687514, -31.091666663929807 ], [ -60.319538758580492, -31.091666663929807 ], [ -60.322184306570215, -31.095833330596108 ], [ -60.327050176079517, -31.095833330596108 ], [ -60.324404414687514, -31.091666663929807 ] ] ] ] } },
{ "type": "Feature", "properties": { "_uid_": 298113.0, "id": 6755659.0, "initialdat": "2006-08-19", "finaldate": "2006-08-19", "area_ha": 42.89327113118172 }, "geometry": { "type": "MultiPolygon", "coordinates": [ [ [ [ -60.275650024626302, -31.137499997259084 ], [ -60.265914012669462, -31.137499997259084 ], [ -60.268561992281271, -31.141666663925378 ], [ -60.278298432021579, -31.141666663925378 ], [ -60.275650024626302, -31.137499997259084 ] ] ] ] } },
{ "type": "Feature", "properties": { "_uid_": 298114.0, "id": 6755660.0, "initialdat": "2006-08-26", "finaldate": "2006-08-26", "area_ha": 21.446635577976704 }, "geometry": { "type": "MultiPolygon", "coordinates": [ [ [ [ -60.261046006691053, -31.137499997259084 ], [ -60.25617800071263, -31.137499997259084 ], [ -60.258825552540976, -31.141666663925378 ], [ -60.263693772411131, -31.141666663925378 ], [ -60.261046006691053, -31.137499997259084 ] ] ] ] } },
{ "type": "Feature", "properties": { "_uid_": 298115.0, "id": 6755663.0, "initialdat": "2006-08-26", "finaldate": "2006-08-26", "area_ha": 21.446691082036494 }, "geometry": { "type": "MultiPolygon", "coordinates": [ [ [ [ -60.22517312812392, -31.149999997257975 ], [ -60.220304480336665, -31.149999997257975 ], [ -60.222951760362179, -31.154166663924268 ], [ -60.227820622174811, -31.154166663924268 ], [ -60.22517312812392, -31.149999997257975 ] ] ] ] } },
{ "type": "Feature", "properties": { "_uid_": 298116.0, "id": 6755668.0, "initialdat": "2006-08-17", "finaldate": "2006-08-21", "area_ha": 750.63777374836206 }, "geometry": { "type": "MultiPolygon", "coordinates": [ [ [ [ -60.456699446487555, -31.199999997253546 ], [ -60.462025827927931, -31.208333330586139 ], [ -60.466897476129368, -31.208333330586139 ], [ -60.464234070826087, -31.204166663919839 ], [ -60.469105227218598, -31.204166663919839 ], [ -60.48371952800666, -31.204166663919839 ], [ -60.481055541663871, -31.199999997253546 ], [ -60.490797979734403, -31.199999997253546 ], [ -60.488134118843654, -31.195833330587245 ], [ -60.485470812425042, -31.191666663920952 ], [ -60.480600022377324, -31.191666663920952 ], [ -60.477937484756218, -31.187499997254655 ], [ -60.475275501359825, -31.183333330588354 ], [ -60.47040514012108, -31.183333330588354 ], [ -60.465534778882336, -31.183333330588354 ], [ -60.462873778284404, -31.179166663922061 ], [ -60.458003631383193, -31.179166663922061 ], [ -60.443393190679593, -31.179166663922061 ], [ -60.446053333927345, -31.183333330588354 ], [ -60.448714031030725, -31.187499997254655 ], [ -60.451375282091, -31.191666663920952 ], [ -60.456699446487555, -31.199999997253546 ] ], [ [ -60.473066909135298, -31.187499997254655 ], [ -60.477060687924201, -31.193749806786126 ], [ -60.475729232329591, -31.191666663920952 ], [ -60.47085844228188, -31.191666663920952 ], [ -60.468196333514385, -31.187499997254655 ], [ -60.473066909135298, -31.187499997254655 ] ] ] ] } },
{ "type": "Feature", "properties": { "_uid_": 298117.0, "id": 6755672.0, "initialdat": "2006-08-20", "finaldate": "2006-08-26", "area_ha": 557.62107989950175 }, "geometry": { "type": "MultiPolygon", "coordinates": [ [ [ [ -60.338021416153111, -31.21249999725244 ], [ -60.340680411019228, -31.21666666391873 ], [ -60.345552488565545, -31.21666666391873 ], [ -60.342893279004642, -31.21249999725244 ], [ -60.347765141856193, -31.21249999725244 ], [ -60.345106271093371, -31.208333330586139 ], [ -60.34244795372215, -31.204166663919839 ], [ -60.337132978749544, -31.195833330587245 ], [ -60.33226197423037, -31.195833330587245 ], [ -60.32739096971121, -31.195833330587245 ], [ -60.322519965192051, -31.195833330587245 ], [ -60.319863950802592, -31.191666663920952 ], [ -60.317208489266015, -31.187499997254655 ], [ -60.312337913645102, -31.187499997254655 ], [ -60.314993160754874, -31.191666663920952 ], [ -60.310122370707163, -31.191666663920952 ], [ -60.31277795615371, -31.195833330587245 ], [ -60.30790695163455, -31.195833330587245 ], [ -60.313219352146049, -31.204166663919839 ], [ -60.308347918550012, -31.204166663919839 ], [ -60.311004733683269, -31.208333330586139 ], [ -60.325619678287602, -31.208333330586139 ], [ -60.330491326489046, -31.208333330586139 ], [ -60.333149553301581, -31.21249999725244 ], [ -60.338021416153111, -31.21249999725244 ] ] ] ] } },
{ "type": "Feature", "properties": { "_uid_": 298118.0, "id": 6755679.0, "initialdat": "2006-08-17", "finaldate": "2006-08-17", "area_ha": 21.447006169414522 }, "geometry": { "type": "MultiPolygon", "coordinates": [ [ [ [ -60.304361621103816, -31.22083333058503 ], [ -60.299489328818026, -31.22083333058503 ], [ -60.302147497737515, -31.224999997251331 ], [ -60.307020004807484, -31.224999997251331 ], [ -60.304361621103816, -31.22083333058503 ] ] ] ] } },
{ "type": "Feature", "properties": { "_uid_": 298119.0, "id": 6755680.0, "initialdat": "2006-08-26", "finaldate": "2006-08-28", "area_ha": 128.68296941709519 }, "geometry": { "type": "MultiPolygon", "coordinates": [ [ [ [ -60.354888261072688, -31.254166663915417 ], [ -60.345140237449783, -31.254166663915417 ], [ -60.350468139608388, -31.262499997248007 ], [ -60.360217023889099, -31.262499997248007 ], [ -60.35755264248089, -31.25833333058171 ], [ -60.362426592219457, -31.25833333058171 ], [ -60.359762272884133, -31.254166663915417 ], [ -60.354888261072688, -31.254166663915417 ] ] ], [ [ [ -60.350468139608388, -31.262499997248007 ], [ -60.347803911358916, -31.25833333058171 ], [ -60.342929684405384, -31.25833333058171 ], [ -60.345593697468026, -31.262499997248007 ], [ -60.350468139608388, -31.262499997248007 ] ] ] ] } },
{ "type": "Feature", "properties": { "_uid_": 298120.0, "id": 6755681.0, "initialdat": "2006-08-30", "finaldate": "2006-08-30", "area_ha": 21.447210344088077 }, "geometry": { "type": "MultiPolygon", "coordinates": [ [ [ [ -60.343383607555857, -31.266666663914307 ], [ -60.338508950183886, -31.266666663914307 ], [ -60.341173641589656, -31.270833330580601 ], [ -60.346048514238042, -31.270833330580601 ], [ -60.343383607555857, -31.266666663914307 ] ] ] ] } },
{ "type": "Feature", "properties": { "_uid_": 298121.0, "id": 6755684.0, "initialdat": "2006-08-24", "finaldate": "2006-08-26", "area_ha": 64.341760656082627 }, "geometry": { "type": "MultiPolygon", "coordinates": [ [ [ [ -60.314588359688713, -31.274999997246901 ], [ -60.309713271719112, -31.274999997246901 ], [ -60.315042412053749, -31.283333330579492 ], [ -60.31991793080018, -31.283333330579492 ], [ -60.314588359688713, -31.274999997246901 ] ] ], [ [ [ -60.309713271719112, -31.274999997246901 ], [ -60.304838183749524, -31.274999997246901 ], [ -60.30750226135055, -31.279166663913195 ], [ -60.312377564686159, -31.279166663913195 ], [ -60.309713271719112, -31.274999997246901 ] ] ] ] } },
{ "type": "Feature", "properties": { "_uid_": 298122.0, "id": 6755688.0, "initialdat": "2006-08-30", "finaldate": "2006-08-30", "area_ha": 21.447321744680405 }, "geometry": { "type": "MultiPolygon", "coordinates": [ [ [ [ -60.34962946861269, -31.291666663912086 ], [ -60.344753518910117, -31.291666663912086 ], [ -60.347421107816089, -31.295833330578386 ], [ -60.352297273063989, -31.295833330578386 ], [ -60.34962946861269, -31.291666663912086 ] ] ] ] } },
{ "type": "Feature", "properties": { "_uid_": 371484.0, "id": 6926300.0, "initialdat": "2006-09-01", "finaldate": "2006-09-04", "area_ha": 64.33149461665154 }, "geometry": { "type": "MultiPolygon", "coordinates": [ [ [ [ -60.133178370266663, -30.499999997315566 ], [ -60.128342569834786, -30.499999997315566 ], [ -60.130918530677661, -30.504166663981866 ], [ -60.13575453828026, -30.504166663981866 ], [ -60.133178370266663, -30.499999997315566 ] ] ], [ [ [ -60.130918530677661, -30.504166663981866 ], [ -60.12124651547245, -30.504166663981866 ], [ -60.123822600639784, -30.508333330648163 ], [ -60.13349503027311, -30.508333330648163 ], [ -60.130918530677661, -30.504166663981866 ] ] ] ] } },
{ "type": "Feature", "properties": { "_uid_": 371506.0, "id": 6926340.0, "initialdat": "2006-09-14", "finaldate": "2006-09-14", "area_ha": 21.445121946096421 }, "geometry": { "type": "MultiPolygon", "coordinates": [ [ [ [ -60.273775193392645, -30.795833330622688 ], [ -60.268924575720547, -30.795833330622688 ], [ -60.271537137127886, -30.799999997288989 ], [ -60.276387965066498, -30.799999997288989 ], [ -60.273775193392645, -30.795833330622688 ] ] ] ] } },
{ "type": "Feature", "properties": { "_uid_": 371507.0, "id": 6926341.0, "initialdat": "2006-09-01", "finaldate": "2006-09-05", "area_ha": 64.335476206815244 }, "geometry": { "type": "MultiPolygon", "coordinates": [ [ [ [ -60.118917019850862, -30.804166663955282 ], [ -60.114065981601861, -30.804166663955282 ], [ -60.104363905103845, -30.804166663955282 ], [ -60.106970194777546, -30.808333330621583 ], [ -60.116672691984157, -30.808333330621583 ], [ -60.121523940587451, -30.808333330621583 ], [ -60.118917019850862, -30.804166663955282 ] ] ] ] } },
{ "type": "Feature", "properties": { "_uid_": 371509.0, "id": 6926343.0, "initialdat": "2006-09-07", "finaldate": "2006-09-07", "area_ha": 21.445195538020133 }, "geometry": { "type": "MultiPolygon", "coordinates": [ [ [ [ -60.119279946398855, -30.812499997287883 ], [ -60.114428487397348, -30.812499997287883 ], [ -60.117036075500707, -30.816666663954177 ], [ -60.12188774494431, -30.816666663954177 ], [ -60.119279946398855, -30.812499997287883 ] ] ] ] } },
{ "type": "Feature", "properties": { "_uid_": 371512.0, "id": 6926347.0, "initialdat": "2006-09-04", "finaldate": "2006-09-05", "area_ha": 64.337197498607637 }, "geometry": { "type": "MultiPolygon", "coordinates": [ [ [ [ -60.149878697471671, -30.89999999728013 ], [ -60.145022809952685, -30.89999999728013 ], [ -60.142405376020193, -30.895833330613829 ], [ -60.13754969982319, -30.895833330613829 ], [ -60.1401669224337, -30.89999999728013 ], [ -60.142784690939138, -30.904166663946423 ], [ -60.152496888709202, -30.904166663946423 ], [ -60.149878697471671, -30.89999999728013 ] ] ] ] } },
{ "type": "Feature", "properties": { "_uid_": 371515.0, "id": 6926351.0, "initialdat": "2006-09-03", "finaldate": "2006-09-06", "area_ha": 42.891404372775554 }, "geometry": { "type": "MultiPolygon", "coordinates": [ [ [ [ -60.141310256225196, -30.924999997277908 ], [ -60.136453099848495, -30.924999997277908 ], [ -60.139073299280305, -30.929166663944205 ], [ -60.143930667287677, -30.929166663944205 ], [ -60.141310256225196, -30.924999997277908 ] ] ], [ [ [ -60.139073299280305, -30.929166663944205 ], [ -60.134215931272912, -30.929166663944205 ], [ -60.136836465441782, -30.933333330610505 ], [ -60.141694045123984, -30.933333330610505 ], [ -60.139073299280305, -30.929166663944205 ] ] ] ] } },
{ "type": "Feature", "properties": { "_uid_": 371517.0, "id": 6926354.0, "initialdat": "2006-09-11", "finaldate": "2006-09-11", "area_ha": 21.445730108594898 }, "geometry": { "type": "MultiPolygon", "coordinates": [ [ [ [ -60.20484258099254, -30.933333330610505 ], [ -60.199985001310338, -30.933333330610505 ], [ -60.202608834292462, -30.937499997276799 ], [ -60.207466625693627, -30.937499997276799 ], [ -60.20484258099254, -30.933333330610505 ] ] ] ] } },
{ "type": "Feature", "properties": { "_uid_": 371518.0, "id": 6926355.0, "initialdat": "2006-09-01", "finaldate": "2006-09-04", "area_ha": 85.783115106129642 }, "geometry": { "type": "MultiPolygon", "coordinates": [ [ [ [ -60.192893251490169, -30.937499997276799 ], [ -60.195517208086116, -30.941666663943099 ], [ -60.200375211250368, -30.941666663943099 ], [ -60.205233214414612, -30.941666663943099 ], [ -60.199985001310338, -30.933333330610505 ], [ -60.190269841945941, -30.933333330610505 ], [ -60.192893251490169, -30.937499997276799 ] ] ] ] } },
{ "type": "Feature", "properties": { "_uid_": 371519.0, "id": 6926356.0, "initialdat": "2006-09-09", "finaldate": "2006-09-09", "area_ha": 21.445729887473583 }, "geometry": { "type": "MultiPolygon", "coordinates": [ [ [ [ -60.190269841945941, -30.933333330610505 ], [ -60.185412262263753, -30.933333330610505 ], [ -60.188035460089026, -30.937499997276799 ], [ -60.192893251490169, -30.937499997276799 ], [ -60.190269841945941, -30.933333330610505 ] ] ] ] } },
{ "type": "Feature", "properties": { "_uid_": 371520.0, "id": 6926357.0, "initialdat": "2006-09-01", "finaldate": "2006-09-01", "area_ha": 21.445729919457435 }, "geometry": { "type": "MultiPolygon", "coordinates": [ [ [ [ -60.131978885759594, -30.933333330610505 ], [ -60.127121306077385, -30.933333330610505 ], [ -60.129741963275229, -30.937499997276799 ], [ -60.134599754676387, -30.937499997276799 ], [ -60.131978885759594, -30.933333330610505 ] ] ] ] } },
{ "type": "Feature", "properties": { "_uid_": 371521.0, "id": 6926358.0, "initialdat": "2006-09-05", "finaldate": "2006-09-09", "area_ha": 42.891551954293249 }, "geometry": { "type": "MultiPolygon", "coordinates": [ [ [ [ -60.212716356747599, -30.9458333306094 ], [ -60.207858141776072, -30.9458333306094 ], [ -60.21048361647621, -30.949999997275697 ], [ -60.215342043299152, -30.949999997275697 ], [ -60.212716356747599, -30.9458333306094 ] ] ], [ [ [ -60.207858141776072, -30.9458333306094 ], [ -60.205233214414612, -30.941666663943099 ], [ -60.200375211250368, -30.941666663943099 ], [ -60.202999926804573, -30.9458333306094 ], [ -60.207858141776072, -30.9458333306094 ] ] ] ] } },
{ "type": "Feature", "properties": { "_uid_": 371522.0, "id": 6926359.0, "initialdat": "2006-09-08", "finaldate": "2006-09-08", "area_ha": 21.4457852922678 }, "geometry": { "type": "MultiPolygon", "coordinates": [ [ [ [ -60.275873151377226, -30.9458333306094 ], [ -60.271014936405713, -30.9458333306094 ], [ -60.273643165174356, -30.949999997275697 ], [ -60.278501591997284, -30.949999997275697 ], [ -60.275873151377226, -30.9458333306094 ] ] ] ] } },
{ "type": "Feature", "properties": { "_uid_": 371523.0, "id": 6926362.0, "initialdat": "2006-09-06", "finaldate": "2006-09-06", "area_ha": 21.445822081196308 }, "geometry": { "type": "MultiPolygon", "coordinates": [ [ [ [ -60.256837387081184, -30.95416666394199 ], [ -60.251978748362646, -30.95416666394199 ], [ -60.254607013556523, -30.958333330608291 ], [ -60.259465864214825, -30.958333330608291 ], [ -60.256837387081184, -30.95416666394199 ] ] ] ] } },
{ "type": "Feature", "properties": { "_uid_": 371524.0, "id": 6926364.0, "initialdat": "2006-09-11", "finaldate": "2006-09-11", "area_ha": 21.445969803595538 }, "geometry": { "type": "MultiPolygon", "coordinates": [ [ [ [ -60.253578877322987, -30.987499997272369 ], [ -60.248718541848497, -30.987499997272369 ], [ -60.251350132286696, -30.99166666393867 ], [ -60.256210680054721, -30.99166666393867 ], [ -60.253578877322987, -30.987499997272369 ] ] ] ] } },
{ "type": "Feature", "properties": { "_uid_": 371526.0, "id": 6926366.0, "initialdat": "2006-09-10", "finaldate": "2006-09-11", "area_ha": 214.46072521919012 }, "geometry": { "type": "MultiPolygon", "coordinates": [ [ [ [ -60.171746866943579, -31.004166663937561 ], [ -60.166885682029466, -31.004166663937561 ], [ -60.169515430390291, -31.008333330603861 ], [ -60.174376827774999, -31.008333330603861 ], [ -60.171746866943579, -31.004166663937561 ] ] ], [ [ [ -60.169515430390291, -31.008333330603861 ], [ -60.16465403300559, -31.008333330603861 ], [ -60.167284116975516, -31.012499997270154 ], [ -60.162422507075952, -31.012499997270154 ], [ -60.165052926666142, -31.016666663936455 ], [ -60.170315410650765, -31.024999997269052 ], [ -60.180039906070689, -31.024999997269052 ], [ -60.177407964615554, -31.020833330602752 ], [ -60.182269999677736, -31.020833330602752 ], [ -60.179638394042335, -31.016666663936455 ], [ -60.177007336774665, -31.012499997270154 ], [ -60.172145726875108, -31.012499997270154 ], [ -60.169515430390291, -31.008333330603861 ] ] ] ] } },
{ "type": "Feature", "properties": { "_uid_": 371528.0, "id": 6926371.0, "initialdat": "2006-09-10", "finaldate": "2006-09-10", "area_ha": 42.892235307991506 }, "geometry": { "type": "MultiPolygon", "coordinates": [ [ [ [ -60.201718139926513, -31.020833330602752 ], [ -60.191994069802128, -31.020833330602752 ], [ -60.194626649200565, -31.024999997269052 ], [ -60.204351144620496, -31.024999997269052 ], [ -60.201718139926513, -31.020833330602752 ] ] ] ] } },
{ "type": "Feature", "properties": { "_uid_": 371530.0, "id": 6926374.0, "initialdat": "2006-09-04", "finaldate": "2006-09-04", "area_ha": 21.446154563367365 }, "geometry": { "type": "MultiPolygon", "coordinates": [ [ [ [ -60.148635173234453, -31.029166663935346 ], [ -60.143772712832408, -31.029166663935346 ], [ -60.146404049542063, -31.033333330601646 ], [ -60.151266722680525, -31.033333330601646 ], [ -60.148635173234453, -31.029166663935346 ] ] ] ] } },
{ "type": "Feature", "properties": { "_uid_": 371531.0, "id": 6926375.0, "initialdat": "2006-09-04", "finaldate": "2006-09-11", "area_ha": 128.67883857401608 }, "geometry": { "type": "MultiPolygon", "coordinates": [ [ [ [ -60.242252497864826, -31.054166663933131 ], [ -60.237388760379112, -31.054166663933131 ], [ -60.240026796835608, -31.058333330599432 ], [ -60.244890747323858, -31.058333330599432 ], [ -60.242252497864826, -31.054166663933131 ] ] ], [ [ [ -60.240026796835608, -31.058333330599432 ], [ -60.235162846347357, -31.058333330599432 ], [ -60.230298895859107, -31.058333330599432 ], [ -60.232937055899335, -31.062499997265729 ], [ -60.228072892364146, -31.062499997265729 ], [ -60.23071138900201, -31.066666663932022 ], [ -60.240440142254982, -31.066666663932022 ], [ -60.245304518881468, -31.066666663932022 ], [ -60.240026796835608, -31.058333330599432 ] ] ] ] } },
{ "type": "Feature", "properties": { "_uid_": 371532.0, "id": 6926376.0, "initialdat": "2006-09-11", "finaldate": "2006-09-11", "area_ha": 21.44630253596306 }, "geometry": { "type": "MultiPolygon", "coordinates": [ [ [ [ -60.257257873575192, -31.062499997265729 ], [ -60.252393710040018, -31.062499997265729 ], [ -60.25503327213444, -31.066666663932022 ], [ -60.259897648760926, -31.066666663932022 ], [ -60.257257873575192, -31.062499997265729 ] ] ] ] } },
{ "type": "Feature", "properties": { "_uid_": 371533.0, "id": 6926377.0, "initialdat": "2006-09-06", "finaldate": "2006-09-06", "area_ha": 21.446339361679556 }, "geometry": { "type": "MultiPolygon", "coordinates": [ [ [ [ -60.330642230628513, -31.070833330598322 ], [ -60.32577764086632, -31.070833330598322 ], [ -60.328421287516001, -31.074999997264616 ], [ -60.333286090458316, -31.074999997264616 ], [ -60.330642230628513, -31.070833330598322 ] ] ] ] } },
{ "type": "Feature", "properties": { "_uid_": 371534.0, "id": 6926378.0, "initialdat": "2006-09-01", "finaldate": "2006-09-01", "area_ha": 42.89271592435837 }, "geometry": { "type": "MultiPolygon", "coordinates": [ [ [ [ -60.323556484573665, -31.074999997264616 ], [ -60.313826878689049, -31.074999997264616 ], [ -60.316470436454097, -31.079166663930916 ], [ -60.326200468787796, -31.079166663930916 ], [ -60.323556484573665, -31.074999997264616 ] ] ] ] } },
{ "type": "Feature", "properties": { "_uid_": 371535.0, "id": 6926380.0, "initialdat": "2006-09-01", "finaldate": "2006-09-01", "area_ha": 21.446358007752895 }, "geometry": { "type": "MultiPolygon", "coordinates": [ [ [ [ -60.250584440438921, -31.074999997264616 ], [ -60.245719637496613, -31.074999997264616 ], [ -60.248360210118214, -31.079166663930916 ], [ -60.253225226285053, -31.079166663930916 ], [ -60.250584440438921, -31.074999997264616 ] ] ] ] } },
{ "type": "Feature", "properties": { "_uid_": 371539.0, "id": 6926384.0, "initialdat": "2006-09-11", "finaldate": "2006-09-11", "area_ha": 21.446376417827608 }, "geometry": { "type": "MultiPolygon", "coordinates": [ [ [ [ -60.248360210118214, -31.079166663930916 ], [ -60.243495193951354, -31.079166663930916 ], [ -60.246136103438161, -31.083333330597213 ], [ -60.251001332873969, -31.083333330597213 ], [ -60.248360210118214, -31.079166663930916 ] ] ] ] } },
{ "type": "Feature", "properties": { "_uid_": 371540.0, "id": 6926385.0, "initialdat": "2006-09-06", "finaldate": "2006-09-06", "area_ha": 42.892752923119069 }, "geometry": { "type": "MultiPolygon", "coordinates": [ [ [ [ -60.243495193951354, -31.079166663930916 ], [ -60.233765161617654, -31.079166663930916 ], [ -60.23640564456656, -31.083333330597213 ], [ -60.246136103438161, -31.083333330597213 ], [ -60.243495193951354, -31.079166663930916 ] ] ] ] } },
{ "type": "Feature", "properties": { "_uid_": 371546.0, "id": 6926391.0, "initialdat": "2006-09-01", "finaldate": "2006-09-13", "area_ha": 772.06904395253662 }, "geometry": { "type": "MultiPolygon", "coordinates": [ [ [ [ -60.292044933601723, -31.12499999726019 ], [ -60.299990054518396, -31.137499997259084 ], [ -60.304858060496819, -31.137499997259084 ], [ -60.309726066475235, -31.137499997259084 ], [ -60.314594072453659, -31.137499997259084 ], [ -60.319462078432068, -31.137499997259084 ], [ -60.316812297864026, -31.133333330592784 ], [ -60.321680089995247, -31.133333330592784 ], [ -60.319030647376593, -31.129166663926483 ], [ -60.316381756453801, -31.12499999726019 ], [ -60.321249121024216, -31.12499999726019 ], [ -60.318600567982948, -31.120833330593893 ], [ -60.323467718839744, -31.120833330593893 ], [ -60.320819503668361, -31.116666663927592 ], [ -60.325686440856003, -31.116666663927592 ], [ -60.330553378043668, -31.116666663927592 ], [ -60.327905287105871, -31.112499997261299 ], [ -60.332772010668883, -31.112499997261299 ], [ -60.327477055990521, -31.104166663928705 ], [ -60.322610759543302, -31.104166663928705 ], [ -60.325257747639284, -31.108333330594999 ], [ -60.31552472767352, -31.108333330594999 ], [ -60.318171839979819, -31.112499997261299 ], [ -60.298704945727721, -31.112499997261299 ], [ -60.293838222164695, -31.112499997261299 ], [ -60.296484817730068, -31.116666663927592 ], [ -60.299131964555812, -31.120833330593893 ], [ -60.29426481369903, -31.120833330593893 ], [ -60.289397662842248, -31.120833330593893 ], [ -60.292044933601723, -31.12499999726019 ] ] ] ] } },
{ "type": "Feature", "properties": { "_uid_": 371547.0, "id": 6926398.0, "initialdat": "2006-09-11", "finaldate": "2006-09-11", "area_ha": 21.446579779326918 }, "geometry": { "type": "MultiPolygon", "coordinates": [ [ [ [ -60.292044933601723, -31.12499999726019 ], [ -60.287177569031293, -31.12499999726019 ], [ -60.289825177405234, -31.129166663926483 ], [ -60.294692755733792, -31.129166663926483 ], [ -60.292044933601723, -31.12499999726019 ] ] ] ] } },
{ "type": "Feature", "properties": { "_uid_": 371548.0, "id": 6926399.0, "initialdat": "2006-09-04", "finaldate": "2006-09-04", "area_ha": 21.446616960048676 }, "geometry": { "type": "MultiPolygon", "coordinates": [ [ [ [ -60.253531000158098, -31.133333330592784 ], [ -60.248663208026876, -31.133333330592784 ], [ -60.251309994734214, -31.137499997259084 ], [ -60.25617800071263, -31.137499997259084 ], [ -60.253531000158098, -31.133333330592784 ] ] ] ] } },
{ "type": "Feature", "properties": { "_uid_": 371550.0, "id": 6926406.0, "initialdat": "2006-09-01", "finaldate": "2006-09-04", "area_ha": 42.893419195294378 }, "geometry": { "type": "MultiPolygon", "coordinates": [ [ [ [ -60.252164931237999, -31.154166663924268 ], [ -60.247296069425367, -31.154166663924268 ], [ -60.242427207612728, -31.154166663924268 ], [ -60.245075895193665, -31.158333330590569 ], [ -60.249944971076253, -31.158333330590569 ], [ -60.254814046958849, -31.158333330590569 ], [ -60.252164931237999, -31.154166663924268 ] ] ] ] } },
{ "type": "Feature", "properties": { "_uid_": 371551.0, "id": 6926409.0, "initialdat": "2006-09-01", "finaldate": "2006-09-01", "area_ha": 21.446765292489527 }, "geometry": { "type": "MultiPolygon", "coordinates": [ [ [ [ -60.284461454213918, -31.166666663923163 ], [ -60.279591950057664, -31.166666663923163 ], [ -60.282243577827153, -31.17083333058946 ], [ -60.287113296187108, -31.17083333058946 ], [ -60.284461454213918, -31.166666663923163 ] ] ] ] } },
{ "type": "Feature", "properties": { "_uid_": 371552.0, "id": 6926410.0, "initialdat": "2006-09-01", "finaldate": "2006-09-04", "area_ha": 85.787246111691005 }, "geometry": { "type": "MultiPolygon", "coordinates": [ [ [ [ -60.30437548815442, -31.17499999725576 ], [ -60.299505555546141, -31.17499999725576 ], [ -60.294635622937875, -31.17499999725576 ], [ -60.297288783643516, -31.179166663922061 ], [ -60.302158930544714, -31.179166663922061 ], [ -60.307029077445918, -31.179166663922061 ], [ -60.30437548815442, -31.17499999725576 ] ] ], [ [ [ -60.297288783643516, -31.179166663922061 ], [ -60.292418636742298, -31.179166663922061 ], [ -60.287548489841107, -31.179166663922061 ], [ -60.290201774287482, -31.183333330588354 ], [ -60.295072135526226, -31.183333330588354 ], [ -60.299942496764984, -31.183333330588354 ], [ -60.297288783643516, -31.179166663922061 ] ] ] ] } },
{ "type": "Feature", "properties": { "_uid_": 371553.0, "id": 6926411.0, "initialdat": "2006-09-11", "finaldate": "2006-09-11", "area_ha": 64.339874561321736 }, "geometry": { "type": "MultiPolygon", "coordinates": [ [ [ [ -60.336249958853131, -31.179166663922061 ], [ -60.33137981195194, -31.179166663922061 ], [ -60.336690791749675, -31.187499997254655 ], [ -60.341561367370595, -31.187499997254655 ], [ -60.346431942991508, -31.187499997254655 ], [ -60.343775747913696, -31.183333330588354 ], [ -60.338905386674938, -31.183333330588354 ], [ -60.336249958853131, -31.179166663922061 ] ] ] ] } },
{ "type": "Feature", "properties": { "_uid_": 371554.0, "id": 6926412.0, "initialdat": "2006-09-06", "finaldate": "2006-09-06", "area_ha": 21.446839325618743 }, "geometry": { "type": "MultiPolygon", "coordinates": [ [ [ [ -60.334035025436208, -31.183333330588354 ], [ -60.329164664197449, -31.183333330588354 ], [ -60.331820216128762, -31.187499997254655 ], [ -60.336690791749675, -31.187499997254655 ], [ -60.334035025436208, -31.183333330588354 ] ] ] ] } },
{ "type": "Feature", "properties": { "_uid_": 371555.0, "id": 6926413.0, "initialdat": "2006-09-13", "finaldate": "2006-09-13", "area_ha": 21.446876318323611 }, "geometry": { "type": "MultiPolygon", "coordinates": [ [ [ [ -60.261414470229973, -31.191666663920952 ], [ -60.256543680182254, -31.191666663920952 ], [ -60.259196906442902, -31.195833330587245 ], [ -60.264067910962062, -31.195833330587245 ], [ -60.261414470229973, -31.191666663920952 ] ] ] ] } },
{ "type": "Feature", "properties": { "_uid_": 371556.0, "id": 6926414.0, "initialdat": "2006-09-11", "finaldate": "2006-09-11", "area_ha": 42.893789885342123 }, "geometry": { "type": "MultiPolygon", "coordinates": [ [ [ [ -60.30790695163455, -31.195833330587245 ], [ -60.298164942596216, -31.195833330587245 ], [ -60.300820437359178, -31.199999997253546 ], [ -60.31056287542971, -31.199999997253546 ], [ -60.30790695163455, -31.195833330587245 ] ] ] ] } },
{ "type": "Feature", "properties": { "_uid_": 371557.0, "id": 6926415.0, "initialdat": "2006-09-01", "finaldate": "2006-09-01", "area_ha": 21.4468950630188 }, "geometry": { "type": "MultiPolygon", "coordinates": [ [ [ [ -60.298164942596216, -31.195833330587245 ], [ -60.293293938077042, -31.195833330587245 ], [ -60.295949218323912, -31.199999997253546 ], [ -60.300820437359178, -31.199999997253546 ], [ -60.298164942596216, -31.195833330587245 ] ] ] ] } },
{ "type": "Feature", "properties": { "_uid_": 371558.0, "id": 6926416.0, "initialdat": "2006-09-12", "finaldate": "2006-09-12", "area_ha": 42.89408663766384 }, "geometry": { "type": "MultiPolygon", "coordinates": [ [ [ [ -60.299933498063268, -31.229166663917624 ], [ -60.290188054265577, -31.229166663917624 ], [ -60.292846685275798, -31.233333330583925 ], [ -60.302592558820685, -31.233333330583925 ], [ -60.299933498063268, -31.229166663917624 ] ] ] ] } },
{ "type": "Feature", "properties": { "_uid_": 371559.0, "id": 6926419.0, "initialdat": "2006-09-11", "finaldate": "2006-09-11", "area_ha": 21.447173100233076 }, "geometry": { "type": "MultiPolygon", "coordinates": [ [ [ [ -60.338055457451873, -31.25833333058171 ], [ -60.33318123049834, -31.25833333058171 ], [ -60.335844813187315, -31.262499997248007 ], [ -60.34071925532767, -31.262499997248007 ], [ -60.338055457451873, -31.25833333058171 ] ] ] ] } },
{ "type": "Feature", "properties": { "_uid_": 371560.0, "id": 6926421.0, "initialdat": "2006-09-01", "finaldate": "2006-09-01", "area_ha": 21.447210278904439 }, "geometry": { "type": "MultiPolygon", "coordinates": [ [ [ [ -60.358007579671785, -31.266666663914307 ], [ -60.353132922299821, -31.266666663914307 ], [ -60.355798259534829, -31.270833330580601 ], [ -60.360673132183202, -31.270833330580601 ], [ -60.358007579671785, -31.266666663914307 ] ] ] ] } },
{ "type": "Feature", "properties": { "_uid_": 371561.0, "id": 6926422.0, "initialdat": "2006-09-11", "finaldate": "2006-09-11", "area_ha": 42.894457819604874 }, "geometry": { "type": "MultiPolygon", "coordinates": [ [ [ [ -60.336298768941276, -31.270833330580601 ], [ -60.326549023644503, -31.270833330580601 ], [ -60.329213623597511, -31.274999997246901 ], [ -60.338963799536685, -31.274999997246901 ], [ -60.336298768941276, -31.270833330580601 ] ] ] ] } },
{ "type": "Feature", "properties": { "_uid_": 371564.0, "id": 6926425.0, "initialdat": "2006-09-01", "finaldate": "2006-09-01", "area_ha": 21.447303231465817 }, "geometry": { "type": "MultiPolygon", "coordinates": [ [ [ [ -60.337210750731906, -31.287499997245792 ], [ -60.332335016529811, -31.287499997245792 ], [ -60.335001619504972, -31.291666663912086 ], [ -60.339877569207545, -31.291666663912086 ], [ -60.337210750731906, -31.287499997245792 ] ] ] ] } },
{ "type": "Feature", "properties": { "_uid_": 437919.0, "id": 6926301.0, "initialdat": "2006-09-16", "finaldate": "2006-09-16", "area_ha": 21.443856087327003 }, "geometry": { "type": "MultiPolygon", "coordinates": [ [ [ [ -60.13349503027311, -30.508333330648163 ], [ -60.128658815456447, -30.508333330648163 ], [ -60.131235646643582, -30.512499997314457 ], [ -60.136072068717638, -30.512499997314457 ], [ -60.13349503027311, -30.508333330648163 ] ] ] ] } },
{ "type": "Feature", "properties": { "_uid_": 437937.0, "id": 6926348.0, "initialdat": "2006-09-07", "finaldate": "2006-09-18", "area_ha": 386.02061331559418 }, "geometry": { "type": "MultiPolygon", "coordinates": [ [ [ [ -60.12897650193927, -30.920833330611615 ], [ -60.124119557149115, -30.920833330611615 ], [ -60.126738787095078, -30.924999997277908 ], [ -60.136453099848495, -30.924999997277908 ], [ -60.133833446729433, -30.920833330611615 ], [ -60.14354733630973, -30.920833330611615 ], [ -60.148404281099893, -30.920833330611615 ], [ -60.153261225890034, -30.920833330611615 ], [ -60.150641272814852, -30.916666663945314 ], [ -60.155498006062565, -30.916666663945314 ], [ -60.152878387780078, -30.912499997279014 ], [ -60.148021866030689, -30.912499997279014 ], [ -60.145403005438475, -30.90833333061272 ], [ -60.140546695143314, -30.90833333061272 ], [ -60.135690384848139, -30.90833333061272 ], [ -60.121121453962651, -30.90833333061272 ], [ -60.123739257283731, -30.912499997279014 ], [ -60.126357606576278, -30.916666663945314 ], [ -60.12897650193927, -30.920833330611615 ] ] ] ] } },
{ "type": "Feature", "properties": { "_uid_": 437939.0, "id": 6926360.0, "initialdat": "2006-09-13", "finaldate": "2006-09-18", "area_ha": 150.12066268209219 }, "geometry": { "type": "MultiPolygon", "coordinates": [ [ [ [ -60.266554664518246, -30.95416666394199 ], [ -60.269183565531442, -30.958333330608291 ], [ -60.274042416189758, -30.958333330608291 ], [ -60.278901266848067, -30.958333330608291 ], [ -60.283760117506368, -30.958333330608291 ], [ -60.281130580673839, -30.95416666394199 ], [ -60.278501591997284, -30.949999997275697 ], [ -60.273643165174356, -30.949999997275697 ], [ -60.271014936405713, -30.9458333306094 ], [ -60.266156721434207, -30.9458333306094 ], [ -60.268784738351421, -30.949999997275697 ], [ -60.263926311528493, -30.949999997275697 ], [ -60.266554664518246, -30.95416666394199 ] ] ] ] } },
{ "type": "Feature", "properties": { "_uid_": 437942.0, "id": 6926367.0, "initialdat": "2006-09-16", "finaldate": "2006-09-16", "area_ha": 21.446080640685562 }, "geometry": { "type": "MultiPolygon", "coordinates": [ [ [ [ -60.162422507075952, -31.012499997270154 ], [ -60.157560897176381, -31.012499997270154 ], [ -60.160191104207406, -31.016666663936455 ], [ -60.165052926666142, -31.016666663936455 ], [ -60.162422507075952, -31.012499997270154 ] ] ] ] } },
{ "type": "Feature", "properties": { "_uid_": 437946.0, "id": 6926379.0, "initialdat": "2006-09-11", "finaldate": "2006-09-15", "area_ha": 128.67867516885997 }, "geometry": { "type": "MultiPolygon", "coordinates": [ [ [ [ -60.287280339453005, -31.079166663930916 ], [ -60.282415323286159, -31.079166663930916 ], [ -60.279773258092824, -31.074999997264616 ], [ -60.274908455150516, -31.074999997264616 ], [ -60.277550307119306, -31.079166663930916 ], [ -60.280192709488816, -31.083333330597213 ], [ -60.285057938924616, -31.083333330597213 ], [ -60.294788397796218, -31.083333330597213 ], [ -60.292145355619851, -31.079166663930916 ], [ -60.297010371786705, -31.079166663930916 ], [ -60.294367666919783, -31.074999997264616 ], [ -60.289502863977454, -31.074999997264616 ], [ -60.284638061035146, -31.074999997264616 ], [ -60.287280339453005, -31.079166663930916 ] ] ] ] } },
{ "type": "Feature", "properties": { "_uid_": 437947.0, "id": 6926392.0, "initialdat": "2006-09-13", "finaldate": "2006-09-18", "area_ha": 193.01760302462577 }, "geometry": { "type": "MultiPolygon", "coordinates": [ [ [ [ -60.296484817730068, -31.116666663927592 ], [ -60.291617880542411, -31.116666663927592 ], [ -60.29426481369903, -31.120833330593893 ], [ -60.299131964555812, -31.120833330593893 ], [ -60.296484817730068, -31.116666663927592 ] ] ], [ [ [ -60.291617880542411, -31.116666663927592 ], [ -60.288971498601668, -31.112499997261299 ], [ -60.286325667776232, -31.108333330594999 ], [ -60.276592647810467, -31.108333330594999 ], [ -60.279238051475616, -31.112499997261299 ], [ -60.27437132791259, -31.112499997261299 ], [ -60.279663361128669, -31.120833330593893 ], [ -60.284530511985452, -31.120833330593893 ], [ -60.289397662842248, -31.120833330593893 ], [ -60.286750943354761, -31.116666663927592 ], [ -60.291617880542411, -31.116666663927592 ] ] ], [ [ [ -60.286325667776232, -31.108333330594999 ], [ -60.291192177759108, -31.108333330594999 ], [ -60.288546684412793, -31.104166663928705 ], [ -60.283680387965589, -31.104166663928705 ], [ -60.286325667776232, -31.108333330594999 ] ] ] ] } },
{ "type": "Feature", "properties": { "_uid_": 437951.0, "id": 6926395.0, "initialdat": "2006-09-11", "finaldate": "2006-09-18", "area_ha": 171.57208886090518 }, "geometry": { "type": "MultiPolygon", "coordinates": [ [ [ [ -60.253531000158098, -31.133333330592784 ], [ -60.250884550776746, -31.129166663926483 ], [ -60.246016972448182, -31.129166663926483 ], [ -60.248663208026876, -31.133333330592784 ], [ -60.253531000158098, -31.133333330592784 ] ] ], [ [ [ -60.253531000158098, -31.133333330592784 ], [ -60.25839879228932, -31.133333330592784 ], [ -60.263266584420542, -31.133333330592784 ], [ -60.260619707433868, -31.129166663926483 ], [ -60.265487285762426, -31.129166663926483 ], [ -60.262840746179222, -31.12499999726019 ], [ -60.257973381608792, -31.12499999726019 ], [ -60.255327606844745, -31.120833330593893 ], [ -60.250460455987977, -31.120833330593893 ], [ -60.253106017038391, -31.12499999726019 ], [ -60.248238652467968, -31.12499999726019 ], [ -60.253531000158098, -31.133333330592784 ] ] ], [ [ [ -60.248663208026876, -31.133333330592784 ], [ -60.24379541589564, -31.133333330592784 ], [ -60.246441988755791, -31.137499997259084 ], [ -60.251309994734214, -31.137499997259084 ], [ -60.248663208026876, -31.133333330592784 ] ] ] ] } },
{ "type": "Feature", "properties": { "_uid_": 437953.0, "id": 6926397.0, "initialdat": "2006-09-18", "finaldate": "2006-09-18", "area_ha": 21.446580020785333 }, "geometry": { "type": "MultiPolygon", "coordinates": [ [ [ [ -60.321249121024216, -31.12499999726019 ], [ -60.316381756453801, -31.12499999726019 ], [ -60.319030647376593, -31.129166663926483 ], [ -60.323898225705157, -31.129166663926483 ], [ -60.321249121024216, -31.12499999726019 ] ] ] ] } },
{ "type": "Feature", "properties": { "_uid_": 437956.0, "id": 6926403.0, "initialdat": "2006-09-11", "finaldate": "2006-09-17", "area_ha": 150.12485438735484 }, "geometry": { "type": "MultiPolygon", "coordinates": [ [ [ [ -60.251736788130991, -31.145833330591678 ], [ -60.246868354324583, -31.145833330591678 ], [ -60.254814046958849, -31.158333330590569 ], [ -60.259683122841444, -31.158333330590569 ], [ -60.257034068844426, -31.154166663924268 ], [ -60.261902654863277, -31.154166663924268 ], [ -60.259253662634663, -31.149999997257975 ], [ -60.25660522193742, -31.145833330591678 ], [ -60.261473655743842, -31.145833330591678 ], [ -60.258825552540976, -31.141666663925378 ], [ -60.253957332670829, -31.141666663925378 ], [ -60.249089112800689, -31.141666663925378 ], [ -60.251736788130991, -31.145833330591678 ] ] ] ] } },
{ "type": "Feature", "properties": { "_uid_": 437957.0, "id": 6926404.0, "initialdat": "2006-09-11", "finaldate": "2006-09-15", "area_ha": 64.340036318659784 }, "geometry": { "type": "MultiPolygon", "coordinates": [ [ [ [ -60.395575800677641, -31.149999997257975 ], [ -60.398230785617116, -31.154166663924268 ], [ -60.403099647429755, -31.154166663924268 ], [ -60.400444448464889, -31.149999997257975 ], [ -60.405313096252137, -31.149999997257975 ], [ -60.40265823613008, -31.145833330591678 ], [ -60.397789802323651, -31.145833330591678 ], [ -60.392921368517243, -31.145833330591678 ], [ -60.395575800677641, -31.149999997257975 ] ] ] ] } },
{ "type": "Feature", "properties": { "_uid_": 437958.0, "id": 6926405.0, "initialdat": "2006-09-26", "finaldate": "2006-09-26", "area_ha": 21.446691010570525 }, "geometry": { "type": "MultiPolygon", "coordinates": [ [ [ [ -60.264122310421911, -31.149999997257975 ], [ -60.259253662634663, -31.149999997257975 ], [ -60.261902654863277, -31.154166663924268 ], [ -60.266771516675902, -31.154166663924268 ], [ -60.264122310421911, -31.149999997257975 ] ] ] ] } },
{ "type": "Feature", "properties": { "_uid_": 437960.0, "id": 6926408.0, "initialdat": "2006-09-16", "finaldate": "2006-09-18", "area_ha": 128.68070414602755 }, "geometry": { "type": "MultiPolygon", "coordinates": [ [ [ [ -60.287113296187108, -31.17083333058946 ], [ -60.282243577827153, -31.17083333058946 ], [ -60.287548489841107, -31.179166663922061 ], [ -60.292418636742298, -31.179166663922061 ], [ -60.297288783643516, -31.179166663922061 ], [ -60.294635899095297, -31.17499999725576 ], [ -60.299505555546141, -31.17499999725576 ], [ -60.296852732907034, -31.17083333058946 ], [ -60.291983014547078, -31.17083333058946 ], [ -60.289330958370172, -31.166666663923163 ], [ -60.284461454213918, -31.166666663923163 ], [ -60.287113296187108, -31.17083333058946 ] ] ] ] } },
{ "type": "Feature", "properties": { "_uid_": 437961.0, "id": 6926417.0, "initialdat": "2006-09-15", "finaldate": "2006-09-15", "area_ha": 42.894253258109096 }, "geometry": { "type": "MultiPolygon", "coordinates": [ [ [ [ -60.344688133907894, -31.245833330582816 ], [ -60.339814552246288, -31.245833330582816 ], [ -60.34247711777941, -31.249999997249109 ], [ -60.347350914493553, -31.249999997249109 ], [ -60.344688133907894, -31.245833330582816 ] ] ], [ [ [ -60.34247711777941, -31.249999997249109 ], [ -60.337603321065252, -31.249999997249109 ], [ -60.340266225638317, -31.254166663915417 ], [ -60.345140237449783, -31.254166663915417 ], [ -60.34247711777941, -31.249999997249109 ] ] ] ] } },
{ "type": "Feature", "properties": { "_uid_": 437963.0, "id": 6926420.0, "initialdat": "2006-09-06", "finaldate": "2006-09-15", "area_ha": 278.81316559662821 }, "geometry": { "type": "MultiPolygon", "coordinates": [ [ [ [ -60.353589063445469, -31.274999997246901 ], [ -60.35846415141507, -31.274999997246901 ], [ -60.355798259534829, -31.270833330580601 ], [ -60.353132922299821, -31.266666663914307 ], [ -60.350468139608388, -31.262499997248007 ], [ -60.345593697468026, -31.262499997248007 ], [ -60.342929684405384, -31.25833333058171 ], [ -60.338055457451873, -31.25833333058171 ], [ -60.34071925532767, -31.262499997248007 ], [ -60.330970371046966, -31.262499997248007 ], [ -60.333634292811908, -31.266666663914307 ], [ -60.32875963543993, -31.266666663914307 ], [ -60.331423896292883, -31.270833330580601 ], [ -60.336298768941276, -31.270833330580601 ], [ -60.341173641589656, -31.270833330580601 ], [ -60.338508950183886, -31.266666663914307 ], [ -60.343383607555857, -31.266666663914307 ], [ -60.346048514238042, -31.270833330580601 ], [ -60.348713975475881, -31.274999997246901 ], [ -60.353589063445469, -31.274999997246901 ] ] ], [ [ [ -60.360217023889099, -31.262499997248007 ], [ -60.355342581748744, -31.262499997248007 ], [ -60.360673132183202, -31.270833330580601 ], [ -60.365548004831595, -31.270833330580601 ], [ -60.360217023889099, -31.262499997248007 ] ] ] ] } },
{ "type": "Feature", "properties": { "_uid_": 619678.0, "id": 7153072.0, "initialdat": "2006-11-14", "finaldate": "2006-11-16", "area_ha": 85.787585588979724 }, "geometry": { "type": "MultiPolygon", "coordinates": [ [ [ [ -60.263266584420542, -31.133333330592784 ], [ -60.25839879228932, -31.133333330592784 ], [ -60.261046006691053, -31.137499997259084 ], [ -60.25617800071263, -31.137499997259084 ], [ -60.258825552540976, -31.141666663925378 ], [ -60.268561992281271, -31.141666663925378 ], [ -60.265914288350906, -31.137499997259084 ], [ -60.270782018647893, -31.137499997259084 ], [ -60.268134376551778, -31.133333330592784 ], [ -60.263266584420542, -31.133333330592784 ] ] ] ] } },
{ "type": "Feature", "properties": { "_uid_": 762306.0, "id": 6124063.0, "initialdat": "2006-01-09", "finaldate": "2006-01-12", "area_ha": 300.21088969902991 }, "geometry": { "type": "MultiPolygon", "coordinates": [ [ [ [ -60.059412820363413, -30.466666663985187 ], [ -60.054578675738448, -30.466666663985187 ], [ -60.057148054963406, -30.47083333065148 ], [ -60.052313703514066, -30.47083333065148 ], [ -60.054883413377013, -30.474999997317781 ], [ -60.069387088327943, -30.474999997317781 ], [ -60.074221646644922, -30.474999997317781 ], [ -60.071651109311411, -30.47083333065148 ], [ -60.076485460760743, -30.47083333065148 ], [ -60.073915254238287, -30.466666663985187 ], [ -60.078749398863252, -30.466666663985187 ], [ -60.076179523142173, -30.46249999731889 ], [ -60.081013460986007, -30.46249999731889 ], [ -60.078443916056656, -30.458333330652589 ], [ -60.068776453844706, -30.458333330652589 ], [ -60.071345585298324, -30.46249999731889 ], [ -60.0568437717668, -30.46249999731889 ], [ -60.059412820363413, -30.466666663985187 ] ] ] ] } },
{ "type": "Feature", "properties": { "_uid_": 762307.0, "id": 6124066.0, "initialdat": "2006-01-02", "finaldate": "2006-01-02", "area_ha": 21.446783788228036 }, "geometry": { "type": "MultiPolygon", "coordinates": [ [ [ [ -60.238416112587494, -31.17083333058946 ], [ -60.233546394227524, -31.17083333058946 ], [ -60.23619643163854, -31.17499999725576 ], [ -60.241066364246812, -31.17499999725576 ], [ -60.238416112587494, -31.17083333058946 ] ] ] ] } },
{ "type": "Feature", "properties": { "_uid_": 812852.0, "id": 6124067.0, "initialdat": "2006-01-24", "finaldate": "2006-01-24", "area_ha": 21.447637549197673 }, "geometry": { "type": "MultiPolygon", "coordinates": [ [ [ [ -60.443853904804932, -31.362499997239148 ], [ -60.438974284727031, -31.362499997239148 ], [ -60.441653486132161, -31.366666663905441 ], [ -60.446533322518931, -31.366666663905441 ], [ -60.443853904804932, -31.362499997239148 ] ] ] ] } },
{ "type": "Feature", "properties": { "_uid_": 877952.0, "id": 6221696.0, "initialdat": "2006-02-20", "finaldate": "2006-02-24", "area_ha": 278.81210271892547 }, "geometry": { "type": "MultiPolygon", "coordinates": [ [ [ [ -60.374471155944065, -31.299999997244687 ], [ -60.371801934055576, -31.295833330578386 ], [ -60.369133267422988, -31.291666663912086 ], [ -60.364257317720401, -31.291666663912086 ], [ -60.366925768807661, -31.295833330578386 ], [ -60.369594775105995, -31.299999997244687 ], [ -60.374471155944065, -31.299999997244687 ] ] ], [ [ [ -60.374471155944065, -31.299999997244687 ], [ -60.37934753678212, -31.299999997244687 ], [ -60.38422391762019, -31.299999997244687 ], [ -60.381554264551362, -31.295833330578386 ], [ -60.386430429799262, -31.295833330578386 ], [ -60.383761116530714, -31.291666663912086 ], [ -60.381092358550724, -31.287499997245792 ], [ -60.385968092752819, -31.287499997245792 ], [ -60.383299674503895, -31.283333330579492 ], [ -60.378424155757465, -31.283333330579492 ], [ -60.368673118264581, -31.283333330579492 ], [ -60.371340890146534, -31.287499997245792 ], [ -60.366465155944454, -31.287499997245792 ], [ -60.374471155944065, -31.299999997244687 ] ] ] ] } },
{ "type": "Feature", "properties": { "_uid_": 948387.0, "id": 6288472.0, "initialdat": "2006-03-28", "finaldate": "2006-03-28", "area_ha": 21.447804864275454 }, "geometry": { "type": "MultiPolygon", "coordinates": [ [ [ [ -60.424054617980929, -31.399999997235824 ], [ -60.419173049503136, -31.399999997235824 ], [ -60.421855319128071, -31.404166663902124 ], [ -60.426737104319898, -31.404166663902124 ], [ -60.424054617980929, -31.399999997235824 ] ] ] ] } }
]
}
