{
"type": "FeatureCollection",
"name": "2007",
"crs": { "type": "name", "properties": { "name": "urn:ogc:def:crs:OGC:1.3:CRS84" } },
"features": [
{ "type": "Feature", "properties": { "_uid_": 2652.0, "id": 7365588.0, "initialdat": "2007-01-01", "finaldate": "2007-01-01", "area_ha": 21.444515422046184 }, "geometry": { "type": "MultiPolygon", "coordinates": [ [ [ [ -60.21207753093703, -30.658333330634875 ], [ -60.207233827491535, -30.658333330634875 ], [ -60.209829493738575, -30.662499997301168 ], [ -60.214673406006789, -30.662499997301168 ], [ -60.21207753093703, -30.658333330634875 ] ] ] ] } },
{ "type": "Feature", "properties": { "_uid_": 2653.0, "id": 7365589.0, "initialdat": "2007-01-01", "finaldate": "2007-01-06", "area_ha": 128.66752021770478 }, "geometry": { "type": "MultiPolygon", "coordinates": [ [ [ [ -60.210528086375874, -30.67916666396636 ], [ -60.207930668472102, -30.674999997300059 ], [ -60.203086129473995, -30.674999997300059 ], [ -60.205683338380496, -30.67916666396636 ], [ -60.208281089813028, -30.68333333063266 ], [ -60.213126046849318, -30.68333333063266 ], [ -60.210528086375874, -30.67916666396636 ] ] ], [ [ [ -60.210528086375874, -30.67916666396636 ], [ -60.215372834371244, -30.67916666396636 ], [ -60.212775478728041, -30.674999997300059 ], [ -60.217619746468351, -30.674999997300059 ], [ -60.215022453129357, -30.670833330633766 ], [ -60.210178123084845, -30.670833330633766 ], [ -60.205333793040332, -30.670833330633766 ], [ -60.210528086375874, -30.67916666396636 ] ] ], [ [ [ -60.208281089813028, -30.68333333063266 ], [ -60.203436132776737, -30.68333333063266 ], [ -60.206034217748417, -30.68749999729895 ], [ -60.210879383869283, -30.68749999729895 ], [ -60.208281089813028, -30.68333333063266 ] ] ] ] } },
{ "type": "Feature", "properties": { "_uid_": 2654.0, "id": 7365590.0, "initialdat": "2007-01-01", "finaldate": "2007-01-07", "area_ha": 128.66960958683489 }, "geometry": { "type": "MultiPolygon", "coordinates": [ [ [ [ -60.252160628830083, -30.745833330627121 ], [ -60.247312530935893, -30.745833330627121 ], [ -60.249918976093412, -30.749999997293415 ], [ -60.2547672837281, -30.749999997293415 ], [ -60.252160628830083, -30.745833330627121 ] ] ], [ [ [ -60.249918976093412, -30.749999997293415 ], [ -60.24507066845873, -30.749999997293415 ], [ -60.247677448023104, -30.754166663959712 ], [ -60.242828930604119, -30.754166663959712 ], [ -60.245436044585972, -30.758333330626012 ], [ -60.240587317338914, -30.758333330626012 ], [ -60.243194765748861, -30.762499997292306 ], [ -60.248043702867818, -30.762499997292306 ], [ -60.252892639986761, -30.762499997292306 ], [ -60.250284771833037, -30.758333330626012 ], [ -60.255133499080095, -30.758333330626012 ], [ -60.252525965442068, -30.754166663959712 ], [ -60.249918976093412, -30.749999997293415 ] ] ] ] } },
{ "type": "Feature", "properties": { "_uid_": 2657.0, "id": 7365592.0, "initialdat": "2007-01-06", "finaldate": "2007-01-07", "area_ha": 300.23557613804348 }, "geometry": { "type": "MultiPolygon", "coordinates": [ [ [ [ -60.257734489365106, -30.816666663954177 ], [ -60.252882819921517, -30.816666663954177 ], [ -60.248031150477914, -30.816666663954177 ], [ -60.250644965889094, -30.820833330620474 ], [ -60.255496845818719, -30.820833330620474 ], [ -60.260348725748322, -30.820833330620474 ], [ -60.257734489365106, -30.816666663954177 ] ] ], [ [ [ -60.250644965889094, -30.820833330620474 ], [ -60.240941206029845, -30.820833330620474 ], [ -60.243555145850792, -30.824999997286767 ], [ -60.238703055391234, -30.824999997286767 ], [ -60.241317330118747, -30.829166663953067 ], [ -60.243932150381468, -30.833333330619368 ], [ -60.239079638730189, -30.833333330619368 ], [ -60.241694793965017, -30.837499997285661 ], [ -60.244310494888516, -30.841666663951958 ], [ -60.239457561869749, -30.841666663951958 ], [ -60.242073597830974, -30.845833330618259 ], [ -60.25177988536791, -30.845833330618259 ], [ -60.246547516278071, -30.837499997285661 ], [ -60.25140023859111, -30.837499997285661 ], [ -60.248784662032733, -30.833333330619368 ], [ -60.253637173684005, -30.833333330619368 ], [ -60.251022204997184, -30.829166663953067 ], [ -60.255874233219096, -30.829166663953067 ], [ -60.250644965889094, -30.820833330620474 ] ] ] ] } },
{ "type": "Feature", "properties": { "_uid_": 2658.0, "id": 7365593.0, "initialdat": "2007-01-13", "finaldate": "2007-01-13", "area_ha": 21.445232309412955 }, "geometry": { "type": "MultiPolygon", "coordinates": [ [ [ [ -60.255496845818719, -30.820833330620474 ], [ -60.250644965889094, -30.820833330620474 ], [ -60.253259326769935, -30.824999997286767 ], [ -60.258111417229493, -30.824999997286767 ], [ -60.255496845818719, -30.820833330620474 ] ] ] ] } },
{ "type": "Feature", "properties": { "_uid_": 2660.0, "id": 7365595.0, "initialdat": "2007-01-07", "finaldate": "2007-01-07", "area_ha": 21.445600813734533 }, "geometry": { "type": "MultiPolygon", "coordinates": [ [ [ [ -60.28846765749001, -30.904166663946423 ], [ -60.283611558604974, -30.904166663946423 ], [ -60.286236003998162, -30.90833333061272 ], [ -60.291092314293337, -30.90833333061272 ], [ -60.28846765749001, -30.904166663946423 ] ] ] ] } },
{ "type": "Feature", "properties": { "_uid_": 2661.0, "id": 7365596.0, "initialdat": "2007-01-12", "finaldate": "2007-01-12", "area_ha": 21.445619117939472 }, "geometry": { "type": "MultiPolygon", "coordinates": [ [ [ [ -60.286236003998162, -30.90833333061272 ], [ -60.281379693703009, -30.90833333061272 ], [ -60.284004475013575, -30.912499997279014 ], [ -60.288860996762949, -30.912499997279014 ], [ -60.286236003998162, -30.90833333061272 ] ] ] ] } },
{ "type": "Feature", "properties": { "_uid_": 2662.0, "id": 7365597.0, "initialdat": "2007-01-07", "finaldate": "2007-01-07", "area_ha": 21.445692895829676 }, "geometry": { "type": "MultiPolygon", "coordinates": [ [ [ [ -60.296739260279786, -30.924999997277908 ], [ -60.291882103903085, -30.924999997277908 ], [ -60.294509075516608, -30.929166663944205 ], [ -60.299366443523986, -30.929166663944205 ], [ -60.296739260279786, -30.924999997277908 ] ] ] ] } },
{ "type": "Feature", "properties": { "_uid_": 2663.0, "id": 7365598.0, "initialdat": "2007-01-12", "finaldate": "2007-01-12", "area_ha": 42.891404511642456 }, "geometry": { "type": "MultiPolygon", "coordinates": [ [ [ [ -60.291882103903085, -30.924999997277908 ], [ -60.287024947526376, -30.924999997277908 ], [ -60.292279015272065, -30.933333330610505 ], [ -60.297136594954253, -30.933333330610505 ], [ -60.291882103903085, -30.924999997277908 ] ] ] ] } },
{ "type": "Feature", "properties": { "_uid_": 2664.0, "id": 7365599.0, "initialdat": "2007-01-07", "finaldate": "2007-01-07", "area_ha": 21.445803793966771 }, "geometry": { "type": "MultiPolygon", "coordinates": [ [ [ [ -60.29793529928903, -30.949999997275697 ], [ -60.293076872466088, -30.949999997275697 ], [ -60.295706496829432, -30.95416666394199 ], [ -60.300565135547963, -30.95416666394199 ], [ -60.29793529928903, -30.949999997275697 ] ] ] ] } },
{ "type": "Feature", "properties": { "_uid_": 2665.0, "id": 7365600.0, "initialdat": "2007-01-09", "finaldate": "2007-01-09", "area_ha": 21.445877556204795 }, "geometry": { "type": "MultiPolygon", "coordinates": [ [ [ [ -60.342472857412538, -30.966666663940885 ], [ -60.33761358274208, -30.966666663940885 ], [ -60.340246885363726, -30.970833330607185 ], [ -60.345106372106535, -30.970833330607185 ], [ -60.342472857412538, -30.966666663940885 ] ] ] ] } },
{ "type": "Feature", "properties": { "_uid_": 2666.0, "id": 7365601.0, "initialdat": "2007-01-11", "finaldate": "2007-01-12", "area_ha": 42.891884281313416 }, "geometry": { "type": "MultiPolygon", "coordinates": [ [ [ [ -60.348150087606804, -30.983333330606076 ], [ -60.343289964381562, -30.983333330606076 ], [ -60.345925251338635, -30.987499997272369 ], [ -60.350785586813153, -30.987499997272369 ], [ -60.348150087606804, -30.983333330606076 ] ] ], [ [ [ -60.35523495973672, -30.979166663939775 ], [ -60.350375048716522, -30.979166663939775 ], [ -60.353010210832032, -30.983333330606076 ], [ -60.357870334057267, -30.983333330606076 ], [ -60.35523495973672, -30.979166663939775 ] ] ] ] } },
{ "type": "Feature", "properties": { "_uid_": 2667.0, "id": 7365602.0, "initialdat": "2007-01-01", "finaldate": "2007-01-07", "area_ha": 150.12113374708892 }, "geometry": { "type": "MultiPolygon", "coordinates": [ [ [ [ -60.307042567542574, -30.987499997272369 ], [ -60.309676705502987, -30.99166666393867 ], [ -60.31453725327102, -30.99166666393867 ], [ -60.311902903017085, -30.987499997272369 ], [ -60.316763238491589, -30.987499997272369 ], [ -60.314129225030136, -30.983333330606076 ], [ -60.318989348255379, -30.983333330606076 ], [ -60.316355671575103, -30.979166663939775 ], [ -60.311495760554905, -30.979166663939775 ], [ -60.306635849534707, -30.979166663939775 ], [ -60.296916027494298, -30.979166663939775 ], [ -60.299548855354445, -30.983333330606076 ], [ -60.304408978579673, -30.983333330606076 ], [ -60.307042567542574, -30.987499997272369 ] ] ] ] } },
{ "type": "Feature", "properties": { "_uid_": 2668.0, "id": 7365603.0, "initialdat": "2007-01-12", "finaldate": "2007-01-12", "area_ha": 42.891921157836912 }, "geometry": { "type": "MultiPolygon", "coordinates": [ [ [ [ -60.318989348255379, -30.983333330606076 ], [ -60.314129225030136, -30.983333330606076 ], [ -60.316763238491589, -30.987499997272369 ], [ -60.3216235739661, -30.987499997272369 ], [ -60.318989348255379, -30.983333330606076 ] ] ], [ [ [ -60.316763238491589, -30.987499997272369 ], [ -60.311902903017085, -30.987499997272369 ], [ -60.31453725327102, -30.99166666393867 ], [ -60.319397801039038, -30.99166666393867 ], [ -60.316763238491589, -30.987499997272369 ] ] ] ] } },
{ "type": "Feature", "properties": { "_uid_": 2669.0, "id": 7365604.0, "initialdat": "2007-01-09", "finaldate": "2007-01-13", "area_ha": 64.338001809442048 }, "geometry": { "type": "MultiPolygon", "coordinates": [ [ [ [ -60.329118896575082, -30.99166666393867 ], [ -60.324258348807064, -30.99166666393867 ], [ -60.3268936728781, -30.995833330604967 ], [ -60.331754432983885, -30.995833330604967 ], [ -60.329118896575082, -30.99166666393867 ] ] ], [ [ [ -60.3268936728781, -30.995833330604967 ], [ -60.322032912772293, -30.995833330604967 ], [ -60.317172152666515, -30.995833330604967 ], [ -60.319807601303403, -30.99999999727126 ], [ -60.324668573791222, -30.99999999727126 ], [ -60.329529546279055, -30.99999999727126 ], [ -60.3268936728781, -30.995833330604967 ] ] ] ] } },
{ "type": "Feature", "properties": { "_uid_": 2670.0, "id": 7365605.0, "initialdat": "2007-01-11", "finaldate": "2007-01-12", "area_ha": 42.892087427282334 }, "geometry": { "type": "MultiPolygon", "coordinates": [ [ [ [ -60.337027154023986, -31.004166663937561 ], [ -60.332165969109859, -31.004166663937561 ], [ -60.327304784195718, -31.004166663937561 ], [ -60.329941544085663, -31.008333330603861 ], [ -60.334802941470386, -31.008333330603861 ], [ -60.33966433885508, -31.008333330603861 ], [ -60.337027154023986, -31.004166663937561 ] ] ] ] } },
{ "type": "Feature", "properties": { "_uid_": 2671.0, "id": 7365606.0, "initialdat": "2007-01-07", "finaldate": "2007-01-11", "area_ha": 171.57110633268357 }, "geometry": { "type": "MultiPolygon", "coordinates": [ [ [ [ -60.32229471499592, -31.049999997266838 ], [ -60.324936035121901, -31.054166663933131 ], [ -60.339527247579035, -31.054166663933131 ], [ -60.336885288578557, -31.049999997266838 ], [ -60.334243879987127, -31.045833330600537 ], [ -60.329380568373381, -31.045833330600537 ], [ -60.326739922960272, -31.041666663934237 ], [ -60.321876824215963, -31.041666663934237 ], [ -60.317013725471661, -31.041666663934237 ], [ -60.32229471499592, -31.049999997266838 ] ] ] ] } },
{ "type": "Feature", "properties": { "_uid_": 2672.0, "id": 7365607.0, "initialdat": "2007-01-07", "finaldate": "2007-01-07", "area_ha": 21.446283957350254 }, "geometry": { "type": "MultiPolygon", "coordinates": [ [ [ [ -60.342169757088868, -31.058333330599432 ], [ -60.337305806600618, -31.058333330599432 ], [ -60.339948653673133, -31.062499997265729 ], [ -60.344812817208307, -31.062499997265729 ], [ -60.342169757088868, -31.058333330599432 ] ] ] ] } },
{ "type": "Feature", "properties": { "_uid_": 2673.0, "id": 7365608.0, "initialdat": "2007-01-09", "finaldate": "2007-01-12", "area_ha": 107.23129911073447 }, "geometry": { "type": "MultiPolygon", "coordinates": [ [ [ [ -60.350525549622049, -31.079166663930916 ], [ -60.353171151025897, -31.083333330597213 ], [ -60.358036380461698, -31.083333330597213 ], [ -60.355390565788902, -31.079166663930916 ], [ -60.360255581955748, -31.079166663930916 ], [ -60.35761010516989, -31.074999997264616 ], [ -60.362474908112198, -31.074999997264616 ], [ -60.359829769201689, -31.070833330598322 ], [ -60.350100589677297, -31.070833330598322 ], [ -60.352745302227568, -31.074999997264616 ], [ -60.347880499285253, -31.074999997264616 ], [ -60.350525549622049, -31.079166663930916 ] ] ] ] } },
{ "type": "Feature", "properties": { "_uid_": 2674.0, "id": 7365609.0, "initialdat": "2007-01-10", "finaldate": "2007-01-12", "area_ha": 85.785764893388759 }, "geometry": { "type": "MultiPolygon", "coordinates": [ [ [ [ -60.370413631844833, -31.087499997263507 ], [ -60.365548189095655, -31.087499997263507 ], [ -60.368195319650695, -31.091666663929807 ], [ -60.373060975757703, -31.091666663929807 ], [ -60.370413631844833, -31.087499997263507 ] ] ], [ [ [ -60.368195319650695, -31.091666663929807 ], [ -60.363329663543674, -31.091666663929807 ], [ -60.365977132153859, -31.095833330596108 ], [ -60.370843001663161, -31.095833330596108 ], [ -60.368195319650695, -31.091666663929807 ] ] ], [ [ [ -60.365977132153859, -31.095833330596108 ], [ -60.36111126264457, -31.095833330596108 ], [ -60.366407427568255, -31.104166663928705 ], [ -60.371273724015467, -31.104166663928705 ], [ -60.365977132153859, -31.095833330596108 ] ] ] ] } },
{ "type": "Feature", "properties": { "_uid_": 2675.0, "id": 7365610.0, "initialdat": "2007-01-07", "finaldate": "2007-01-07", "area_ha": 21.446468853437899 }, "geometry": { "type": "MultiPolygon", "coordinates": [ [ [ [ -60.363759069321581, -31.099999997262408 ], [ -60.358892986365547, -31.099999997262408 ], [ -60.361541131121037, -31.104166663928705 ], [ -60.366407427568255, -31.104166663928705 ], [ -60.363759069321581, -31.099999997262408 ] ] ] ] } },
{ "type": "Feature", "properties": { "_uid_": 2676.0, "id": 7365611.0, "initialdat": "2007-01-07", "finaldate": "2007-01-07", "area_ha": 64.339795643270023 }, "geometry": { "type": "MultiPolygon", "coordinates": [ [ [ [ -60.362838852333653, -31.129166663926483 ], [ -60.357971274005081, -31.129166663926483 ], [ -60.363274132237827, -31.137499997259084 ], [ -60.368142138216264, -31.137499997259084 ], [ -60.362838852333653, -31.129166663926483 ] ] ], [ [ [ -60.369922766728386, -31.12499999726019 ], [ -60.365055402157971, -31.12499999726019 ], [ -60.367706430662203, -31.129166663926483 ], [ -60.372574008990767, -31.129166663926483 ], [ -60.369922766728386, -31.12499999726019 ] ] ] ] } },
{ "type": "Feature", "properties": { "_uid_": 2677.0, "id": 7365612.0, "initialdat": "2007-01-12", "finaldate": "2007-01-13", "area_ha": 193.02008710685968 }, "geometry": { "type": "MultiPolygon", "coordinates": [ [ [ [ -60.365490219176287, -31.133333330592784 ], [ -60.368142138216264, -31.137499997259084 ], [ -60.363274132237827, -31.137499997259084 ], [ -60.365926389684226, -31.141666663925378 ], [ -60.375662829424535, -31.141666663925378 ], [ -60.370358011307495, -31.133333330592784 ], [ -60.375225803438717, -31.133333330592784 ], [ -60.372574008990767, -31.129166663926483 ], [ -60.367706430662203, -31.129166663926483 ], [ -60.365055402157971, -31.12499999726019 ], [ -60.355320673017133, -31.12499999726019 ], [ -60.357971274005081, -31.129166663926483 ], [ -60.362838852333653, -31.129166663926483 ], [ -60.365490219176287, -31.133333330592784 ] ] ], [ [ [ -60.363274132237827, -31.137499997259084 ], [ -60.357971274005081, -31.129166663926483 ], [ -60.353103695676523, -31.129166663926483 ], [ -60.35840612625941, -31.137499997259084 ], [ -60.363274132237827, -31.137499997259084 ] ] ] ] } },
{ "type": "Feature", "properties": { "_uid_": 2678.0, "id": 7365613.0, "initialdat": "2007-01-07", "finaldate": "2007-01-11", "area_ha": 85.786506106722356 }, "geometry": { "type": "MultiPolygon", "coordinates": [ [ [ [ -60.387614162129921, -31.137499997259084 ], [ -60.377878426366699, -31.137499997259084 ], [ -60.375225803438717, -31.133333330592784 ], [ -60.370358011307495, -31.133333330592784 ], [ -60.375662829424535, -31.141666663925378 ], [ -60.380531049294675, -31.141666663925378 ], [ -60.390267489034976, -31.141666663925378 ], [ -60.387614162129921, -31.137499997259084 ] ] ] ] } },
{ "type": "Feature", "properties": { "_uid_": 2679.0, "id": 7365614.0, "initialdat": "2007-01-11", "finaldate": "2007-01-11", "area_ha": 21.446635628592968 }, "geometry": { "type": "MultiPolygon", "coordinates": [ [ [ [ -60.407086186043593, -31.137499997259084 ], [ -60.402218180065169, -31.137499997259084 ], [ -60.40487214864541, -31.141666663925378 ], [ -60.409740368515564, -31.141666663925378 ], [ -60.407086186043593, -31.137499997259084 ] ] ] ] } },
{ "type": "Feature", "properties": { "_uid_": 2680.0, "id": 7365615.0, "initialdat": "2007-01-07", "finaldate": "2007-01-07", "area_ha": 150.12787117302415 }, "geometry": { "type": "MultiPolygon", "coordinates": [ [ [ [ -60.440285587213879, -31.166666663923163 ], [ -60.435416083057639, -31.166666663923163 ], [ -60.432758154220103, -31.162499997256862 ], [ -60.427888864222979, -31.162499997256862 ], [ -60.430546578901385, -31.166666663923163 ], [ -60.425677074745145, -31.166666663923163 ], [ -60.428335128626024, -31.17083333058946 ], [ -60.43320484698598, -31.17083333058946 ], [ -60.442944283705906, -31.17083333058946 ], [ -60.440285587213879, -31.166666663923163 ] ] ], [ [ [ -60.440285587213879, -31.166666663923163 ], [ -60.445155091370133, -31.166666663923163 ], [ -60.43983893049743, -31.158333330590569 ], [ -60.430100778732246, -31.158333330590569 ], [ -60.432758154220103, -31.162499997256862 ], [ -60.437627444217235, -31.162499997256862 ], [ -60.440285587213879, -31.166666663923163 ] ] ] ] } },
{ "type": "Feature", "properties": { "_uid_": 2681.0, "id": 7365616.0, "initialdat": "2007-01-12", "finaldate": "2007-01-12", "area_ha": 21.446746813607216 }, "geometry": { "type": "MultiPolygon", "coordinates": [ [ [ [ -60.437627444217235, -31.162499997256862 ], [ -60.432758154220103, -31.162499997256862 ], [ -60.435416083057639, -31.166666663923163 ], [ -60.440285587213879, -31.166666663923163 ], [ -60.437627444217235, -31.162499997256862 ] ] ] ] } },
{ "type": "Feature", "properties": { "_uid_": 139046.0, "id": 7469990.0, "initialdat": "2007-02-28", "finaldate": "2007-02-28", "area_ha": 21.443088706266881 }, "geometry": { "type": "MultiPolygon", "coordinates": [ [ [ [ -59.916870140345615, -30.337386223502108 ], [ -59.916832954103377, -30.337499997329964 ], [ -59.917260945265312, -30.337499997329964 ], [ -59.916926293148478, -30.336953129604215 ], [ -59.916870140345615, -30.337386223502108 ] ] ] ] } },
{ "type": "Feature", "properties": { "_uid_": 139055.0, "id": 7470003.0, "initialdat": "2007-02-26", "finaldate": "2007-02-27", "area_ha": 42.890059918546669 }, "geometry": { "type": "MultiPolygon", "coordinates": [ [ [ [ -59.935267877762278, -30.776335960124481 ], [ -59.93565874802443, -30.778646502401145 ], [ -59.935658401828611, -30.779166663957497 ], [ -59.938394496006929, -30.779166663957497 ], [ -59.94324427305169, -30.779166663957497 ], [ -59.940648089654928, -30.7749999972912 ], [ -59.935798522657372, -30.7749999972912 ], [ -59.93554218307878, -30.7749999972912 ], [ -59.935267877762278, -30.776335960124481 ] ] ] ] } },
{ "type": "Feature", "properties": { "_uid_": 139058.0, "id": 7470006.0, "initialdat": "2007-02-26", "finaldate": "2007-02-26", "area_ha": 21.445140307962895 }, "geometry": { "type": "MultiPolygon", "coordinates": [ [ [ [ -59.938573094582196, -30.801464690825668 ], [ -59.938671886434392, -30.802624585073293 ], [ -59.938777526518656, -30.803122705505114 ], [ -59.939428604637456, -30.804166663955282 ], [ -59.944279642886457, -30.804166663955282 ], [ -59.941680837302151, -30.799999997288989 ], [ -59.938660977517202, -30.799999997288989 ], [ -59.938573094582196, -30.801464690825668 ] ] ] ] } },
{ "type": "Feature", "properties": { "_uid_": 518855.0, "id": 7933260.0, "initialdat": "2007-07-07", "finaldate": "2007-07-07", "area_ha": 21.443143536901474 }, "geometry": { "type": "MultiPolygon", "coordinates": [ [ [ [ -60.067207040933958, -30.345833330662565 ], [ -60.062378875429474, -30.345833330662565 ], [ -60.064936203441782, -30.349999997328858 ], [ -60.06976457451924, -30.349999997328858 ], [ -60.067207040933958, -30.345833330662565 ] ] ] ] } },
{ "type": "Feature", "properties": { "_uid_": 518856.0, "id": 7933262.0, "initialdat": "2007-07-07", "finaldate": "2007-07-07", "area_ha": 21.443180007648468 }, "geometry": { "type": "MultiPolygon", "coordinates": [ [ [ [ -60.067494066914783, -30.354166663995155 ], [ -60.062665490221292, -30.354166663995155 ], [ -60.06522368359137, -30.358333330661456 ], [ -60.070052465943952, -30.358333330661456 ], [ -60.067494066914783, -30.354166663995155 ] ] ] ] } },
{ "type": "Feature", "properties": { "_uid_": 518857.0, "id": 7933263.0, "initialdat": "2007-07-11", "finaldate": "2007-07-12", "area_ha": 64.329539942204946 }, "geometry": { "type": "MultiPolygon", "coordinates": [ [ [ [ -60.038522606753823, -30.354166663995155 ], [ -60.033694030060317, -30.354166663995155 ], [ -60.028865453366834, -30.354166663995155 ], [ -60.024036876673335, -30.354166663995155 ], [ -60.026593424770731, -30.358333330661456 ], [ -60.031422207123313, -30.358333330661456 ], [ -60.036250989475889, -30.358333330661456 ], [ -60.041079771828471, -30.358333330661456 ], [ -60.038522606753823, -30.354166663995155 ] ] ] ] } },
{ "type": "Feature", "properties": { "_uid_": 518859.0, "id": 7933268.0, "initialdat": "2007-07-07", "finaldate": "2007-07-07", "area_ha": 21.443271028280257 }, "geometry": { "type": "MultiPolygon", "coordinates": [ [ [ [ -60.080291419532649, -30.374999997326643 ], [ -60.075461814113062, -30.374999997326643 ], [ -60.078022686481638, -30.37916666399294 ], [ -60.082852497775683, -30.37916666399294 ], [ -60.080291419532649, -30.374999997326643 ] ] ] ] } },
{ "type": "Feature", "properties": { "_uid_": 518863.0, "id": 7933276.0, "initialdat": "2007-07-03", "finaldate": "2007-07-03", "area_ha": 21.44473589798212 }, "geometry": { "type": "MultiPolygon", "coordinates": [ [ [ [ -60.030030508967982, -30.708333330630438 ], [ -60.025184296768956, -30.708333330630438 ], [ -60.027777265405057, -30.712499997296735 ], [ -60.032623686950814, -30.712499997296735 ], [ -60.030030508967982, -30.708333330630438 ] ] ] ] } },
{ "type": "Feature", "properties": { "_uid_": 518864.0, "id": 7933278.0, "initialdat": "2007-07-07", "finaldate": "2007-07-07", "area_ha": 21.444772594487667 }, "geometry": { "type": "MultiPolygon", "coordinates": [ [ [ [ -60.049757299301938, -30.716666663963036 ], [ -60.044910668365738, -30.716666663963036 ], [ -60.047505348434015, -30.720833330629336 ], [ -60.052352188804399, -30.720833330629336 ], [ -60.049757299301938, -30.716666663963036 ] ] ] ] } },
{ "type": "Feature", "properties": { "_uid_": 518865.0, "id": 7933279.0, "initialdat": "2007-07-07", "finaldate": "2007-07-07", "area_ha": 64.333835107326507 }, "geometry": { "type": "MultiPolygon", "coordinates": [ [ [ [ -59.996783022013545, -30.724999997295637 ], [ -59.991935972165251, -30.724999997295637 ], [ -59.997123012860222, -30.733333330628227 ], [ -60.001970481795588, -30.733333330628227 ], [ -60.006817950730955, -30.733333330628227 ], [ -60.00422374049618, -30.72916666396193 ], [ -59.999376481126234, -30.72916666396193 ], [ -59.996783022013545, -30.724999997295637 ] ] ] ] } },
{ "type": "Feature", "properties": { "_uid_": 576499.0, "id": 7933290.0, "initialdat": "2007-07-19", "finaldate": "2007-07-19", "area_ha": 21.445637698209286 }, "geometry": { "type": "MultiPolygon", "coordinates": [ [ [ [ -60.148021866030689, -30.912499997279014 ], [ -60.1431653442813, -30.912499997279014 ], [ -60.145784539567153, -30.916666663945314 ], [ -60.150641272814852, -30.916666663945314 ], [ -60.148021866030689, -30.912499997279014 ] ] ] ] } },
{ "type": "Feature", "properties": { "_uid_": 576514.0, "id": 7933259.0, "initialdat": "2007-07-07", "finaldate": "2007-07-22", "area_ha": 1243.7079547605872 }, "geometry": { "type": "MultiPolygon", "coordinates": [ [ [ [ -60.104734180994683, -30.383333330659234 ], [ -60.1095641982063, -30.383333330659234 ], [ -60.107001554245912, -30.37916666399294 ], [ -60.111831365539956, -30.37916666399294 ], [ -60.109269052050173, -30.374999997326643 ], [ -60.10670727485288, -30.370833330660343 ], [ -60.101877875264677, -30.370833330660343 ], [ -60.092219076088227, -30.370833330660343 ], [ -60.089658452452618, -30.366666663994049 ], [ -60.094487646252553, -30.366666663994049 ], [ -60.091927352843676, -30.362499997327749 ], [ -60.096756340898402, -30.362499997327749 ], [ -60.094196377706851, -30.358333330661456 ], [ -60.099025160059433, -30.358333330661456 ], [ -60.096465527075736, -30.354166663995155 ], [ -60.101294103769241, -30.354166663995155 ], [ -60.098734800983991, -30.349999997328858 ], [ -60.093906429906532, -30.349999997328858 ], [ -60.084249687751615, -30.349999997328858 ], [ -60.079421316674157, -30.349999997328858 ], [ -60.081979796995263, -30.354166663995155 ], [ -60.077151220301765, -30.354166663995155 ], [ -60.067494066914783, -30.354166663995155 ], [ -60.070052465943952, -30.358333330661456 ], [ -60.06522368359137, -30.358333330661456 ], [ -60.062665490221292, -30.354166663995155 ], [ -60.057836913527794, -30.354166663995155 ], [ -60.053008336834296, -30.354166663995155 ], [ -60.055566118886198, -30.358333330661456 ], [ -60.060683289652985, -30.366666663994049 ], [ -60.065512483452927, -30.366666663994049 ], [ -60.062953424515342, -30.362499997327749 ], [ -60.077440388679499, -30.362499997327749 ], [ -60.080000064852733, -30.366666663994049 ], [ -60.070341677252863, -30.366666663994049 ], [ -60.075461814113062, -30.374999997326643 ], [ -60.080291419532649, -30.374999997326643 ], [ -60.082852497775683, -30.37916666399294 ], [ -60.085414112148293, -30.383333330659234 ], [ -60.090244129359888, -30.383333330659234 ], [ -60.087682309069727, -30.37916666399294 ], [ -60.092512120363764, -30.37916666399294 ], [ -60.095074146571491, -30.383333330659234 ], [ -60.099904163783101, -30.383333330659234 ], [ -60.104734180994683, -30.383333330659234 ] ] ], [ [ [ -60.067494066914783, -30.354166663995155 ], [ -60.059822082782432, -30.341666663996264 ], [ -60.057265825405253, -30.337499997329964 ], [ -60.052438070917667, -30.337499997329964 ], [ -60.054994122807926, -30.341666663996264 ], [ -60.057550709925017, -30.345833330662565 ], [ -60.052722544420547, -30.345833330662565 ], [ -60.047610316430088, -30.337499997329964 ], [ -60.042782561942488, -30.337499997329964 ], [ -60.0453382028589, -30.341666663996264 ], [ -60.040510242884395, -30.341666663996264 ], [ -60.04306621341162, -30.345833330662565 ], [ -60.04789437891607, -30.345833330662565 ], [ -60.050451090209393, -30.349999997328858 ], [ -60.055279461286865, -30.349999997328858 ], [ -60.060107832364324, -30.349999997328858 ], [ -60.062665490221292, -30.354166663995155 ], [ -60.067494066914783, -30.354166663995155 ] ] ], [ [ [ -60.04306621341162, -30.345833330662565 ], [ -60.038238047907143, -30.345833330662565 ], [ -60.040794348054476, -30.349999997328858 ], [ -60.045622719131948, -30.349999997328858 ], [ -60.04306621341162, -30.345833330662565 ] ] ], [ [ [ -60.055566118886198, -30.358333330661456 ], [ -60.050737336533629, -30.358333330661456 ], [ -60.053295448405891, -30.362499997327749 ], [ -60.055854095853064, -30.366666663994049 ], [ -60.060683289652985, -30.366666663994049 ], [ -60.058124436460602, -30.362499997327749 ], [ -60.055566118886198, -30.358333330661456 ] ] ], [ [ [ -60.075461814113062, -30.374999997326643 ], [ -60.070632208693468, -30.374999997326643 ], [ -60.073192875187601, -30.37916666399294 ], [ -60.078022686481638, -30.37916666399294 ], [ -60.075461814113062, -30.374999997326643 ] ] ] ] } },
{ "type": "Feature", "properties": { "_uid_": 576518.0, "id": 7933272.0, "initialdat": "2007-07-12", "finaldate": "2007-07-21", "area_ha": 793.45441753332614 }, "geometry": { "type": "MultiPolygon", "coordinates": [ [ [ [ -60.041636561086143, -30.695833330631551 ], [ -60.036790976665095, -30.695833330631551 ], [ -60.039383158201119, -30.699999997297844 ], [ -60.029691570927774, -30.699999997297844 ], [ -60.032283875343268, -30.704166663964145 ], [ -60.02743787244728, -30.704166663964145 ], [ -60.030030508967982, -30.708333330630438 ], [ -60.035217406493359, -30.716666663963036 ], [ -60.032623686950814, -30.712499997296735 ], [ -60.027777265405057, -30.712499997296735 ], [ -60.030370775557145, -30.716666663963036 ], [ -60.032964827322878, -30.720833330629336 ], [ -60.037811667693262, -30.720833330629336 ], [ -60.047505348434015, -30.720833330629336 ], [ -60.044910939238157, -30.716666663963036 ], [ -60.049757299301938, -30.716666663963036 ], [ -60.054603930238123, -30.716666663963036 ], [ -60.05200964400106, -30.712499997296735 ], [ -60.056855794679514, -30.712499997296735 ], [ -60.054261840803356, -30.708333330630438 ], [ -60.059107782162016, -30.708333330630438 ], [ -60.063953994361029, -30.708333330630438 ], [ -60.068800206560034, -30.708333330630438 ], [ -60.066205895615177, -30.704166663964145 ], [ -60.071051898511165, -30.704166663964145 ], [ -60.075897901407146, -30.704166663964145 ], [ -60.073303713657808, -30.699999997297844 ], [ -60.068457920021139, -30.699999997297844 ], [ -60.06361212638447, -30.699999997297844 ], [ -60.058766332747794, -30.699999997297844 ], [ -60.056173314349294, -30.695833330631551 ], [ -60.053580837426104, -30.69166666396525 ], [ -60.048735462176978, -30.69166666396525 ], [ -60.04389008692786, -30.69166666396525 ], [ -60.039044711678734, -30.69166666396525 ], [ -60.041636561086143, -30.695833330631551 ] ] ] ] } },
{ "type": "Feature", "properties": { "_uid_": 576520.0, "id": 7933277.0, "initialdat": "2007-07-12", "finaldate": "2007-07-16", "area_ha": 386.00675744647981 }, "geometry": { "type": "MultiPolygon", "coordinates": [ [ [ [ -59.994190104359873, -30.720833330629336 ], [ -59.989343263989504, -30.720833330629336 ], [ -59.991935972165251, -30.724999997295637 ], [ -59.996783022013545, -30.724999997295637 ], [ -59.999376481126234, -30.72916666396193 ], [ -60.00422374049618, -30.72916666396193 ], [ -60.009070999866132, -30.72916666396193 ], [ -60.0139182592361, -30.72916666396193 ], [ -60.011324171558435, -30.724999997295637 ], [ -60.016171221406715, -30.724999997295637 ], [ -60.013577465841387, -30.720833330629336 ], [ -60.018424306211763, -30.720833330629336 ], [ -60.015830882748567, -30.716666663963036 ], [ -60.010984251812381, -30.716666663963036 ], [ -60.006137620876196, -30.716666663963036 ], [ -60.000953235773935, -30.708333330630438 ], [ -59.996107023574901, -30.708333330630438 ], [ -59.998698736130613, -30.712499997296735 ], [ -59.993852314584871, -30.712499997296735 ], [ -59.996444359003796, -30.716666663963036 ], [ -59.991597728067603, -30.716666663963036 ], [ -59.994190104359873, -30.720833330629336 ] ] ], [ [ [ -59.991935972165251, -30.724999997295637 ], [ -59.987088922316964, -30.724999997295637 ], [ -59.992275543924862, -30.733333330628227 ], [ -59.997123012860222, -30.733333330628227 ], [ -59.991935972165251, -30.724999997295637 ] ] ] ] } },
{ "type": "Feature", "properties": { "_uid_": 659129.0, "id": 8096937.0, "initialdat": "2007-08-07", "finaldate": "2007-08-07", "area_ha": 42.887675281977657 }, "geometry": { "type": "MultiPolygon", "coordinates": [ [ [ [ -60.106738492664618, -30.504166663981866 ], [ -60.0970664774594, -30.504166663981866 ], [ -60.099641526556461, -30.508333330648163 ], [ -60.10931395618978, -30.508333330648163 ], [ -60.106738492664618, -30.504166663981866 ] ] ] ] } },
{ "type": "Feature", "properties": { "_uid_": 659135.0, "id": 8096948.0, "initialdat": "2007-08-12", "finaldate": "2007-08-12", "area_ha": 42.890704096198085 }, "geometry": { "type": "MultiPolygon", "coordinates": [ [ [ [ -60.208101591451708, -30.845833330618259 ], [ -60.203248447683237, -30.845833330618259 ], [ -60.20847878418062, -30.854166663950853 ], [ -60.213332349580405, -30.854166663950853 ], [ -60.208101591451708, -30.845833330618259 ] ] ] ] } },
{ "type": "Feature", "properties": { "_uid_": 659137.0, "id": 8096950.0, "initialdat": "2007-08-12", "finaldate": "2007-08-12", "area_ha": 21.445416457533835 }, "geometry": { "type": "MultiPolygon", "coordinates": [ [ [ [ -60.189441367394551, -30.862499997283447 ], [ -60.184587380187494, -30.862499997283447 ], [ -60.187203192773218, -30.866666663949744 ], [ -60.192057390949927, -30.866666663949744 ], [ -60.189441367394551, -30.862499997283447 ] ] ] ] } },
{ "type": "Feature", "properties": { "_uid_": 659140.0, "id": 8096957.0, "initialdat": "2007-08-12", "finaldate": "2007-08-12", "area_ha": 21.447210202336311 }, "geometry": { "type": "MultiPolygon", "coordinates": [ [ [ [ -60.26538908960422, -31.266666663914307 ], [ -60.260514432232256, -31.266666663914307 ], [ -60.263175679215458, -31.270833330580601 ], [ -60.268050551863844, -31.270833330580601 ], [ -60.26538908960422, -31.266666663914307 ] ] ] ] } },
{ "type": "Feature", "properties": { "_uid_": 733734.0, "id": 8096951.0, "initialdat": "2007-08-18", "finaldate": "2007-08-18", "area_ha": 21.44541650401354 }, "geometry": { "type": "MultiPolygon", "coordinates": [ [ [ [ -60.184587380187494, -30.862499997283447 ], [ -60.179733392980438, -30.862499997283447 ], [ -60.182348994596531, -30.866666663949744 ], [ -60.187203192773218, -30.866666663949744 ], [ -60.184587380187494, -30.862499997283447 ] ] ] ] } }
]
}
