{
"type": "FeatureCollection",
"name": "2008",
"crs": { "type": "name", "properties": { "name": "urn:ogc:def:crs:OGC:1.3:CRS84" } },
"features": [
{ "type": "Feature", "properties": { "_uid_": 2730.0, "id": 8599854.0, "initialdat": "2008-01-04", "finaldate": "2008-01-04", "area_ha": 21.443837607145309 }, "geometry": { "type": "MultiPolygon", "coordinates": [ [ [ [ -60.053542409035934, -30.504166663981866 ], [ -60.048706401433328, -30.504166663981866 ], [ -60.0512793783898, -30.508333330648163 ], [ -60.056115593206471, -30.508333330648163 ], [ -60.053542409035934, -30.504166663981866 ] ] ] ] } },
{ "type": "Feature", "properties": { "_uid_": 2731.0, "id": 8599855.0, "initialdat": "2008-01-09", "finaldate": "2008-01-09", "area_ha": 21.443837664031982 }, "geometry": { "type": "MultiPolygon", "coordinates": [ [ [ [ -60.048706401433328, -30.504166663981866 ], [ -60.043870393830723, -30.504166663981866 ], [ -60.046443163573137, -30.508333330648163 ], [ -60.0512793783898, -30.508333330648163 ], [ -60.048706401433328, -30.504166663981866 ] ] ] ] } },
{ "type": "Feature", "properties": { "_uid_": 2733.0, "id": 8599857.0, "initialdat": "2008-01-04", "finaldate": "2008-01-08", "area_ha": 128.66608458311558 }, "geometry": { "type": "MultiPolygon", "coordinates": [ [ [ [ -60.123541559766167, -30.624999997304489 ], [ -60.12095347912441, -30.620833330638192 ], [ -60.118365939208417, -30.616666663971898 ], [ -60.113524321592301, -30.616666663971898 ], [ -60.116111653121401, -30.620833330638192 ], [ -60.111269827118406, -30.620833330638192 ], [ -60.113857490899314, -30.624999997304489 ], [ -60.116445695416097, -30.629166663970789 ], [ -60.121287938323512, -30.629166663970789 ], [ -60.118699525332737, -30.624999997304489 ], [ -60.123541559766167, -30.624999997304489 ] ] ], [ [ [ -60.123541559766167, -30.624999997304489 ], [ -60.128383594199605, -30.624999997304489 ], [ -60.123207556824539, -30.616666663971898 ], [ -60.118365939208417, -30.616666663971898 ], [ -60.123541559766167, -30.624999997304489 ] ] ] ] } },
{ "type": "Feature", "properties": { "_uid_": 2738.0, "id": 8599858.0, "initialdat": "2008-01-03", "finaldate": "2008-01-11", "area_ha": 1158.0032977880956 }, "geometry": { "type": "MultiPolygon", "coordinates": [ [ [ [ -60.125573505504093, -30.674999997300059 ], [ -60.128167370454499, -30.67916666396636 ], [ -60.133012118449876, -30.67916666396636 ], [ -60.130418044502207, -30.674999997300059 ], [ -60.140107122498442, -30.674999997300059 ], [ -60.137513172417172, -30.670833330633766 ], [ -60.142357502461692, -30.670833330633766 ], [ -60.139763885233805, -30.666666663967465 ], [ -60.144608006368337, -30.666666663967465 ], [ -60.142014721983585, -30.662499997301168 ], [ -60.146858634251807, -30.662499997301168 ], [ -60.151702546520013, -30.662499997301168 ], [ -60.149109386145454, -30.658333330634875 ], [ -60.143924690234989, -30.649999997302281 ], [ -60.139081404304051, -30.649999997302281 ], [ -60.13649007726513, -30.64583333063598 ], [ -60.131647000026064, -30.64583333063598 ], [ -60.126803922787019, -30.64583333063598 ], [ -60.121960845547946, -30.64583333063598 ], [ -60.124551546511235, -30.649999997302281 ], [ -60.119708260580303, -30.649999997302281 ], [ -60.122299294084179, -30.654166663968574 ], [ -60.117455799417762, -30.654166663968574 ], [ -60.120047165472414, -30.658333330634875 ], [ -60.115203462026919, -30.658333330634875 ], [ -60.117795160642522, -30.662499997301168 ], [ -60.112951248374316, -30.662499997301168 ], [ -60.115543279561074, -30.666666663967465 ], [ -60.110699158426527, -30.666666663967465 ], [ -60.113291522194622, -30.670833330633766 ], [ -60.115884427507858, -30.674999997300059 ], [ -60.120728966505972, -30.674999997300059 ], [ -60.125573505504093, -30.674999997300059 ] ] ], [ [ [ -60.121960845547946, -30.64583333063598 ], [ -60.119370685763364, -30.64166666396968 ], [ -60.114191989341016, -30.633333330637083 ], [ -60.099664635066134, -30.633333330637083 ], [ -60.102253087101921, -30.637499997303383 ], [ -60.09741042711584, -30.637499997303383 ], [ -60.099999211400259, -30.64166666396968 ], [ -60.095156342809489, -30.64166666396968 ], [ -60.097745459352659, -30.64583333063598 ], [ -60.092902382113586, -30.64583333063598 ], [ -60.09549183092561, -30.649999997302281 ], [ -60.110021688718426, -30.649999997302281 ], [ -60.107431613830762, -30.64583333063598 ], [ -60.112274691069828, -30.64583333063598 ], [ -60.117117768308887, -30.64583333063598 ], [ -60.121960845547946, -30.64583333063598 ] ] ] ] } },
{ "type": "Feature", "properties": { "_uid_": 2740.0, "id": 8599864.0, "initialdat": "2008-01-06", "finaldate": "2008-01-09", "area_ha": 235.9078311275959 }, "geometry": { "type": "MultiPolygon", "coordinates": [ [ [ [ -60.28602613523622, -31.054166663933131 ], [ -60.288666301718109, -31.058333330599432 ], [ -60.293530252206359, -31.058333330599432 ], [ -60.290889872721934, -31.054166663933131 ], [ -60.29575361020764, -31.054166663933131 ], [ -60.293113567830645, -31.049999997266838 ], [ -60.297977092358188, -31.049999997266838 ], [ -60.295337387077154, -31.045833330600537 ], [ -60.300200698690901, -31.045833330600537 ], [ -60.297561330494432, -31.041666663934237 ], [ -60.29492251219618, -31.037499997267943 ], [ -60.290059626276971, -31.037499997267943 ], [ -60.285196740357755, -31.037499997267943 ], [ -60.287835133005828, -31.041666663934237 ], [ -60.282972034261519, -31.041666663934237 ], [ -60.288250043303101, -31.049999997266838 ], [ -60.285610763849668, -31.045833330600537 ], [ -60.280747452235929, -31.045833330600537 ], [ -60.283386518775565, -31.049999997266838 ], [ -60.28602613523622, -31.054166663933131 ] ] ] ] } },
{ "type": "Feature", "properties": { "_uid_": 2741.0, "id": 8599866.0, "initialdat": "2008-01-06", "finaldate": "2008-01-06", "area_ha": 21.44719173731804 }, "geometry": { "type": "MultiPolygon", "coordinates": [ [ [ [ -60.384589234590898, -31.262499997248007 ], [ -60.379714792450528, -31.262499997248007 ], [ -60.382380866531683, -31.266666663914307 ], [ -60.387255523903661, -31.266666663914307 ], [ -60.384589234590898, -31.262499997248007 ] ] ] ] } },
{ "type": "Feature", "properties": { "_uid_": 2742.0, "id": 8599867.0, "initialdat": "2008-01-04", "finaldate": "2008-01-10", "area_ha": 536.16074248852726 }, "geometry": { "type": "MultiPolygon", "coordinates": [ [ [ [ -60.339877569207545, -31.291666663912086 ], [ -60.335001619504972, -31.291666663912086 ], [ -60.337668777320289, -31.295833330578386 ], [ -60.342544942568189, -31.295833330578386 ], [ -60.347421107816089, -31.295833330578386 ], [ -60.344753518910117, -31.291666663912086 ], [ -60.342086484934001, -31.287499997245792 ], [ -60.337210750731906, -31.287499997245792 ], [ -60.339877569207545, -31.291666663912086 ] ] ], [ [ [ -60.355427205131434, -31.308333330577277 ], [ -60.358097014775275, -31.312499997243577 ], [ -60.362974042653022, -31.312499997243577 ], [ -60.360304017284413, -31.308333330577277 ], [ -60.370057641590378, -31.308333330577277 ], [ -60.367387740244162, -31.30416666391098 ], [ -60.372264336717251, -31.30416666391098 ], [ -60.369594775105995, -31.299999997244687 ], [ -60.364718394267925, -31.299999997244687 ], [ -60.362049603559775, -31.295833330578386 ], [ -60.366925768807661, -31.295833330578386 ], [ -60.364257317720401, -31.291666663912086 ], [ -60.359381368017843, -31.291666663912086 ], [ -60.35404656202526, -31.283333330579492 ], [ -60.339420005785946, -31.283333330579492 ], [ -60.355427205131434, -31.308333330577277 ] ] ], [ [ [ -60.350089251753737, -31.299999997244687 ], [ -60.345212870915667, -31.299999997244687 ], [ -60.347881354351813, -31.30416666391098 ], [ -60.352757950824888, -31.30416666391098 ], [ -60.350089251753737, -31.299999997244687 ] ] ] ] } },
{ "type": "Feature", "properties": { "_uid_": 100406.0, "id": 8706949.0, "initialdat": "2008-02-12", "finaldate": "2008-02-12", "area_ha": 21.446598443830013 }, "geometry": { "type": "MultiPolygon", "coordinates": [ [ [ [ -60.323898225705157, -31.129166663926483 ], [ -60.319030647376593, -31.129166663926483 ], [ -60.321680089995247, -31.133333330592784 ], [ -60.326547882126469, -31.133333330592784 ], [ -60.323898225705157, -31.129166663926483 ] ] ] ] } },
{ "type": "Feature", "properties": { "_uid_": 100407.0, "id": 8706951.0, "initialdat": "2008-02-06", "finaldate": "2008-02-06", "area_ha": 42.893234087514877 }, "geometry": { "type": "MultiPolygon", "coordinates": [ [ [ [ -60.321680089995247, -31.133333330592784 ], [ -60.311944505732804, -31.133333330592784 ], [ -60.314594072453659, -31.137499997259084 ], [ -60.324330084410484, -31.137499997259084 ], [ -60.321680089995247, -31.133333330592784 ] ] ] ] } },
{ "type": "Feature", "properties": { "_uid_": 144067.0, "id": 8706939.0, "initialdat": "2008-02-29", "finaldate": "2008-02-29", "area_ha": 42.886688405454159 }, "geometry": { "type": "MultiPolygon", "coordinates": [ [ [ [ -59.9649477910882, -30.391666663991835 ], [ -59.955286932736144, -30.391666663991835 ], [ -59.95784438675868, -30.395833330658128 ], [ -59.967505657204519, -30.395833330658128 ], [ -59.9649477910882, -30.391666663991835 ] ] ] ] } },
{ "type": "Feature", "properties": { "_uid_": 144071.0, "id": 8706943.0, "initialdat": "2008-02-22", "finaldate": "2008-02-22", "area_ha": 85.774509268212313 }, "geometry": { "type": "MultiPolygon", "coordinates": [ [ [ [ -59.964703847142808, -30.454166663986296 ], [ -59.955036798320101, -30.454166663986296 ], [ -59.957600638407222, -30.458333330652589 ], [ -59.952766907301232, -30.458333330652589 ], [ -59.955331077046083, -30.46249999731889 ], [ -59.964998952733772, -30.46249999731889 ], [ -59.962434369513197, -30.458333330652589 ], [ -59.967268100619172, -30.458333330652589 ], [ -59.964703847142808, -30.454166663986296 ] ] ] ] } },
{ "type": "Feature", "properties": { "_uid_": 144075.0, "id": 8706948.0, "initialdat": "2008-02-22", "finaldate": "2008-02-26", "area_ha": 85.785184089100355 }, "geometry": { "type": "MultiPolygon", "coordinates": [ [ [ [ -60.328334869696526, -31.120833330593893 ], [ -60.318600567982948, -31.120833330593893 ], [ -60.323898225705157, -31.129166663926483 ], [ -60.328765804033715, -31.129166663926483 ], [ -60.326116485594646, -31.12499999726019 ], [ -60.330983850165062, -31.12499999726019 ], [ -60.328334869696526, -31.120833330593893 ] ] ], [ [ [ -60.323898225705157, -31.129166663926483 ], [ -60.321249121024216, -31.12499999726019 ], [ -60.316381756453801, -31.12499999726019 ], [ -60.319030647376593, -31.129166663926483 ], [ -60.323898225705157, -31.129166663926483 ] ] ] ] } },
{ "type": "Feature", "properties": { "_uid_": 144076.0, "id": 8706950.0, "initialdat": "2008-02-17", "finaldate": "2008-02-17", "area_ha": 21.446598484325406 }, "geometry": { "type": "MultiPolygon", "coordinates": [ [ [ [ -60.319030647376593, -31.129166663926483 ], [ -60.314163069048035, -31.129166663926483 ], [ -60.316812297864026, -31.133333330592784 ], [ -60.321680089995247, -31.133333330592784 ], [ -60.319030647376593, -31.129166663926483 ] ] ] ] } },
{ "type": "Feature", "properties": { "_uid_": 257998.0, "id": 8876283.0, "initialdat": "2008-04-09", "finaldate": "2008-04-09", "area_ha": 21.444534036433694 }, "geometry": { "type": "MultiPolygon", "coordinates": [ [ [ [ -60.001541266205422, -30.662499997301168 ], [ -59.996697353937201, -30.662499997301168 ], [ -59.999284372331964, -30.666666663967465 ], [ -60.004128493466524, -30.666666663967465 ], [ -60.001541266205422, -30.662499997301168 ] ] ] ] } },
{ "type": "Feature", "properties": { "_uid_": 258004.0, "id": 8876297.0, "initialdat": "2008-04-14", "finaldate": "2008-04-14", "area_ha": 21.447043183541297 }, "geometry": { "type": "MultiPolygon", "coordinates": [ [ [ [ -60.26582444477134, -31.229166663917624 ], [ -60.260951722872512, -31.229166663917624 ], [ -60.263609064641152, -31.233333330583925 ], [ -60.268482001413588, -31.233333330583925 ], [ -60.26582444477134, -31.229166663917624 ] ] ] ] } },
{ "type": "Feature", "properties": { "_uid_": 298648.0, "id": 8876292.0, "initialdat": "2008-04-11", "finaldate": "2008-04-16", "area_ha": 85.782560716891282 }, "geometry": { "type": "MultiPolygon", "coordinates": [ [ [ [ -60.23214921663363, -30.9458333306094 ], [ -60.237007431605143, -30.9458333306094 ], [ -60.234381233400121, -30.941666663943099 ], [ -60.231755582699357, -30.937499997276799 ], [ -60.222039999897056, -30.937499997276799 ], [ -60.224665227071611, -30.941666663943099 ], [ -60.227291001662117, -30.9458333306094 ], [ -60.23214921663363, -30.9458333306094 ] ] ] ] } },
{ "type": "Feature", "properties": { "_uid_": 298695.0, "id": 8876293.0, "initialdat": "2008-04-16", "finaldate": "2008-04-16", "area_ha": 21.445766707360743 }, "geometry": { "type": "MultiPolygon", "coordinates": [ [ [ [ -60.244097239728632, -30.941666663943099 ], [ -60.239239236564366, -30.941666663943099 ], [ -60.241865646576656, -30.9458333306094 ], [ -60.246723861548169, -30.9458333306094 ], [ -60.244097239728632, -30.941666663943099 ] ] ] ] } },
{ "type": "Feature", "properties": { "_uid_": 298696.0, "id": 8876296.0, "initialdat": "2008-04-15", "finaldate": "2008-04-15", "area_ha": 64.340209252142913 }, "geometry": { "type": "MultiPolygon", "coordinates": [ [ [ [ -60.24014784820578, -31.204166663919839 ], [ -60.235276414609757, -31.204166663919839 ], [ -60.240584159122335, -31.21249999725244 ], [ -60.245456021973894, -31.21249999725244 ], [ -60.250327884825431, -31.21249999725244 ], [ -60.247673307064566, -31.208333330586139 ], [ -60.242801658863122, -31.208333330586139 ], [ -60.24014784820578, -31.204166663919839 ] ] ] ] } },
{ "type": "Feature", "properties": { "_uid_": 298722.0, "id": 8876281.0, "initialdat": "2008-04-11", "finaldate": "2008-04-15", "area_ha": 150.10590572099684 }, "geometry": { "type": "MultiPolygon", "coordinates": [ [ [ [ -60.084777082170518, -30.562499997310027 ], [ -60.087357601483895, -30.566666663976328 ], [ -60.092196721851259, -30.566666663976328 ], [ -60.089615994716411, -30.562499997310027 ], [ -60.094454907262289, -30.562499997310027 ], [ -60.091874511760814, -30.558333330643727 ], [ -60.089294655617401, -30.554166663977433 ], [ -60.086715338735296, -30.549999997311136 ], [ -60.081877049393256, -30.549999997311136 ], [ -60.077038760051209, -30.549999997311136 ], [ -60.084777082170518, -30.562499997310027 ] ] ] ] } },
{ "type": "Feature", "properties": { "_uid_": 298723.0, "id": 8876282.0, "initialdat": "2008-04-15", "finaldate": "2008-04-15", "area_ha": 21.444130635297299 }, "geometry": { "type": "MultiPolygon", "coordinates": [ [ [ [ -60.094777988494322, -30.570833330642628 ], [ -60.089938660262021, -30.570833330642628 ], [ -60.092520258601731, -30.574999997308922 ], [ -60.097359794742417, -30.574999997308922 ], [ -60.094777988494322, -30.570833330642628 ] ] ] ] } },
{ "type": "Feature", "properties": { "_uid_": 337288.0, "id": 8962013.0, "initialdat": "2008-05-06", "finaldate": "2008-05-06", "area_ha": 64.3290855743885 }, "geometry": { "type": "MultiPolygon", "coordinates": [ [ [ [ -60.008000969034939, -30.233333330672526 ], [ -60.003178337758783, -30.233333330672526 ], [ -60.005721653139396, -30.237499997338826 ], [ -60.000898817449531, -30.237499997338826 ], [ -60.003442461353394, -30.241666664005127 ], [ -60.013088541646226, -30.241666664005127 ], [ -60.008000969034939, -30.233333330672526 ] ] ] ] } },
{ "type": "Feature", "properties": { "_uid_": 337289.0, "id": 8962015.0, "initialdat": "2008-05-09", "finaldate": "2008-05-11", "area_ha": 42.885685559308527 }, "geometry": { "type": "MultiPolygon", "coordinates": [ [ [ [ -59.982935314626054, -30.279166664001803 ], [ -59.985482449144108, -30.283333330668096 ], [ -59.990307536213699, -30.283333330668096 ], [ -59.987760196810314, -30.279166664001803 ], [ -59.985213390948765, -30.274999997335502 ], [ -59.980388713606935, -30.274999997335502 ], [ -59.982935314626054, -30.279166664001803 ] ] ] ] } },
{ "type": "Feature", "properties": { "_uid_": 371501.0, "id": 8962014.0, "initialdat": "2008-05-16", "finaldate": "2008-05-16", "area_ha": 21.442833666431905 }, "geometry": { "type": "MultiPolygon", "coordinates": [ [ [ [ -59.990038068290609, -30.274999997335502 ], [ -59.985213390948765, -30.274999997335502 ], [ -59.987760196810314, -30.279166664001803 ], [ -59.992585078994587, -30.279166664001803 ], [ -59.990038068290609, -30.274999997335502 ] ] ] ] } },
{ "type": "Feature", "properties": { "_uid_": 411777.0, "id": 9042704.0, "initialdat": "2008-06-05", "finaldate": "2008-06-08", "area_ha": 364.52725481547117 }, "geometry": { "type": "MultiPolygon", "coordinates": [ [ [ [ -60.040560789042026, -30.270833330669209 ], [ -60.045385261584336, -30.270833330669209 ], [ -60.042836860685767, -30.266666664002909 ], [ -60.040289260462011, -30.262499997336612 ], [ -60.045113056674019, -30.262499997336612 ], [ -60.042565518639371, -30.258333330670311 ], [ -60.037741660238247, -30.258333330670311 ], [ -60.028093943435998, -30.258333330670311 ], [ -60.023270085034873, -30.258333330670311 ], [ -60.018446226633749, -30.258333330670311 ], [ -60.023539789542959, -30.266666664002909 ], [ -60.018715521757272, -30.266666664002909 ], [ -60.021262898872742, -30.270833330669209 ], [ -60.026087371415052, -30.270833330669209 ], [ -60.028635487025326, -30.274999997335502 ], [ -60.038284841709014, -30.274999997335502 ], [ -60.035736316499708, -30.270833330669209 ], [ -60.040560789042026, -30.270833330669209 ] ] ], [ [ [ -60.018446226633749, -30.258333330670311 ], [ -60.013622368232625, -30.258333330670311 ], [ -60.016168678242188, -30.262499997336612 ], [ -60.020992741314153, -30.262499997336612 ], [ -60.018446226633749, -30.258333330670311 ] ] ] ] } },
{ "type": "Feature", "properties": { "_uid_": 411793.0, "id": 9042730.0, "initialdat": "2008-06-04", "finaldate": "2008-06-14", "area_ha": 235.88123957852125 }, "geometry": { "type": "MultiPolygon", "coordinates": [ [ [ [ -60.007142994731815, -30.491666663982965 ], [ -60.002307608511451, -30.491666663982965 ], [ -60.004877315036239, -30.495833330649273 ], [ -60.00971290834071, -30.495833330649273 ], [ -60.007142994731815, -30.491666663982965 ] ] ], [ [ [ -60.004877315036239, -30.495833330649273 ], [ -60.000041990448501, -30.495833330649273 ], [ -59.997472222291066, -30.491666663982965 ], [ -59.992636836070695, -30.491666663982965 ], [ -59.99777595817406, -30.499999997315566 ], [ -60.00261175860593, -30.499999997315566 ], [ -60.007447559037828, -30.499999997315566 ], [ -60.004877315036239, -30.495833330649273 ] ] ], [ [ [ -59.99777595817406, -30.499999997315566 ], [ -59.995206128427299, -30.495833330649273 ], [ -59.992636836070695, -30.491666663982965 ], [ -59.982966063629945, -30.491666663982965 ], [ -59.985534941818358, -30.495833330649273 ], [ -59.980699348513873, -30.495833330649273 ], [ -59.971028161904933, -30.495833330649273 ], [ -59.973596956014667, -30.499999997315566 ], [ -59.983268556878429, -30.499999997315566 ], [ -59.988104357310313, -30.499999997315566 ], [ -59.992940157742183, -30.499999997315566 ], [ -59.99777595817406, -30.499999997315566 ] ] ] ] } },
{ "type": "Feature", "properties": { "_uid_": 411794.0, "id": 9042731.0, "initialdat": "2008-06-01", "finaldate": "2008-06-08", "area_ha": 150.10573187959193 }, "geometry": { "type": "MultiPolygon", "coordinates": [ [ [ [ -60.000346325407257, -30.504166663981866 ], [ -59.995510317804637, -30.504166663981866 ], [ -59.990674310202046, -30.504166663981866 ], [ -59.993244800589821, -30.508333330648163 ], [ -59.998081015406484, -30.508333330648163 ], [ -60.00291723022314, -30.508333330648163 ], [ -60.000346325407257, -30.504166663981866 ] ] ], [ [ [ -59.993244800589821, -30.508333330648163 ], [ -59.988408585773151, -30.508333330648163 ], [ -59.990979406495839, -30.512499997314457 ], [ -59.995815828569903, -30.512499997314457 ], [ -59.993244800589821, -30.508333330648163 ] ] ], [ [ [ -59.988408585773151, -30.508333330648163 ], [ -59.985838302599426, -30.504166663981866 ], [ -59.990674310202046, -30.504166663981866 ], [ -59.988104357310313, -30.499999997315566 ], [ -59.978432756446544, -30.499999997315566 ], [ -59.983572370956473, -30.508333330648163 ], [ -59.988408585773151, -30.508333330648163 ] ] ], [ [ [ -59.978432756446544, -30.499999997315566 ], [ -59.973596956014667, -30.499999997315566 ], [ -59.976166287394221, -30.504166663981866 ], [ -59.98100229499682, -30.504166663981866 ], [ -59.978432756446544, -30.499999997315566 ] ] ] ] } },
{ "type": "Feature", "properties": { "_uid_": 411795.0, "id": 9042732.0, "initialdat": "2008-06-08", "finaldate": "2008-06-08", "area_ha": 42.88796825534105 }, "geometry": { "type": "MultiPolygon", "coordinates": [ [ [ [ -60.064467623103063, -30.537499997312242 ], [ -60.054792290045185, -30.537499997312242 ], [ -60.057368951918683, -30.541666663978543 ], [ -60.067044700098499, -30.541666663978543 ], [ -60.064467623103063, -30.537499997312242 ] ] ] ] } },
{ "type": "Feature", "properties": { "_uid_": 411797.0, "id": 9042735.0, "initialdat": "2008-06-05", "finaldate": "2008-06-08", "area_ha": 128.6647510689497 }, "geometry": { "type": "MultiPolygon", "coordinates": [ [ [ [ -60.10123020676145, -30.549999997311136 ], [ -60.096391917419389, -30.549999997311136 ], [ -60.098971649683868, -30.554166663977433 ], [ -60.094133152650627, -30.554166663977433 ], [ -60.096713216528656, -30.558333330643727 ], [ -60.101551921296505, -30.558333330643727 ], [ -60.111229330832217, -30.558333330643727 ], [ -60.10864864375035, -30.554166663977433 ], [ -60.11348714078359, -30.554166663977433 ], [ -60.110906785445543, -30.549999997311136 ], [ -60.106068496103489, -30.549999997311136 ], [ -60.10123020676145, -30.549999997311136 ] ] ] ] } },
{ "type": "Feature", "properties": { "_uid_": 411798.0, "id": 9042736.0, "initialdat": "2008-06-04", "finaldate": "2008-06-04", "area_ha": 21.444093850994111 }, "geometry": { "type": "MultiPolygon", "coordinates": [ [ [ [ -60.089615994716411, -30.562499997310027 ], [ -60.084777082170518, -30.562499997310027 ], [ -60.087357601483895, -30.566666663976328 ], [ -60.092196721851259, -30.566666663976328 ], [ -60.089615994716411, -30.562499997310027 ] ] ] ] } },
{ "type": "Feature", "properties": { "_uid_": 411803.0, "id": 9042743.0, "initialdat": "2008-06-04", "finaldate": "2008-06-11", "area_ha": 257.33460901095867 }, "geometry": { "type": "MultiPolygon", "coordinates": [ [ [ [ -60.12095347912441, -30.620833330638192 ], [ -60.125795305127404, -30.620833330638192 ], [ -60.123207556824539, -30.616666663971898 ], [ -60.118034222648319, -30.608333330639304 ], [ -60.122874883111045, -30.608333330639304 ], [ -60.120288548276875, -30.604166663973004 ], [ -60.125129540993548, -30.604166663973004 ], [ -60.122543538370877, -30.599999997306703 ], [ -60.117702753866979, -30.599999997306703 ], [ -60.112861969363074, -30.599999997306703 ], [ -60.115447555560209, -30.604166663973004 ], [ -60.110606562843529, -30.604166663973004 ], [ -60.113192481165115, -30.608333330639304 ], [ -60.108351280192153, -30.608333330639304 ], [ -60.110937530648265, -30.612499997305598 ], [ -60.106096121375487, -30.612499997305598 ], [ -60.101254712102708, -30.612499997305598 ], [ -60.103841086360063, -30.616666663971898 ], [ -60.108682703976193, -30.616666663971898 ], [ -60.113524321592301, -30.616666663971898 ], [ -60.116111653121401, -30.620833330638192 ], [ -60.12095347912441, -30.620833330638192 ] ] ] ] } },
{ "type": "Feature", "properties": { "_uid_": 411804.0, "id": 9042744.0, "initialdat": "2008-06-04", "finaldate": "2008-06-08", "area_ha": 42.888517647075645 }, "geometry": { "type": "MultiPolygon", "coordinates": [ [ [ [ -60.088658046843541, -30.599999997306703 ], [ -60.083817262339622, -30.599999997306703 ], [ -60.078976477835731, -30.599999997306703 ], [ -60.081560606543455, -30.604166663973004 ], [ -60.086401599260135, -30.604166663973004 ], [ -60.091242591976808, -30.604166663973004 ], [ -60.088658046843541, -30.599999997306703 ] ] ] ] } },
{ "type": "Feature", "properties": { "_uid_": 411805.0, "id": 9042745.0, "initialdat": "2008-06-08", "finaldate": "2008-06-12", "area_ha": 42.888572650218009 }, "geometry": { "type": "MultiPolygon", "coordinates": [ [ [ [ -60.028309686660002, -30.604166663973004 ], [ -60.023468693943308, -30.604166663973004 ], [ -60.026050863651733, -30.608333330639304 ], [ -60.030892064624709, -30.608333330639304 ], [ -60.028309686660002, -30.604166663973004 ] ] ], [ [ [ -60.026050863651733, -30.608333330639304 ], [ -60.021209662678778, -30.608333330639304 ], [ -60.023792163738293, -30.612499997305598 ], [ -60.028633573011057, -30.612499997305598 ], [ -60.026050863651733, -30.608333330639304 ] ] ] ] } },
{ "type": "Feature", "properties": { "_uid_": 411806.0, "id": 9042746.0, "initialdat": "2008-06-04", "finaldate": "2008-06-04", "area_ha": 21.444295424675943 }, "geometry": { "type": "MultiPolygon", "coordinates": [ [ [ [ -60.088986476300292, -30.608333330639304 ], [ -60.08414527532733, -30.608333330639304 ], [ -60.086730484284381, -30.612499997305598 ], [ -60.091571893557152, -30.612499997305598 ], [ -60.088986476300292, -30.608333330639304 ] ] ] ] } },
{ "type": "Feature", "properties": { "_uid_": 411807.0, "id": 9042747.0, "initialdat": "2008-06-04", "finaldate": "2008-06-04", "area_ha": 21.444332008552546 }, "geometry": { "type": "MultiPolygon", "coordinates": [ [ [ [ -60.132890792056777, -30.616666663971898 ], [ -60.128049174440662, -30.616666663971898 ], [ -60.130637131130399, -30.620833330638192 ], [ -60.135478957133401, -30.620833330638192 ], [ -60.132890792056777, -30.616666663971898 ] ] ] ] } },
{ "type": "Feature", "properties": { "_uid_": 411808.0, "id": 9042748.0, "initialdat": "2008-06-04", "finaldate": "2008-06-04", "area_ha": 21.444350340557097 }, "geometry": { "type": "MultiPolygon", "coordinates": [ [ [ [ -60.087060697103382, -30.620833330638192 ], [ -60.082218871100388, -30.620833330638192 ], [ -60.084805284298724, -30.624999997304489 ], [ -60.089647318732155, -30.624999997304489 ], [ -60.087060697103382, -30.620833330638192 ] ] ] ] } },
{ "type": "Feature", "properties": { "_uid_": 411828.0, "id": 9042774.0, "initialdat": "2008-06-05", "finaldate": "2008-06-08", "area_ha": 42.890593403875826 }, "geometry": { "type": "MultiPolygon", "coordinates": [ [ [ [ -60.001306567817906, -30.833333330619368 ], [ -59.996454056166641, -30.833333330619368 ], [ -59.999058678312885, -30.837499997285661 ], [ -60.003911400625924, -30.837499997285661 ], [ -60.001306567817906, -30.833333330619368 ] ] ], [ [ [ -59.999058678312885, -30.837499997285661 ], [ -59.994205955999846, -30.837499997285661 ], [ -59.996810910931146, -30.841666663951958 ], [ -60.001663843949927, -30.841666663951958 ], [ -59.999058678312885, -30.837499997285661 ] ] ] ] } },
{ "type": "Feature", "properties": { "_uid_": 411831.0, "id": 9042778.0, "initialdat": "2008-06-08", "finaldate": "2008-06-08", "area_ha": 85.781261100685597 }, "geometry": { "type": "MultiPolygon", "coordinates": [ [ [ [ -60.295074739408498, -30.837499997285661 ], [ -60.285369294782406, -30.837499997285661 ], [ -60.287986892057475, -30.841666663951958 ], [ -60.29283982507625, -30.841666663951958 ], [ -60.295458179284111, -30.845833330618259 ], [ -60.30516446682104, -30.845833330618259 ], [ -60.302545691113785, -30.841666663951958 ], [ -60.297692758095017, -30.841666663951958 ], [ -60.295074739408498, -30.837499997285661 ] ] ] ] } },
{ "type": "Feature", "properties": { "_uid_": 411845.0, "id": 9042803.0, "initialdat": "2008-06-10", "finaldate": "2008-06-10", "area_ha": 21.445748328387737 }, "geometry": { "type": "MultiPolygon", "coordinates": [ [ [ [ -60.071448466461455, -30.937499997276799 ], [ -60.066590675060297, -30.937499997276799 ], [ -60.06920912581559, -30.941666663943099 ], [ -60.074067128979841, -30.941666663943099 ], [ -60.071448466461455, -30.937499997276799 ] ] ] ] } },
{ "type": "Feature", "properties": { "_uid_": 411861.0, "id": 9042841.0, "initialdat": "2008-06-08", "finaldate": "2008-06-12", "area_ha": 171.57194670253989 }, "geometry": { "type": "MultiPolygon", "coordinates": [ [ [ [ -60.404432556226077, -31.133333330592784 ], [ -60.399564764094841, -31.133333330592784 ], [ -60.402218180065169, -31.137499997259084 ], [ -60.407086186043593, -31.137499997259084 ], [ -60.404432556226077, -31.133333330592784 ] ] ], [ [ [ -60.421690203978841, -31.137499997259084 ], [ -60.416822198000432, -31.137499997259084 ], [ -60.419476808255858, -31.141666663925378 ], [ -60.40487214864541, -31.141666663925378 ], [ -60.407526669936502, -31.145833330591678 ], [ -60.412395103742924, -31.145833330591678 ], [ -60.417263537549353, -31.145833330591678 ], [ -60.41991903961388, -31.149999997257975 ], [ -60.424787687401135, -31.149999997257975 ], [ -60.422131971355775, -31.145833330591678 ], [ -60.42700040516219, -31.145833330591678 ], [ -60.421690203978841, -31.137499997259084 ] ] ], [ [ [ -60.407526669936502, -31.145833330591678 ], [ -60.40265823613008, -31.145833330591678 ], [ -60.405313096252137, -31.149999997257975 ], [ -60.410181744039384, -31.149999997257975 ], [ -60.407526669936502, -31.145833330591678 ] ] ] ] } },
{ "type": "Feature", "properties": { "_uid_": 445459.0, "id": 9042737.0, "initialdat": "2008-06-01", "finaldate": "2008-06-17", "area_ha": 2959.2994902066648 }, "geometry": { "type": "MultiPolygon", "coordinates": [ [ [ [ -60.061224187952291, -30.579166663975219 ], [ -60.05864350561702, -30.574999997308922 ], [ -60.053803969476355, -30.574999997308922 ], [ -60.05122403440366, -30.570833330642628 ], [ -60.046384706171359, -30.570833330642628 ], [ -60.048964433335669, -30.574999997308922 ], [ -60.044124897194997, -30.574999997308922 ], [ -60.04928555347513, -30.583333330641519 ], [ -60.044445601387309, -30.583333330641519 ], [ -60.04702653056637, -30.587499997307813 ], [ -60.042186370439765, -30.587499997307813 ], [ -60.047349431099271, -30.59583333064041 ], [ -60.042508854764627, -30.59583333064041 ], [ -60.045090986308381, -30.599999997306703 ], [ -60.047673657526708, -30.604166663973004 ], [ -60.052514650243381, -30.604166663973004 ], [ -60.055098069489532, -30.608333330639304 ], [ -60.05025686851657, -30.608333330639304 ], [ -60.058009741085378, -30.620833330638192 ], [ -60.062851567088387, -30.620833330638192 ], [ -60.067693393091382, -30.620833330638192 ], [ -60.070279180998419, -30.624999997304489 ], [ -60.075121215431857, -30.624999997304489 ], [ -60.072535219094384, -30.620833330638192 ], [ -60.077377045097379, -30.620833330638192 ], [ -60.074791380663342, -30.616666663971898 ], [ -60.079632998279472, -30.616666663971898 ], [ -60.077047665738824, -30.612499997305598 ], [ -60.081889075011603, -30.612499997305598 ], [ -60.079304074354354, -30.608333330639304 ], [ -60.08414527532733, -30.608333330639304 ], [ -60.078976477835731, -30.599999997306703 ], [ -60.083817262339622, -30.599999997306703 ], [ -60.088658046843541, -30.599999997306703 ], [ -60.093498831347446, -30.599999997306703 ], [ -60.09091461811105, -30.59583333064041 ], [ -60.100595770780345, -30.59583333064041 ], [ -60.098011681305081, -30.591666663974113 ], [ -60.102852049513956, -30.591666663974113 ], [ -60.100268291959075, -30.587499997307813 ], [ -60.10510845208568, -30.587499997307813 ], [ -60.102525026441199, -30.583333330641519 ], [ -60.097685074353365, -30.583333330641519 ], [ -60.092845122265537, -30.583333330641519 ], [ -60.090262652507377, -30.579166663975219 ], [ -60.095102396599891, -30.579166663975219 ], [ -60.092520258601731, -30.574999997308922 ], [ -60.097359794742417, -30.574999997308922 ], [ -60.094777988494322, -30.570833330642628 ], [ -60.092196721851259, -30.566666663976328 ], [ -60.08735787121627, -30.566666663976328 ], [ -60.084777082170518, -30.562499997310027 ], [ -60.089615994716411, -30.562499997310027 ], [ -60.087035806992972, -30.558333330643727 ], [ -60.077358397457267, -30.558333330643727 ], [ -60.082518481116516, -30.566666663976328 ], [ -60.079938169624619, -30.562499997310027 ], [ -60.07509925707874, -30.562499997310027 ], [ -60.070260344532834, -30.562499997310027 ], [ -60.072840240381765, -30.566666663976328 ], [ -60.075420675565127, -30.570833330642628 ], [ -60.07058134733284, -30.570833330642628 ], [ -60.075743420229834, -30.579166663975219 ], [ -60.073162114039043, -30.574999997308922 ], [ -60.068322577898364, -30.574999997308922 ], [ -60.063483041757692, -30.574999997308922 ], [ -60.066063932044806, -30.579166663975219 ], [ -60.061224187952291, -30.579166663975219 ] ], [ [ -60.061224187952291, -30.579166663975219 ], [ -60.063805409738606, -30.583333330641519 ], [ -60.058965727402992, -30.583333330641519 ], [ -60.056384443859784, -30.579166663975219 ], [ -60.061224187952291, -30.579166663975219 ] ] ], [ [ [ -60.05025686851657, -30.608333330639304 ], [ -60.047673657526708, -30.604166663973004 ], [ -60.042832664810028, -30.604166663973004 ], [ -60.037991672093355, -30.604166663973004 ], [ -60.033150679376689, -30.604166663973004 ], [ -60.028309686660002, -30.604166663973004 ], [ -60.030892064624709, -30.608333330639304 ], [ -60.026050863651733, -30.608333330639304 ], [ -60.033800611070369, -30.620833330638192 ], [ -60.031216822118267, -30.616666663971898 ], [ -60.026375204502159, -30.616666663971898 ], [ -60.028958785067374, -30.620833330638192 ], [ -60.024116959064365, -30.620833330638192 ], [ -60.026700871097539, -30.624999997304489 ], [ -60.029285323082618, -30.629166663970789 ], [ -60.02444308017521, -30.629166663970789 ], [ -60.027027863691707, -30.633333330637083 ], [ -60.031870315116656, -30.633333330637083 ], [ -60.036712766541626, -30.633333330637083 ], [ -60.046397669391546, -30.633333330637083 ], [ -60.043812051804863, -30.629166663970789 ], [ -60.041226974397844, -30.624999997304489 ], [ -60.046069008831275, -30.624999997304489 ], [ -60.048654294712286, -30.629166663970789 ], [ -60.058338780527109, -30.629166663970789 ], [ -60.055753077698135, -30.624999997304489 ], [ -60.050911043264712, -30.624999997304489 ], [ -60.048326089079374, -30.620833330638192 ], [ -60.053167915082369, -30.620833330638192 ], [ -60.050583292582743, -30.616666663971898 ], [ -60.055424910198866, -30.616666663971898 ], [ -60.052840619374948, -30.612499997305598 ], [ -60.047999210102169, -30.612499997305598 ], [ -60.045415667543601, -30.608333330639304 ], [ -60.05025686851657, -30.608333330639304 ] ], [ [ -60.043157800829391, -30.612499997305598 ], [ -60.038316391556627, -30.612499997305598 ], [ -60.035733265597678, -30.608333330639304 ], [ -60.040574466570639, -30.608333330639304 ], [ -60.043157800829391, -30.612499997305598 ] ] ], [ [ [ -60.026050863651733, -30.608333330639304 ], [ -60.023468693943308, -30.604166663973004 ], [ -60.018627701226649, -30.604166663973004 ], [ -60.021209662678778, -30.608333330639304 ], [ -60.026050863651733, -30.608333330639304 ] ] ] ] } },
{ "type": "Feature", "properties": { "_uid_": 445460.0, "id": 9042738.0, "initialdat": "2008-06-24", "finaldate": "2008-06-26", "area_ha": 85.776559098494047 }, "geometry": { "type": "MultiPolygon", "coordinates": [ [ [ [ -60.063483041757692, -30.574999997308922 ], [ -60.05864350561702, -30.574999997308922 ], [ -60.061224187952291, -30.579166663975219 ], [ -60.066063932044806, -30.579166663975219 ], [ -60.063483041757692, -30.574999997308922 ] ] ], [ [ [ -60.061224187952291, -30.579166663975219 ], [ -60.056384443859784, -30.579166663975219 ], [ -60.058965457650785, -30.583333330641519 ], [ -60.063805409738606, -30.583333330641519 ], [ -60.061224187952291, -30.579166663975219 ] ] ], [ [ [ -60.05864350561702, -30.574999997308922 ], [ -60.056063362635953, -30.570833330642628 ], [ -60.05122403440366, -30.570833330642628 ], [ -60.053803969476355, -30.574999997308922 ], [ -60.05864350561702, -30.574999997308922 ] ] ], [ [ [ -60.05122403440366, -30.570833330642628 ], [ -60.048644638544936, -30.566666663976328 ], [ -60.043805518177557, -30.566666663976328 ], [ -60.046384706171359, -30.570833330642628 ], [ -60.05122403440366, -30.570833330642628 ] ] ] ] } },
{ "type": "Feature", "properties": { "_uid_": 445474.0, "id": 9042797.0, "initialdat": "2008-06-20", "finaldate": "2008-06-20", "area_ha": 21.44567448889017 }, "geometry": { "type": "MultiPolygon", "coordinates": [ [ [ [ -60.075550109247601, -30.920833330611615 ], [ -60.070693164457445, -30.920833330611615 ], [ -60.073310066951315, -30.924999997277908 ], [ -60.078167223328023, -30.924999997277908 ], [ -60.075550109247601, -30.920833330611615 ] ] ] ] } },
{ "type": "Feature", "properties": { "_uid_": 445477.0, "id": 9042804.0, "initialdat": "2008-06-29", "finaldate": "2008-06-29", "area_ha": 21.445766880142688 }, "geometry": { "type": "MultiPolygon", "coordinates": [ [ [ [ -60.103215147965336, -30.941666663943099 ], [ -60.098357144801092, -30.941666663943099 ], [ -60.10097741240287, -30.9458333306094 ], [ -60.105835627374368, -30.9458333306094 ], [ -60.103215147965336, -30.941666663943099 ] ] ] ] } },
{ "type": "Feature", "properties": { "_uid_": 445478.0, "id": 9042806.0, "initialdat": "2008-06-20", "finaldate": "2008-06-20", "area_ha": 21.445785181367398 }, "geometry": { "type": "MultiPolygon", "coordinates": [ [ [ [ -60.062111692630786, -30.9458333306094 ], [ -60.057253477659273, -30.9458333306094 ], [ -60.059872384965253, -30.949999997275697 ], [ -60.064730811788181, -30.949999997275697 ], [ -60.062111692630786, -30.9458333306094 ] ] ] ] } },
{ "type": "Feature", "properties": { "_uid_": 445498.0, "id": 9042842.0, "initialdat": "2008-06-24", "finaldate": "2008-06-24", "area_ha": 21.446635621070861 }, "geometry": { "type": "MultiPolygon", "coordinates": [ [ [ [ -60.426558209957264, -31.137499997259084 ], [ -60.421690203978841, -31.137499997259084 ], [ -60.424345028125998, -31.141666663925378 ], [ -60.429213247996152, -31.141666663925378 ], [ -60.426558209957264, -31.137499997259084 ] ] ] ] } },
{ "type": "Feature", "properties": { "_uid_": 445499.0, "id": 9042847.0, "initialdat": "2008-06-12", "finaldate": "2008-07-04", "area_ha": 664.85690660846228 }, "geometry": { "type": "MultiPolygon", "coordinates": [ [ [ [ -60.323432776591311, -31.25833333058171 ], [ -60.33318123049834, -31.25833333058171 ], [ -60.330518202015412, -31.254166663915417 ], [ -60.335392213826871, -31.254166663915417 ], [ -60.332729524351095, -31.249999997249109 ], [ -60.330067388923062, -31.245833330582816 ], [ -60.334940970584661, -31.245833330582816 ], [ -60.332279174095042, -31.241666663916515 ], [ -60.327405807441231, -31.241666663916515 ], [ -60.324744779804163, -31.237499997250218 ], [ -60.319871904962703, -31.237499997250218 ], [ -60.317211369137993, -31.233333330583925 ], [ -60.312338432365557, -31.233333330583925 ], [ -60.314998476422645, -31.237499997250218 ], [ -60.305252173041126, -31.237499997250218 ], [ -60.2955058696596, -31.237499997250218 ], [ -60.298165607518349, -31.241666663916515 ], [ -60.293292240864517, -31.241666663916515 ], [ -60.283545507556887, -31.241666663916515 ], [ -60.286205153968574, -31.245833330582816 ], [ -60.281331572306961, -31.245833330582816 ], [ -60.283991557209575, -31.249999997249109 ], [ -60.288865353923718, -31.249999997249109 ], [ -60.293739150637883, -31.249999997249109 ], [ -60.298612947352026, -31.249999997249109 ], [ -60.295952317291793, -31.245833330582816 ], [ -60.300825898953406, -31.245833330582816 ], [ -60.305699480615012, -31.245833330582816 ], [ -60.310573062276625, -31.245833330582816 ], [ -60.3185585496378, -31.25833333058171 ], [ -60.323432776591311, -31.25833333058171 ] ] ] ] } },
{ "type": "Feature", "properties": { "_uid_": 445503.0, "id": 9042853.0, "initialdat": "2008-06-24", "finaldate": "2008-06-28", "area_ha": 64.344141286146638 }, "geometry": { "type": "MultiPolygon", "coordinates": [ [ [ [ -60.461660222115604, -31.458333330563988 ], [ -60.456775615537623, -31.458333330563988 ], [ -60.45946570280676, -31.462499997230285 ], [ -60.464350526730392, -31.462499997230285 ], [ -60.461660222115604, -31.458333330563988 ] ] ], [ [ [ -60.461660222115604, -31.458333330563988 ], [ -60.466544828693586, -31.458333330563988 ], [ -60.463854865895655, -31.454166663897688 ], [ -60.461165462157211, -31.449999997231394 ], [ -60.456281290135038, -31.449999997231394 ], [ -60.45897047661817, -31.454166663897688 ], [ -60.461660222115604, -31.458333330563988 ] ] ] ] } },
{ "type": "Feature", "properties": { "_uid_": 499350.0, "id": 9140051.0, "initialdat": "2008-07-11", "finaldate": "2008-07-13", "area_ha": 107.22005253280402 }, "geometry": { "type": "MultiPolygon", "coordinates": [ [ [ [ -60.04706553598443, -30.524999997313351 ], [ -60.049640582174604, -30.529166663979652 ], [ -60.059315085248933, -30.529166663979652 ], [ -60.056739624197121, -30.524999997313351 ], [ -60.061576668303466, -30.524999997313351 ], [ -60.059001538319002, -30.520833330647058 ], [ -60.054164701600115, -30.520833330647058 ], [ -60.049327864881228, -30.520833330647058 ], [ -60.044491028162327, -30.520833330647058 ], [ -60.04706553598443, -30.524999997313351 ] ] ] ] } },
{ "type": "Feature", "properties": { "_uid_": 499377.0, "id": 9140085.0, "initialdat": "2008-07-02", "finaldate": "2008-07-02", "area_ha": 42.891238589799407 }, "geometry": { "type": "MultiPolygon", "coordinates": [ [ [ [ -60.33355123417266, -30.910426852653242 ], [ -60.333981629236, -30.90833333061272 ], [ -60.325086486359481, -30.90833333061272 ], [ -60.327713170758066, -30.912499997279014 ], [ -60.334961129805407, -30.912499997279014 ], [ -60.33355123417266, -30.910426852653242 ] ] ] ] } },
{ "type": "Feature", "properties": { "_uid_": 499378.0, "id": 9140086.0, "initialdat": "2008-07-12", "finaldate": "2008-07-14", "area_ha": 42.891275306820873 }, "geometry": { "type": "MultiPolygon", "coordinates": [ [ [ [ -60.332569692507455, -30.912499997279014 ], [ -60.327713170758066, -30.912499997279014 ], [ -60.322856649008678, -30.912499997279014 ], [ -60.325483669732634, -30.916666663945314 ], [ -60.330340402980362, -30.916666663945314 ], [ -60.335197136228068, -30.916666663945314 ], [ -60.332569692507455, -30.912499997279014 ] ] ] ] } },
{ "type": "Feature", "properties": { "_uid_": 499388.0, "id": 9140101.0, "initialdat": "2008-07-04", "finaldate": "2008-07-04", "area_ha": 21.446357850193976 }, "geometry": { "type": "MultiPolygon", "coordinates": [ [ [ [ -60.260314046323572, -31.074999997264616 ], [ -60.255449243381236, -31.074999997264616 ], [ -60.2580902424519, -31.079166663930916 ], [ -60.26295525861876, -31.079166663930916 ], [ -60.260314046323572, -31.074999997264616 ] ] ] ] } },
{ "type": "Feature", "properties": { "_uid_": 499395.0, "id": 9140111.0, "initialdat": "2008-07-04", "finaldate": "2008-07-04", "area_ha": 21.44665399811268 }, "geometry": { "type": "MultiPolygon", "coordinates": [ [ [ [ -60.258825552540976, -31.141666663925378 ], [ -60.253957332670829, -31.141666663925378 ], [ -60.25660522193742, -31.145833330591678 ], [ -60.261473655743842, -31.145833330591678 ], [ -60.258825552540976, -31.141666663925378 ] ] ] ] } },
{ "type": "Feature", "properties": { "_uid_": 499396.0, "id": 9140112.0, "initialdat": "2008-07-04", "finaldate": "2008-07-04", "area_ha": 21.446894933950901 }, "geometry": { "type": "MultiPolygon", "coordinates": [ [ [ [ -60.351745992307038, -31.195833330587245 ], [ -60.346874987787864, -31.195833330587245 ], [ -60.349532627711795, -31.199999997253546 ], [ -60.354403846747068, -31.199999997253546 ], [ -60.351745992307038, -31.195833330587245 ] ] ] ] } },
{ "type": "Feature", "properties": { "_uid_": 499397.0, "id": 9140113.0, "initialdat": "2008-07-10", "finaldate": "2008-07-10", "area_ha": 21.446894835495954 }, "geometry": { "type": "MultiPolygon", "coordinates": [ [ [ [ -60.346874987787864, -31.195833330587245 ], [ -60.342003983268704, -31.195833330587245 ], [ -60.344661408676536, -31.199999997253546 ], [ -60.349532627711795, -31.199999997253546 ], [ -60.346874987787864, -31.195833330587245 ] ] ] ] } },
{ "type": "Feature", "properties": { "_uid_": 499398.0, "id": 9140114.0, "initialdat": "2008-07-04", "finaldate": "2008-07-04", "area_ha": 21.44689486217499 }, "geometry": { "type": "MultiPolygon", "coordinates": [ [ [ [ -60.342003983268704, -31.195833330587245 ], [ -60.337132978749544, -31.195833330587245 ], [ -60.339790189641285, -31.199999997253546 ], [ -60.344661408676536, -31.199999997253546 ], [ -60.342003983268704, -31.195833330587245 ] ] ] ] } },
{ "type": "Feature", "properties": { "_uid_": 499399.0, "id": 9140115.0, "initialdat": "2008-07-04", "finaldate": "2008-07-04", "area_ha": 21.446931953799723 }, "geometry": { "type": "MultiPolygon", "coordinates": [ [ [ [ -60.357062254510197, -31.204166663919839 ], [ -60.352190820914188, -31.204166663919839 ], [ -60.354849567496245, -31.208333330586139 ], [ -60.359721215697689, -31.208333330586139 ], [ -60.357062254510197, -31.204166663919839 ] ] ] ] } },
{ "type": "Feature", "properties": { "_uid_": 499400.0, "id": 9140116.0, "initialdat": "2008-07-01", "finaldate": "2008-07-01", "area_ha": 21.447117511856558 }, "geometry": { "type": "MultiPolygon", "coordinates": [ [ [ [ -60.500642747079404, -31.245833330582816 ], [ -60.495769165417805, -31.245833330582816 ], [ -60.498438612632292, -31.249999997249109 ], [ -60.503312409346449, -31.249999997249109 ], [ -60.500642747079404, -31.245833330582816 ] ] ] ] } },
{ "type": "Feature", "properties": { "_uid_": 499402.0, "id": 9140120.0, "initialdat": "2008-07-11", "finaldate": "2008-07-11", "area_ha": 21.447172998023031 }, "geometry": { "type": "MultiPolygon", "coordinates": [ [ [ [ -60.3185585496378, -31.25833333058171 ], [ -60.313684322684281, -31.25833333058171 ], [ -60.316347044625886, -31.262499997248007 ], [ -60.321221486766255, -31.262499997248007 ], [ -60.3185585496378, -31.25833333058171 ] ] ] ] } },
{ "type": "Feature", "properties": { "_uid_": 499409.0, "id": 9140127.0, "initialdat": "2008-07-04", "finaldate": "2008-07-04", "area_ha": 21.44735885263681 }, "geometry": { "type": "MultiPolygon", "coordinates": [ [ [ [ -60.403729440972455, -31.299999997244687 ], [ -60.398853060134378, -31.299999997244687 ], [ -60.401523915555792, -31.30416666391098 ], [ -60.406400512028895, -31.30416666391098 ], [ -60.403729440972455, -31.299999997244687 ] ] ] ] } },
{ "type": "Feature", "properties": { "_uid_": 499410.0, "id": 9140128.0, "initialdat": "2008-07-01", "finaldate": "2008-07-05", "area_ha": 386.05375290493964 }, "geometry": { "type": "MultiPolygon", "coordinates": [ [ [ [ -60.394908085390036, -31.316666663909871 ], [ -60.397580516716026, -31.320833330576171 ], [ -60.402457976177949, -31.320833330576171 ], [ -60.399785329037414, -31.316666663909871 ], [ -60.404662572684792, -31.316666663909871 ], [ -60.401990265674939, -31.312499997243577 ], [ -60.406867293552679, -31.312499997243577 ], [ -60.404195326661231, -31.308333330577277 ], [ -60.394441702355273, -31.308333330577277 ], [ -60.391770722609614, -31.30416666391098 ], [ -60.386894126136532, -31.30416666391098 ], [ -60.38422391762019, -31.299999997244687 ], [ -60.37934753678212, -31.299999997244687 ], [ -60.374471155944065, -31.299999997244687 ], [ -60.377140933190354, -31.30416666391098 ], [ -60.379811265896329, -31.308333330577277 ], [ -60.382482154163981, -31.312499997243577 ], [ -60.377605126286234, -31.312499997243577 ], [ -60.380276354447879, -31.316666663909871 ], [ -60.375399110800501, -31.316666663909871 ], [ -60.378070678868376, -31.320833330576171 ], [ -60.387825597792208, -31.320833330576171 ], [ -60.385153598095272, -31.316666663909871 ], [ -60.394908085390036, -31.316666663909871 ] ], [ [ -60.386894126136532, -31.30416666391098 ], [ -60.389564890202294, -31.308333330577277 ], [ -60.384688078049308, -31.308333330577277 ], [ -60.382017529663443, -31.30416666391098 ], [ -60.386894126136532, -31.30416666391098 ] ] ], [ [ [ -60.387825597792208, -31.320833330576171 ], [ -60.390498153356837, -31.324999997242468 ], [ -60.395375828678169, -31.324999997242468 ], [ -60.392703057254117, -31.320833330576171 ], [ -60.387825597792208, -31.320833330576171 ] ] ] ] } },
{ "type": "Feature", "properties": { "_uid_": 499412.0, "id": 9140130.0, "initialdat": "2008-07-10", "finaldate": "2008-07-10", "area_ha": 21.447396047484876 }, "geometry": { "type": "MultiPolygon", "coordinates": [ [ [ [ -60.379811265896329, -31.308333330577277 ], [ -60.374934453743343, -31.308333330577277 ], [ -60.377605126286234, -31.312499997243577 ], [ -60.382482154163981, -31.312499997243577 ], [ -60.379811265896329, -31.308333330577277 ] ] ] ] } },
{ "type": "Feature", "properties": { "_uid_": 499415.0, "id": 9140136.0, "initialdat": "2008-07-04", "finaldate": "2008-07-04", "area_ha": 21.448270686352252 }, "geometry": { "type": "MultiPolygon", "coordinates": [ [ [ [ -60.43752734849911, -31.504166663893262 ], [ -60.432640348632646, -31.504166663893262 ], [ -60.435334196232773, -31.508333330559555 ], [ -60.440221413942339, -31.508333330559555 ], [ -60.43752734849911, -31.504166663893262 ] ] ] ] } },
{ "type": "Feature", "properties": { "_uid_": 561221.0, "id": 9140048.0, "initialdat": "2008-07-19", "finaldate": "2008-07-25", "area_ha": 85.773581893277168 }, "geometry": { "type": "MultiPolygon", "coordinates": [ [ [ [ -60.070738505744359, -30.445833330653702 ], [ -60.075571616896184, -30.445833330653702 ], [ -60.073004014732099, -30.441666663987405 ], [ -60.070436949703641, -30.437499997321105 ], [ -60.065604251638476, -30.437499997321105 ], [ -60.060771553573325, -30.437499997321105 ], [ -60.065905394592548, -30.445833330653702 ], [ -60.070738505744359, -30.445833330653702 ] ] ] ] } },
{ "type": "Feature", "properties": { "_uid_": 561233.0, "id": 9140096.0, "initialdat": "2008-07-14", "finaldate": "2008-07-16", "area_ha": 128.67941639583111 }, "geometry": { "type": "MultiPolygon", "coordinates": [ [ [ [ -60.27226715348214, -31.070833330598322 ], [ -60.267402563719948, -31.070833330598322 ], [ -60.264762025387405, -31.066666663932022 ], [ -60.25503327213444, -31.066666663932022 ], [ -60.257673384195549, -31.070833330598322 ], [ -60.252808794433342, -31.070833330598322 ], [ -60.255449243381236, -31.074999997264616 ], [ -60.270043652208187, -31.074999997264616 ], [ -60.274908455150516, -31.074999997264616 ], [ -60.27226715348214, -31.070833330598322 ] ] ] ] } },
{ "type": "Feature", "properties": { "_uid_": 561236.0, "id": 9140108.0, "initialdat": "2008-07-12", "finaldate": "2008-07-16", "area_ha": 300.25287484407426 }, "geometry": { "type": "MultiPolygon", "coordinates": [ [ [ [ -60.248663208026876, -31.133333330592784 ], [ -60.251309994734214, -31.137499997259084 ], [ -60.25617800071263, -31.137499997259084 ], [ -60.265914012669462, -31.137499997259084 ], [ -60.263266584420542, -31.133333330592784 ], [ -60.268134376551778, -31.133333330592784 ], [ -60.265487285762426, -31.129166663926483 ], [ -60.260194757701541, -31.120833330593893 ], [ -60.250460455987977, -31.120833330593893 ], [ -60.24559330513118, -31.120833330593893 ], [ -60.248238652467968, -31.12499999726019 ], [ -60.243371287897553, -31.12499999726019 ], [ -60.246016972448182, -31.129166663926483 ], [ -60.248663208026876, -31.133333330592784 ] ] ] ] } },
{ "type": "Feature", "properties": { "_uid_": 561238.0, "id": 9140119.0, "initialdat": "2008-07-14", "finaldate": "2008-07-16", "area_ha": 64.341538013744355 }, "geometry": { "type": "MultiPolygon", "coordinates": [ [ [ [ -60.335844813187315, -31.262499997248007 ], [ -60.338508950183886, -31.266666663914307 ], [ -60.343383607555857, -31.266666663914307 ], [ -60.34071925532767, -31.262499997248007 ], [ -60.338055457451873, -31.25833333058171 ], [ -60.33318123049834, -31.25833333058171 ], [ -60.328307003544843, -31.25833333058171 ], [ -60.330970371046966, -31.262499997248007 ], [ -60.335844813187315, -31.262499997248007 ] ] ] ] } },
{ "type": "Feature", "properties": { "_uid_": 627682.0, "id": 9285732.0, "initialdat": "2008-08-15", "finaldate": "2008-08-15", "area_ha": 42.892789814674856 }, "geometry": { "type": "MultiPolygon", "coordinates": [ [ [ [ -60.387227757076538, -31.083333330597213 ], [ -60.377497298204922, -31.083333330597213 ], [ -60.380144517343233, -31.087499997263507 ], [ -60.389875402841611, -31.087499997263507 ], [ -60.387227757076538, -31.083333330597213 ] ] ] ] } },
{ "type": "Feature", "properties": { "_uid_": 627703.0, "id": 9285698.0, "initialdat": "2008-08-15", "finaldate": "2008-08-15", "area_ha": 107.21598601970673 }, "geometry": { "type": "MultiPolygon", "coordinates": [ [ [ [ -59.984334704109145, -30.46249999731889 ], [ -59.974666828421455, -30.46249999731889 ], [ -59.982365038622298, -30.474999997317781 ], [ -59.987199596939277, -30.474999997317781 ], [ -59.984632783223347, -30.47083333065148 ], [ -59.989467134672687, -30.47083333065148 ], [ -59.984334704109145, -30.46249999731889 ] ] ] ] } },
{ "type": "Feature", "properties": { "_uid_": 627707.0, "id": 9285721.0, "initialdat": "2008-08-13", "finaldate": "2008-08-13", "area_ha": 21.445692976045606 }, "geometry": { "type": "MultiPolygon", "coordinates": [ [ [ [ -60.136453099848495, -30.924999997277908 ], [ -60.131595943471787, -30.924999997277908 ], [ -60.134215931272912, -30.929166663944205 ], [ -60.139073299280305, -30.929166663944205 ], [ -60.136453099848495, -30.924999997277908 ] ] ] ] } },
{ "type": "Feature", "properties": { "_uid_": 627708.0, "id": 9285722.0, "initialdat": "2008-08-05", "finaldate": "2008-08-11", "area_ha": 107.2289631618619 }, "geometry": { "type": "MultiPolygon", "coordinates": [ [ [ [ -60.152182494601014, -30.949999997275697 ], [ -60.154805973992012, -30.95416666394199 ], [ -60.159664612710543, -30.95416666394199 ], [ -60.164523251429074, -30.95416666394199 ], [ -60.16189934824687, -30.949999997275697 ], [ -60.166757775069804, -30.949999997275697 ], [ -60.16413420703249, -30.9458333306094 ], [ -60.159275992060977, -30.9458333306094 ], [ -60.154417777089478, -30.9458333306094 ], [ -60.149559562117965, -30.9458333306094 ], [ -60.152182494601014, -30.949999997275697 ] ] ] ] } },
{ "type": "Feature", "properties": { "_uid_": 627711.0, "id": 9285735.0, "initialdat": "2008-08-09", "finaldate": "2008-08-09", "area_ha": 42.89286396552324 }, "geometry": { "type": "MultiPolygon", "coordinates": [ [ [ [ -60.397389256292811, -31.091666663929807 ], [ -60.387657944078775, -31.091666663929807 ], [ -60.390306479700335, -31.095833330596108 ], [ -60.400038218718926, -31.095833330596108 ], [ -60.397389256292811, -31.091666663929807 ] ] ] ] } },
{ "type": "Feature", "properties": { "_uid_": 627712.0, "id": 9285745.0, "initialdat": "2008-08-14", "finaldate": "2008-08-14", "area_ha": 150.12890567659139 }, "geometry": { "type": "MultiPolygon", "coordinates": [ [ [ [ -60.33226197423037, -31.195833330587245 ], [ -60.32739096971121, -31.195833330587245 ], [ -60.330047751570753, -31.199999997253546 ], [ -60.325176532535494, -31.199999997253546 ], [ -60.327833652934096, -31.204166663919839 ], [ -60.322962219338066, -31.204166663919839 ], [ -60.325619678287602, -31.208333330586139 ], [ -60.330491326489046, -31.208333330586139 ], [ -60.340234622891913, -31.208333330586139 ], [ -60.337576520126113, -31.204166663919839 ], [ -60.34244795372215, -31.204166663919839 ], [ -60.339790189641285, -31.199999997253546 ], [ -60.334918970606012, -31.199999997253546 ], [ -60.33226197423037, -31.195833330587245 ] ] ] ] } },
{ "type": "Feature", "properties": { "_uid_": 627713.0, "id": 9285746.0, "initialdat": "2008-08-14", "finaldate": "2008-08-14", "area_ha": 42.893827068531515 }, "geometry": { "type": "MultiPolygon", "coordinates": [ [ [ [ -60.315434094464969, -31.199999997253546 ], [ -60.305691656394437, -31.199999997253546 ], [ -60.308347918550012, -31.204166663919839 ], [ -60.318090785742058, -31.204166663919839 ], [ -60.315434094464969, -31.199999997253546 ] ] ] ] } },
{ "type": "Feature", "properties": { "_uid_": 627714.0, "id": 9285747.0, "initialdat": "2008-08-15", "finaldate": "2008-08-15", "area_ha": 21.447043379902841 }, "geometry": { "type": "MultiPolygon", "coordinates": [ [ [ [ -60.348660717051708, -31.229166663917624 ], [ -60.343787995152873, -31.229166663917624 ], [ -60.346448989772654, -31.233333330583925 ], [ -60.35132192654509, -31.233333330583925 ], [ -60.348660717051708, -31.229166663917624 ] ] ] ] } },
{ "type": "Feature", "properties": { "_uid_": 627715.0, "id": 9285750.0, "initialdat": "2008-08-02", "finaldate": "2008-08-02", "area_ha": 128.67831497592925 }, "geometry": { "type": "MultiPolygon", "coordinates": [ [ [ [ -60.35443529723112, -31.245833330582816 ], [ -60.334940970584661, -31.245833330582816 ], [ -60.340266225638317, -31.254166663915417 ], [ -60.350014249261228, -31.254166663915417 ], [ -60.347350914493553, -31.249999997249109 ], [ -60.357098507921876, -31.249999997249109 ], [ -60.35443529723112, -31.245833330582816 ] ] ] ] } },
{ "type": "Feature", "properties": { "_uid_": 627716.0, "id": 9285755.0, "initialdat": "2008-08-03", "finaldate": "2008-08-03", "area_ha": 21.447451704633234 }, "geometry": { "type": "MultiPolygon", "coordinates": [ [ [ [ -60.348805922096901, -31.320833330576171 ], [ -60.343928462634985, -31.320833330576171 ], [ -60.346599075464781, -31.324999997242468 ], [ -60.351476750786127, -31.324999997242468 ], [ -60.348805922096901, -31.320833330576171 ] ] ] ] } },
{ "type": "Feature", "properties": { "_uid_": 704435.0, "id": 9285728.0, "initialdat": "2008-08-13", "finaldate": "2008-08-22", "area_ha": 128.67656651842594 }, "geometry": { "type": "MultiPolygon", "coordinates": [ [ [ [ -60.171120763142504, -31.041666663934237 ], [ -60.175983861886799, -31.041666663934237 ], [ -60.1707174152344, -31.033333330601646 ], [ -60.168085014842667, -31.029166663935346 ], [ -60.158360094038557, -31.029166663935346 ], [ -60.160992068957455, -31.033333330601646 ], [ -60.163624592377381, -31.037499997267943 ], [ -60.166257664398188, -31.041666663934237 ], [ -60.171120763142504, -31.041666663934237 ] ] ] ] } },
{ "type": "Feature", "properties": { "_uid_": 704452.0, "id": 9285733.0, "initialdat": "2008-08-13", "finaldate": "2008-08-16", "area_ha": 42.892808159947393 }, "geometry": { "type": "MultiPolygon", "coordinates": [ [ [ [ -60.326624647102101, -31.087499997263507 ], [ -60.329270070794529, -31.091666663929807 ], [ -60.33413572690155, -31.091666663929807 ], [ -60.331490089851293, -31.087499997263507 ], [ -60.328845003846858, -31.083333330597213 ], [ -60.323979774411058, -31.083333330597213 ], [ -60.326624647102101, -31.087499997263507 ] ] ] ] } },
{ "type": "Feature", "properties": { "_uid_": 704459.0, "id": 9285724.0, "initialdat": "2008-08-29", "finaldate": "2008-09-02", "area_ha": 171.56595991268159 }, "geometry": { "type": "MultiPolygon", "coordinates": [ [ [ [ -60.155978607908445, -30.979166663939775 ], [ -60.158605281822595, -30.983333330606076 ], [ -60.168325528273066, -30.983333330606076 ], [ -60.173185651498301, -30.983333330606076 ], [ -60.170558340969066, -30.979166663939775 ], [ -60.17541825198925, -30.979166663939775 ], [ -60.172791276902998, -30.974999997273482 ], [ -60.167931578043607, -30.974999997273482 ], [ -60.153352481465419, -30.974999997273482 ], [ -60.148492782606027, -30.974999997273482 ], [ -60.151118696888247, -30.979166663939775 ], [ -60.155978607908445, -30.979166663939775 ] ] ] ] } },
{ "type": "Feature", "properties": { "_uid_": 704460.0, "id": 9285725.0, "initialdat": "2008-08-26", "finaldate": "2008-08-26", "area_ha": 21.445969905161856 }, "geometry": { "type": "MultiPolygon", "coordinates": [ [ [ [ -60.156372167832849, -30.987499997272369 ], [ -60.151511832358331, -30.987499997272369 ], [ -60.154139176926193, -30.99166666393867 ], [ -60.158999724694226, -30.99166666393867 ], [ -60.156372167832849, -30.987499997272369 ] ] ] ] } },
{ "type": "Feature", "properties": { "_uid_": 704463.0, "id": 9285736.0, "initialdat": "2008-08-17", "finaldate": "2008-08-17", "area_ha": 21.446431961119178 }, "geometry": { "type": "MultiPolygon", "coordinates": [ [ [ [ -60.368195319650695, -31.091666663929807 ], [ -60.363329663543674, -31.091666663929807 ], [ -60.365977132153859, -31.095833330596108 ], [ -60.370843001663161, -31.095833330596108 ], [ -60.368195319650695, -31.091666663929807 ] ] ] ] } },
{ "type": "Feature", "properties": { "_uid_": 704465.0, "id": 9285739.0, "initialdat": "2008-08-17", "finaldate": "2008-08-17", "area_ha": 21.44648726797104 }, "geometry": { "type": "MultiPolygon", "coordinates": [ [ [ [ -60.395605206251552, -31.104166663928705 ], [ -60.390738909804334, -31.104166663928705 ], [ -60.393388887399595, -31.108333330594999 ], [ -60.398255397382485, -31.108333330594999 ], [ -60.395605206251552, -31.104166663928705 ] ] ] ] } },
{ "type": "Feature", "properties": { "_uid_": 704466.0, "id": 9285740.0, "initialdat": "2008-08-20", "finaldate": "2008-08-22", "area_ha": 42.893289480030539 }, "geometry": { "type": "MultiPolygon", "coordinates": [ [ [ [ -60.275650024626302, -31.137499997259084 ], [ -60.270782018647893, -31.137499997259084 ], [ -60.273430212151425, -31.141666663925378 ], [ -60.278298432021579, -31.141666663925378 ], [ -60.275650024626302, -31.137499997259084 ] ] ], [ [ [ -60.273430212151425, -31.141666663925378 ], [ -60.268561992281271, -31.141666663925378 ], [ -60.271210523356679, -31.145833330591678 ], [ -60.276078957163115, -31.145833330591678 ], [ -60.273430212151425, -31.141666663925378 ] ] ] ] } },
{ "type": "Feature", "properties": { "_uid_": 704474.0, "id": 9285752.0, "initialdat": "2008-08-22", "finaldate": "2008-08-22", "area_ha": 21.447284569013117 }, "geometry": { "type": "MultiPolygon", "coordinates": [ [ [ [ -60.31991793080018, -31.283333330579492 ], [ -60.315042412053749, -31.283333330579492 ], [ -60.317707813923541, -31.287499997245792 ], [ -60.322583548125621, -31.287499997245792 ], [ -60.31991793080018, -31.283333330579492 ] ] ] ] } },
{ "type": "Feature", "properties": { "_uid_": 704475.0, "id": 9285753.0, "initialdat": "2008-08-17", "finaldate": "2008-08-22", "area_ha": 600.52455227031703 }, "geometry": { "type": "MultiPolygon", "coordinates": [ [ [ [ -60.355890136210974, -31.316666663909871 ], [ -60.353219986897535, -31.312499997243577 ], [ -60.348342959019796, -31.312499997243577 ], [ -60.351012892563595, -31.316666663909871 ], [ -60.355890136210974, -31.316666663909871 ] ] ], [ [ [ -60.355890136210974, -31.316666663909871 ], [ -60.360767379858359, -31.316666663909871 ], [ -60.365644623505737, -31.316666663909871 ], [ -60.362974042653022, -31.312499997243577 ], [ -60.367851070530747, -31.312499997243577 ], [ -60.372728098408494, -31.312499997243577 ], [ -60.370057641590378, -31.308333330577277 ], [ -60.374934453743343, -31.308333330577277 ], [ -60.372264336717251, -31.30416666391098 ], [ -60.377140933190354, -31.30416666391098 ], [ -60.374471155944065, -31.299999997244687 ], [ -60.389100298458267, -31.299999997244687 ], [ -60.386430985155748, -31.295833330578386 ], [ -60.391306595047148, -31.295833330578386 ], [ -60.388637066233287, -31.291666663912086 ], [ -60.385968092752819, -31.287499997245792 ], [ -60.390843826954899, -31.287499997245792 ], [ -60.388175193250333, -31.283333330579492 ], [ -60.378424155757465, -31.283333330579492 ], [ -60.381981984595392, -31.288888659709013 ], [ -60.381092358550724, -31.287499997245792 ], [ -60.371340890146534, -31.287499997245792 ], [ -60.376678099303462, -31.295833330578386 ], [ -60.374009217125561, -31.291666663912086 ], [ -60.369133267422988, -31.291666663912086 ], [ -60.371801934055576, -31.295833330578386 ], [ -60.362049603559775, -31.295833330578386 ], [ -60.364718394267925, -31.299999997244687 ], [ -60.359842013429862, -31.299999997244687 ], [ -60.365180829437385, -31.308333330577277 ], [ -60.362511143771073, -31.30416666391098 ], [ -60.352757950824888, -31.30416666391098 ], [ -60.355427205131434, -31.308333330577277 ], [ -60.350550392978455, -31.308333330577277 ], [ -60.355890136210974, -31.316666663909871 ] ] ] ] } },
{ "type": "Feature", "properties": { "_uid_": 791082.0, "id": 9467177.0, "initialdat": "2008-09-04", "finaldate": "2008-09-04", "area_ha": 21.444002375710006 }, "geometry": { "type": "MultiPolygon", "coordinates": [ [ [ [ -60.110585566907623, -30.541666663978543 ], [ -60.105747692817737, -30.541666663978543 ], [ -60.108326969489156, -30.545833330644836 ], [ -60.113165051183429, -30.545833330644836 ], [ -60.110585566907623, -30.541666663978543 ] ] ] ] } },
{ "type": "Feature", "properties": { "_uid_": 791083.0, "id": 9467178.0, "initialdat": "2008-09-08", "finaldate": "2008-09-09", "area_ha": 85.776474003863328 }, "geometry": { "type": "MultiPolygon", "coordinates": [ [ [ [ -60.20058008738183, -30.554166663977433 ], [ -60.195741590348604, -30.554166663977433 ], [ -60.198326016653482, -30.558333330643727 ], [ -60.203164721421324, -30.558333330643727 ], [ -60.20058008738183, -30.554166663977433 ] ] ], [ [ [ -60.198326016653482, -30.558333330643727 ], [ -60.188648607117784, -30.558333330643727 ], [ -60.191233158180104, -30.562499997310027 ], [ -60.196072070725982, -30.562499997310027 ], [ -60.1986573699334, -30.566666663976328 ], [ -60.203496490300765, -30.566666663976328 ], [ -60.198326016653482, -30.558333330643727 ] ] ] ] } },
{ "type": "Feature", "properties": { "_uid_": 791087.0, "id": 9467185.0, "initialdat": "2008-09-09", "finaldate": "2008-09-09", "area_ha": 21.444717395055292 }, "geometry": { "type": "MultiPolygon", "coordinates": [ [ [ [ -60.056513889823194, -30.704166663964145 ], [ -60.051667886927206, -30.704166663964145 ], [ -60.054261569963018, -30.708333330630438 ], [ -60.059107782162016, -30.708333330630438 ], [ -60.056513889823194, -30.704166663964145 ] ] ] ] } },
{ "type": "Feature", "properties": { "_uid_": 791088.0, "id": 9467187.0, "initialdat": "2008-09-06", "finaldate": "2008-09-08", "area_ha": 42.889490037453164 }, "geometry": { "type": "MultiPolygon", "coordinates": [ [ [ [ -60.081087902408221, -30.712499997296735 ], [ -60.083683715855294, -30.716666663963036 ], [ -60.088530346791494, -30.716666663963036 ], [ -60.085934323953964, -30.712499997296735 ], [ -60.083338843157065, -30.708333330630438 ], [ -60.078492630958053, -30.708333330630438 ], [ -60.081087902408221, -30.712499997296735 ] ] ] ] } },
{ "type": "Feature", "properties": { "_uid_": 791099.0, "id": 9467201.0, "initialdat": "2008-09-10", "finaldate": "2008-09-14", "area_ha": 300.24456326022141 }, "geometry": { "type": "MultiPolygon", "coordinates": [ [ [ [ -60.192116784211244, -30.920833330611615 ], [ -60.19473897636896, -30.924999997277908 ], [ -60.199596132745683, -30.924999997277908 ], [ -60.204453289122377, -30.924999997277908 ], [ -60.209310445499085, -30.924999997277908 ], [ -60.214167601875786, -30.924999997277908 ], [ -60.211544836831621, -30.920833330611615 ], [ -60.216401508162015, -30.920833330611615 ], [ -60.213778805035169, -30.916666663945314 ], [ -60.208922071787455, -30.916666663945314 ], [ -60.204066432092176, -30.916666663945314 ], [ -60.198822418685261, -30.90833333061272 ], [ -60.193966108390086, -30.90833333061272 ], [ -60.189109798094933, -30.90833333061272 ], [ -60.191730561775195, -30.912499997279014 ], [ -60.186874040025792, -30.912499997279014 ], [ -60.192116784211244, -30.920833330611615 ] ] ] ] } },
{ "type": "Feature", "properties": { "_uid_": 791100.0, "id": 9467202.0, "initialdat": "2008-09-02", "finaldate": "2008-09-02", "area_ha": 21.445656017291547 }, "geometry": { "type": "MultiPolygon", "coordinates": [ [ [ [ -60.140927806319425, -30.916666663945314 ], [ -60.136071073071719, -30.916666663945314 ], [ -60.138690391519575, -30.920833330611615 ], [ -60.14354733630973, -30.920833330611615 ], [ -60.140927806319425, -30.916666663945314 ] ] ] ] } },
{ "type": "Feature", "properties": { "_uid_": 791102.0, "id": 9467205.0, "initialdat": "2008-09-09", "finaldate": "2008-09-09", "area_ha": 214.45807974323034 }, "geometry": { "type": "MultiPolygon", "coordinates": [ [ [ [ -60.138308822531911, -30.912499997279014 ], [ -60.128595779033134, -30.912499997279014 ], [ -60.131214339824005, -30.916666663945314 ], [ -60.126357606576278, -30.916666663945314 ], [ -60.12897650193927, -30.920833330611615 ], [ -60.124119557149115, -30.920833330611615 ], [ -60.126738787095078, -30.924999997277908 ], [ -60.121881630718377, -30.924999997277908 ], [ -60.124501195258141, -30.929166663944205 ], [ -60.129358563265527, -30.929166663944205 ], [ -60.134215931272912, -30.929166663944205 ], [ -60.131595943471787, -30.924999997277908 ], [ -60.146167412601905, -30.924999997277908 ], [ -60.14354733630973, -30.920833330611615 ], [ -60.138690391519575, -30.920833330611615 ], [ -60.136071073071719, -30.916666663945314 ], [ -60.140927806319425, -30.916666663945314 ], [ -60.138308822531911, -30.912499997279014 ] ] ] ] } },
{ "type": "Feature", "properties": { "_uid_": 791104.0, "id": 9467210.0, "initialdat": "2008-09-09", "finaldate": "2008-09-09", "area_ha": 64.338379956102372 }, "geometry": { "type": "MultiPolygon", "coordinates": [ [ [ [ -60.285191288112003, -30.937499997276799 ], [ -60.28033349671086, -30.937499997276799 ], [ -60.282961265042637, -30.941666663943099 ], [ -60.278103261878371, -30.941666663943099 ], [ -60.280731366348725, -30.9458333306094 ], [ -60.290447796291751, -30.9458333306094 ], [ -60.285191288112003, -30.937499997276799 ] ] ] ] } },
{ "type": "Feature", "properties": { "_uid_": 791112.0, "id": 9467225.0, "initialdat": "2008-09-02", "finaldate": "2008-09-02", "area_ha": 21.446524439203738 }, "geometry": { "type": "MultiPolygon", "coordinates": [ [ [ [ -60.284104775038642, -31.112499997261299 ], [ -60.279238051475616, -31.112499997261299 ], [ -60.28188400616709, -31.116666663927592 ], [ -60.286750943354761, -31.116666663927592 ], [ -60.284104775038642, -31.112499997261299 ] ] ] ] } },
{ "type": "Feature", "properties": { "_uid_": 857151.0, "id": 9467199.0, "initialdat": "2008-09-15", "finaldate": "2008-09-16", "area_ha": 107.22792363085746 }, "geometry": { "type": "MultiPolygon", "coordinates": [ [ [ [ -60.145022809952685, -30.89999999728013 ], [ -60.135311034914729, -30.89999999728013 ], [ -60.140546695143314, -30.90833333061272 ], [ -60.150259315733621, -30.90833333061272 ], [ -60.147641062843149, -30.904166663946423 ], [ -60.152496888709202, -30.904166663946423 ], [ -60.149878697471671, -30.89999999728013 ], [ -60.145022809952685, -30.89999999728013 ] ] ] ] } },
{ "type": "Feature", "properties": { "_uid_": 857152.0, "id": 9467200.0, "initialdat": "2008-09-21", "finaldate": "2008-09-30", "area_ha": 600.47822423403261 }, "geometry": { "type": "MultiPolygon", "coordinates": [ [ [ [ -60.1125485670308, -30.933333330610505 ], [ -60.107690987348612, -30.933333330610505 ], [ -60.110310797670643, -30.937499997276799 ], [ -60.115168589071793, -30.937499997276799 ], [ -60.1125485670308, -30.933333330610505 ] ] ], [ [ [ -60.1125485670308, -30.933333330610505 ], [ -60.117406146713009, -30.933333330610505 ], [ -60.114786459243376, -30.929166663944205 ], [ -60.124501195258141, -30.929166663944205 ], [ -60.121881630718377, -30.924999997277908 ], [ -60.126738787095078, -30.924999997277908 ], [ -60.124119557149115, -30.920833330611615 ], [ -60.12897650193927, -30.920833330611615 ], [ -60.126357606576278, -30.916666663945314 ], [ -60.131214339824005, -30.916666663945314 ], [ -60.128595779033134, -30.912499997279014 ], [ -60.123739257283731, -30.912499997279014 ], [ -60.121121453962651, -30.90833333061272 ], [ -60.11140883337233, -30.90833333061272 ], [ -60.108791998743932, -30.904166663946423 ], [ -60.103935899858904, -30.904166663946423 ], [ -60.099079800973882, -30.904166663946423 ], [ -60.094223702088854, -30.904166663946423 ], [ -60.096839902486856, -30.90833333061272 ], [ -60.099456648536808, -30.912499997279014 ], [ -60.102073940337704, -30.916666663945314 ], [ -60.104691777988513, -30.920833330611615 ], [ -60.107310161588259, -30.924999997277908 ], [ -60.109929091236005, -30.929166663944205 ], [ -60.1125485670308, -30.933333330610505 ] ] ] ] } },
{ "type": "Feature", "properties": { "_uid_": 857154.0, "id": 9467206.0, "initialdat": "2008-09-18", "finaldate": "2008-09-18", "area_ha": 21.44571145029068 }, "geometry": { "type": "MultiPolygon", "coordinates": [ [ [ [ -60.134215931272912, -30.929166663944205 ], [ -60.129358563265527, -30.929166663944205 ], [ -60.131978885759594, -30.933333330610505 ], [ -60.136836465441782, -30.933333330610505 ], [ -60.134215931272912, -30.929166663944205 ] ] ] ] } },
{ "type": "Feature", "properties": { "_uid_": 857160.0, "id": 9467219.0, "initialdat": "2008-09-23", "finaldate": "2008-09-24", "area_ha": 85.784803001070017 }, "geometry": { "type": "MultiPolygon", "coordinates": [ [ [ [ -60.205162454352632, -31.041666663934237 ], [ -60.200299355608323, -31.041666663934237 ], [ -60.202934466415982, -31.045833330600537 ], [ -60.212661089643483, -31.045833330600537 ], [ -60.210025553096941, -31.041666663934237 ], [ -60.214888651841243, -31.041666663934237 ], [ -60.212253451569538, -31.037499997267943 ], [ -60.202527679731098, -31.037499997267943 ], [ -60.205162454352632, -31.041666663934237 ] ] ] ] } },
{ "type": "Feature", "properties": { "_uid_": 857165.0, "id": 9467228.0, "initialdat": "2008-09-27", "finaldate": "2008-09-27", "area_ha": 107.23873895918132 }, "geometry": { "type": "MultiPolygon", "coordinates": [ [ [ [ -60.412574875420141, -31.412499997234718 ], [ -60.402810437909942, -31.412499997234718 ], [ -60.408176713510734, -31.420833330567309 ], [ -60.413059366009435, -31.420833330567309 ], [ -60.422824671006786, -31.420833330567309 ], [ -60.420140603614563, -31.416666663901015 ], [ -60.415258168010219, -31.416666663901015 ], [ -60.412574875420141, -31.412499997234718 ] ] ] ] } },
{ "type": "Feature", "properties": { "_uid_": 857166.0, "id": 9467229.0, "initialdat": "2008-09-21", "finaldate": "2008-09-24", "area_ha": 42.895814958155157 }, "geometry": { "type": "MultiPolygon", "coordinates": [ [ [ [ -60.376680602073556, -31.424999997233609 ], [ -60.379363615834507, -31.42916666389991 ], [ -60.384246702257165, -31.42916666389991 ], [ -60.381563471511669, -31.424999997233609 ], [ -60.378880798518679, -31.420833330567309 ], [ -60.373998146019986, -31.420833330567309 ], [ -60.376680602073556, -31.424999997233609 ] ] ] ] } },
{ "type": "Feature", "properties": { "_uid_": 961321.0, "id": 9601347.0, "initialdat": "2008-10-29", "finaldate": "2008-10-29", "area_ha": 42.886195581948755 }, "geometry": { "type": "MultiPolygon", "coordinates": [ [ [ [ -60.030572357984141, -30.333333330663667 ], [ -60.025744808940466, -30.333333330663667 ], [ -60.028299298479752, -30.337499997329964 ], [ -60.033127052967323, -30.337499997329964 ], [ -60.030572357984141, -30.333333330663667 ] ] ], [ [ [ -60.028299298479752, -30.337499997329964 ], [ -60.023471543992152, -30.337499997329964 ], [ -60.026026362960863, -30.341666663996264 ], [ -60.030854322935369, -30.341666663996264 ], [ -60.028299298479752, -30.337499997329964 ] ] ] ] } },
{ "type": "Feature", "properties": { "_uid_": 961322.0, "id": 9601349.0, "initialdat": "2008-10-29", "finaldate": "2008-10-31", "area_ha": 128.66316151924133 }, "geometry": { "type": "MultiPolygon", "coordinates": [ [ [ [ -60.020064950953099, -30.37916666399294 ], [ -60.015235139659055, -30.37916666399294 ], [ -60.017793871185908, -30.383333330659234 ], [ -60.003303819551107, -30.383333330659234 ], [ -60.005862468817774, -30.387499997325534 ], [ -60.025183361506798, -30.387499997325534 ], [ -60.022624156229945, -30.383333330659234 ], [ -60.027453905609107, -30.383333330659234 ], [ -60.024894762247136, -30.37916666399294 ], [ -60.020064950953099, -30.37916666399294 ] ] ] ] } },
{ "type": "Feature", "properties": { "_uid_": 961328.0, "id": 9601358.0, "initialdat": "2008-10-30", "finaldate": "2008-10-31", "area_ha": 85.784295979952816 }, "geometry": { "type": "MultiPolygon", "coordinates": [ [ [ [ -60.359829769201689, -31.070833330598322 ], [ -60.350100589677297, -31.070833330598322 ], [ -60.355390565788902, -31.079166663930916 ], [ -60.360255581955748, -31.079166663930916 ], [ -60.35761010516989, -31.074999997264616 ], [ -60.362474908112198, -31.074999997264616 ], [ -60.359829769201689, -31.070833330598322 ] ] ], [ [ [ -60.355390565788902, -31.079166663930916 ], [ -60.352745302227568, -31.074999997264616 ], [ -60.347880499285253, -31.074999997264616 ], [ -60.350525549622049, -31.079166663930916 ], [ -60.355390565788902, -31.079166663930916 ] ] ] ] } },
{ "type": "Feature", "properties": { "_uid_": 1007791.0, "id": 9702019.0, "initialdat": "2008-11-05", "finaldate": "2008-11-08", "area_ha": 42.886651870441433 }, "geometry": { "type": "MultiPolygon", "coordinates": [ [ [ [ -60.015522915162293, -30.387499997325534 ], [ -60.01069269199003, -30.387499997325534 ], [ -60.005862468817774, -30.387499997325534 ], [ -60.008421653672478, -30.391666663991835 ], [ -60.013252082848503, -30.391666663991835 ], [ -60.018082512024542, -30.391666663991835 ], [ -60.015522915162293, -30.387499997325534 ] ] ] ] } },
{ "type": "Feature", "properties": { "_uid_": 1007795.0, "id": 9702023.0, "initialdat": "2008-11-06", "finaldate": "2008-11-06", "area_ha": 21.443727901554109 }, "geometry": { "type": "MultiPolygon", "coordinates": [ [ [ [ -60.096131782621654, -30.479166663984081 ], [ -60.091297017393757, -30.479166663984081 ], [ -60.093869251149364, -30.483333330650375 ], [ -60.098704223331467, -30.483333330650375 ], [ -60.096131782621654, -30.479166663984081 ] ] ] ] } },
{ "type": "Feature", "properties": { "_uid_": 1007797.0, "id": 9702025.0, "initialdat": "2008-11-14", "finaldate": "2008-11-14", "area_ha": 21.444020603036879 }, "geometry": { "type": "MultiPolygon", "coordinates": [ [ [ [ -60.093812724406341, -30.545833330644836 ], [ -60.088974642712067, -30.545833330644836 ], [ -60.091553628077335, -30.549999997311136 ], [ -60.096391917419389, -30.549999997311136 ], [ -60.093812724406341, -30.545833330644836 ] ] ] ] } },
{ "type": "Feature", "properties": { "_uid_": 1007798.0, "id": 9702026.0, "initialdat": "2008-11-14", "finaldate": "2008-11-14", "area_ha": 42.888059569931031 }, "geometry": { "type": "MultiPolygon", "coordinates": [ [ [ [ -60.059946152546431, -30.545833330644836 ], [ -60.055108070852157, -30.545833330644836 ], [ -60.060263673417978, -30.554166663977433 ], [ -60.065102170451219, -30.554166663977433 ], [ -60.059946152546431, -30.545833330644836 ] ] ] ] } },
{ "type": "Feature", "properties": { "_uid_": 1007799.0, "id": 9702028.0, "initialdat": "2008-11-12", "finaldate": "2008-11-14", "area_ha": 171.55280783920287 }, "geometry": { "type": "MultiPolygon", "coordinates": [ [ [ [ -60.07058134733284, -30.570833330642628 ], [ -60.073162114039043, -30.574999997308922 ], [ -60.082841186320394, -30.574999997308922 ], [ -60.080260273534776, -30.570833330642628 ], [ -60.085099332029721, -30.570833330642628 ], [ -60.082518481116516, -30.566666663976328 ], [ -60.077679360749158, -30.566666663976328 ], [ -60.07509925707874, -30.562499997310027 ], [ -60.079938169624619, -30.562499997310027 ], [ -60.077358397457267, -30.558333330643727 ], [ -60.06768098792157, -30.558333330643727 ], [ -60.072840240381765, -30.566666663976328 ], [ -60.068001120014415, -30.566666663976328 ], [ -60.07058134733284, -30.570833330642628 ] ] ] ] } },
{ "type": "Feature", "properties": { "_uid_": 1007802.0, "id": 9702033.0, "initialdat": "2008-11-12", "finaldate": "2008-11-14", "area_ha": 42.888425988745688 }, "geometry": { "type": "MultiPolygon", "coordinates": [ [ [ [ -60.201911654617867, -30.587499997307813 ], [ -60.197071494491247, -30.587499997307813 ], [ -60.199659413691535, -30.591666663974113 ], [ -60.204499781900438, -30.591666663974113 ], [ -60.201911654617867, -30.587499997307813 ] ] ], [ [ [ -60.199659413691535, -30.591666663974113 ], [ -60.194819045482674, -30.591666663974113 ], [ -60.197407297473205, -30.59583333064041 ], [ -60.202247873807835, -30.59583333064041 ], [ -60.199659413691535, -30.591666663974113 ] ] ] ] } },
{ "type": "Feature", "properties": { "_uid_": 1007803.0, "id": 9702035.0, "initialdat": "2008-11-06", "finaldate": "2008-11-06", "area_ha": 21.444258885514735 }, "geometry": { "type": "MultiPolygon", "coordinates": [ [ [ [ -60.204836874937278, -30.599999997306703 ], [ -60.199996090433388, -30.599999997306703 ], [ -60.202585424460402, -30.604166663973004 ], [ -60.207426417177068, -30.604166663973004 ], [ -60.204836874937278, -30.599999997306703 ] ] ] ] } },
{ "type": "Feature", "properties": { "_uid_": 1007804.0, "id": 9702037.0, "initialdat": "2008-11-06", "finaldate": "2008-11-06", "area_ha": 21.444277073276044 }, "geometry": { "type": "MultiPolygon", "coordinates": [ [ [ [ -60.226790388043803, -30.604166663973004 ], [ -60.221949395327108, -30.604166663973004 ], [ -60.224540103543319, -30.608333330639304 ], [ -60.229381304516295, -30.608333330639304 ], [ -60.226790388043803, -30.604166663973004 ] ] ] ] } },
{ "type": "Feature", "properties": { "_uid_": 1007805.0, "id": 9702038.0, "initialdat": "2008-11-07", "finaldate": "2008-11-07", "area_ha": 21.444295334029199 }, "geometry": { "type": "MultiPolygon", "coordinates": [ [ [ [ -60.190651696732566, -30.608333330639304 ], [ -60.185810495759604, -30.608333330639304 ], [ -60.188400079012695, -30.612499997305598 ], [ -60.193241488285459, -30.612499997305598 ], [ -60.190651696732566, -30.608333330639304 ] ] ] ] } },
{ "type": "Feature", "properties": { "_uid_": 1007807.0, "id": 9702040.0, "initialdat": "2008-11-06", "finaldate": "2008-11-06", "area_ha": 42.888682570767401 }, "geometry": { "type": "MultiPolygon", "coordinates": [ [ [ [ -60.215198291530804, -30.616666663971898 ], [ -60.210356673914696, -30.616666663971898 ], [ -60.212948173181431, -30.620833330638192 ], [ -60.217789999184426, -30.620833330638192 ], [ -60.215198291530804, -30.616666663971898 ] ] ], [ [ [ -60.212948173181431, -30.620833330638192 ], [ -60.208106347178422, -30.620833330638192 ], [ -60.210698179567913, -30.624999997304489 ], [ -60.215540214001365, -30.624999997304489 ], [ -60.212948173181431, -30.620833330638192 ] ] ] ] } },
{ "type": "Feature", "properties": { "_uid_": 1007808.0, "id": 9702042.0, "initialdat": "2008-11-06", "finaldate": "2008-11-06", "area_ha": 21.444423898911477 }, "geometry": { "type": "MultiPolygon", "coordinates": [ [ [ [ -60.18942096685138, -30.637499997303383 ], [ -60.184578306865291, -30.637499997303383 ], [ -60.187170846034249, -30.64166666396968 ], [ -60.19201371462502, -30.64166666396968 ], [ -60.18942096685138, -30.637499997303383 ] ] ] ] } },
{ "type": "Feature", "properties": { "_uid_": 1007816.0, "id": 9702054.0, "initialdat": "2008-11-05", "finaldate": "2008-11-05", "area_ha": 21.44506675498485 }, "geometry": { "type": "MultiPolygon", "coordinates": [ [ [ [ -60.013740818291303, -30.78333333062379 ], [ -60.008890831155497, -30.78333333062379 ], [ -60.01149083028708, -30.787499997290091 ], [ -60.016341027557779, -30.787499997290091 ], [ -60.013740818291303, -30.78333333062379 ] ] ] ] } },
{ "type": "Feature", "properties": { "_uid_": 1007817.0, "id": 9702055.0, "initialdat": "2008-11-02", "finaldate": "2008-11-05", "area_ha": 64.335318785107134 }, "geometry": { "type": "MultiPolygon", "coordinates": [ [ [ [ -60.021543074443336, -30.795833330622688 ], [ -60.016692728223141, -30.795833330622688 ], [ -60.014091372126309, -30.791666663956391 ], [ -60.009240964676835, -30.791666663956391 ], [ -60.014443256381362, -30.799999997288989 ], [ -60.019294084319981, -30.799999997288989 ], [ -60.024144912258592, -30.799999997288989 ], [ -60.021543074443336, -30.795833330622688 ] ] ] ] } },
{ "type": "Feature", "properties": { "_uid_": 1007818.0, "id": 9702056.0, "initialdat": "2008-11-02", "finaldate": "2008-11-02", "area_ha": 42.890262084043023 }, "geometry": { "type": "MultiPolygon", "coordinates": [ [ [ [ -60.186464075294808, -30.795833330622688 ], [ -60.18161345762271, -30.795833330622688 ], [ -60.184222234232841, -30.799999997288989 ], [ -60.189073062171452, -30.799999997288989 ], [ -60.186464075294808, -30.795833330622688 ] ] ], [ [ [ -60.184222234232841, -30.799999997288989 ], [ -60.179371406294223, -30.799999997288989 ], [ -60.181980517088014, -30.804166663955282 ], [ -60.186831555337029, -30.804166663955282 ], [ -60.184222234232841, -30.799999997288989 ] ] ] ] } },
{ "type": "Feature", "properties": { "_uid_": 1007819.0, "id": 9702057.0, "initialdat": "2008-11-10", "finaldate": "2008-11-14", "area_ha": 107.22769812147618 }, "geometry": { "type": "MultiPolygon", "coordinates": [ [ [ [ -60.296616553267164, -30.870833330616037 ], [ -60.291762144076813, -30.870833330616037 ], [ -60.289141354483952, -30.866666663949744 ], [ -60.284287156307265, -30.866666663949744 ], [ -60.279432958130556, -30.866666663949744 ], [ -60.282053325696104, -30.870833330616037 ], [ -60.284674239917294, -30.874999997282345 ], [ -60.289528860165319, -30.874999997282345 ], [ -60.299238100661377, -30.874999997282345 ], [ -60.296616553267164, -30.870833330616037 ] ] ] ] } },
{ "type": "Feature", "properties": { "_uid_": 1007820.0, "id": 9702058.0, "initialdat": "2008-11-02", "finaldate": "2008-11-02", "area_ha": 21.445471636545658 }, "geometry": { "type": "MultiPolygon", "coordinates": [ [ [ [ -60.284674239917294, -30.874999997282345 ], [ -60.279819619669247, -30.874999997282345 ], [ -60.282440869543365, -30.879166663948638 ], [ -60.287295700893104, -30.879166663948638 ], [ -60.284674239917294, -30.874999997282345 ] ] ] ] } },
{ "type": "Feature", "properties": { "_uid_": 1007821.0, "id": 9702060.0, "initialdat": "2008-11-02", "finaldate": "2008-11-02", "area_ha": 21.44552702653408 }, "geometry": { "type": "MultiPolygon", "coordinates": [ [ [ [ -60.273119248763891, -30.887499997281235 ], [ -60.268263995078627, -30.887499997281235 ], [ -60.270886040743662, -30.891666663947529 ], [ -60.275741505662772, -30.891666663947529 ], [ -60.273119248763891, -30.887499997281235 ] ] ] ] } },
{ "type": "Feature", "properties": { "_uid_": 1007822.0, "id": 9702062.0, "initialdat": "2008-11-04", "finaldate": "2008-11-04", "area_ha": 21.445563918030263 }, "geometry": { "type": "MultiPolygon", "coordinates": [ [ [ [ -60.283219985733496, -30.895833330613829 ], [ -60.278364309536478, -30.895833330613829 ], [ -60.280987660484151, -30.89999999728013 ], [ -60.285843548003136, -30.89999999728013 ], [ -60.283219985733496, -30.895833330613829 ] ] ] ] } },
{ "type": "Feature", "properties": { "_uid_": 1007823.0, "id": 9702063.0, "initialdat": "2008-11-10", "finaldate": "2008-11-12", "area_ha": 64.336802253746981 }, "geometry": { "type": "MultiPolygon", "coordinates": [ [ [ [ -60.276523383407849, -30.90833333061272 ], [ -60.271667073112688, -30.90833333061272 ], [ -60.274291431514797, -30.912499997279014 ], [ -60.279147953264172, -30.912499997279014 ], [ -60.276523383407849, -30.90833333061272 ] ] ], [ [ [ -60.283611558604974, -30.904166663946423 ], [ -60.27875545971996, -30.904166663946423 ], [ -60.281379693703009, -30.90833333061272 ], [ -60.286236003998162, -30.90833333061272 ], [ -60.283611558604974, -30.904166663946423 ] ] ], [ [ [ -60.290699435522122, -30.89999999728013 ], [ -60.285843548003136, -30.89999999728013 ], [ -60.28846765749001, -30.904166663946423 ], [ -60.293323756375038, -30.904166663946423 ], [ -60.290699435522122, -30.89999999728013 ] ] ] ] } },
{ "type": "Feature", "properties": { "_uid_": 1007824.0, "id": 9702064.0, "initialdat": "2008-11-01", "finaldate": "2008-11-01", "area_ha": 21.445637696015837 }, "geometry": { "type": "MultiPolygon", "coordinates": [ [ [ [ -60.274291431514797, -30.912499997279014 ], [ -60.269434909765408, -30.912499997279014 ], [ -60.272059604007758, -30.916666663945314 ], [ -60.276916337255479, -30.916666663945314 ], [ -60.274291431514797, -30.912499997279014 ] ] ] ] } },
{ "type": "Feature", "properties": { "_uid_": 1007825.0, "id": 9702065.0, "initialdat": "2008-11-05", "finaldate": "2008-11-05", "area_ha": 21.445748349297048 }, "geometry": { "type": "MultiPolygon", "coordinates": [ [ [ [ -60.061732883659154, -30.937499997276799 ], [ -60.056875092257997, -30.937499997276799 ], [ -60.059493119487087, -30.941666663943099 ], [ -60.064351122651345, -30.941666663943099 ], [ -60.061732883659154, -30.937499997276799 ] ] ] ] } },
{ "type": "Feature", "properties": { "_uid_": 1045021.0, "id": 9702027.0, "initialdat": "2008-11-19", "finaldate": "2008-11-19", "area_ha": 21.444057251238824 }, "geometry": { "type": "MultiPolygon", "coordinates": [ [ [ [ -60.0747791645177, -30.554166663977433 ], [ -60.06994066748446, -30.554166663977433 ], [ -60.072519692689433, -30.558333330643727 ], [ -60.077358397457267, -30.558333330643727 ], [ -60.0747791645177, -30.554166663977433 ] ] ] ] } },
{ "type": "Feature", "properties": { "_uid_": 1045022.0, "id": 9702029.0, "initialdat": "2008-11-29", "finaldate": "2008-11-29", "area_ha": 21.444075566327573 }, "geometry": { "type": "MultiPolygon", "coordinates": [ [ [ [ -60.062842283153721, -30.558333330643727 ], [ -60.058003578385872, -30.558333330643727 ], [ -60.060582519441056, -30.562499997310027 ], [ -60.065421431986948, -30.562499997310027 ], [ -60.062842283153721, -30.558333330643727 ] ] ] ] } },
{ "type": "Feature", "properties": { "_uid_": 1045024.0, "id": 9702034.0, "initialdat": "2008-11-10", "finaldate": "2008-11-19", "area_ha": 450.33070228215456 }, "geometry": { "type": "MultiPolygon", "coordinates": [ [ [ [ -60.228337787747257, -30.595710067952528 ], [ -60.223898705417795, -30.591666663974113 ], [ -60.223861254735951, -30.591666663974113 ], [ -60.226450755481061, -30.59583333064041 ], [ -60.228412504468345, -30.59583333064041 ], [ -60.228337787747257, -30.595710067952528 ] ] ], [ [ [ -60.226790388043803, -30.604166663973004 ], [ -60.229381304516295, -30.608333330639304 ], [ -60.234222505489257, -30.608333330639304 ], [ -60.231631380760469, -30.604166663973004 ], [ -60.226790388043803, -30.604166663973004 ] ] ], [ [ [ -60.22420001295292, -30.599999997306703 ], [ -60.229040797456825, -30.599999997306703 ], [ -60.226450755481061, -30.59583333064041 ], [ -60.221610179146424, -30.59583333064041 ], [ -60.216769602811766, -30.59583333064041 ], [ -60.211929026477137, -30.59583333064041 ], [ -60.214518443945117, -30.599999997306703 ], [ -60.209677659441198, -30.599999997306703 ], [ -60.204836874937278, -30.599999997306703 ], [ -60.207426417177068, -30.604166663973004 ], [ -60.202585424460402, -30.604166663973004 ], [ -60.207765716103793, -30.612499997305598 ], [ -60.212607125376557, -30.612499997305598 ], [ -60.215198291530804, -30.616666663971898 ], [ -60.220039909146934, -30.616666663971898 ], [ -60.217448805372157, -30.612499997305598 ], [ -60.227131353194899, -30.612499997305598 ], [ -60.224540103543319, -30.608333330639304 ], [ -60.221949665996164, -30.604166663973004 ], [ -60.226790388043803, -30.604166663973004 ], [ -60.22420001295292, -30.599999997306703 ] ] ], [ [ [ -60.199996090433388, -30.599999997306703 ], [ -60.195155305929475, -30.599999997306703 ], [ -60.197744431743715, -30.604166663973004 ], [ -60.192903439027049, -30.604166663973004 ], [ -60.195492897705535, -30.608333330639304 ], [ -60.200334098678496, -30.608333330639304 ], [ -60.205175299651472, -30.608333330639304 ], [ -60.202585424460402, -30.604166663973004 ], [ -60.199996090433388, -30.599999997306703 ] ] ] ] } },
{ "type": "Feature", "properties": { "_uid_": 1045025.0, "id": 9702041.0, "initialdat": "2008-11-15", "finaldate": "2008-11-15", "area_ha": 21.444350440084936 }, "geometry": { "type": "MultiPolygon", "coordinates": [ [ [ [ -60.203264521175427, -30.620833330638192 ], [ -60.198422695172425, -30.620833330638192 ], [ -60.20101411070106, -30.624999997304489 ], [ -60.205856145134497, -30.624999997304489 ], [ -60.203264521175427, -30.620833330638192 ] ] ] ] } },
{ "type": "Feature", "properties": { "_uid_": 1045026.0, "id": 9702049.0, "initialdat": "2008-11-30", "finaldate": "2008-12-05", "area_ha": 193.0054934136987 }, "geometry": { "type": "MultiPolygon", "coordinates": [ [ [ [ -60.106366273554556, -30.737499997294528 ], [ -60.108965760342031, -30.741666663960821 ], [ -60.111565789898613, -30.745833330627121 ], [ -60.121261985686999, -30.745833330627121 ], [ -60.118661808165314, -30.741666663960821 ], [ -60.123509424934468, -30.741666663960821 ], [ -60.118309736244349, -30.733333330628227 ], [ -60.113462538639396, -30.733333330628227 ], [ -60.110863446635157, -30.72916666396193 ], [ -60.10601618726519, -30.72916666396193 ], [ -60.108614798373601, -30.733333330628227 ], [ -60.103767329438242, -30.733333330628227 ], [ -60.106366273554556, -30.737499997294528 ] ] ] ] } },
{ "type": "Feature", "properties": { "_uid_": 1045027.0, "id": 9702050.0, "initialdat": "2008-11-23", "finaldate": "2008-11-23", "area_ha": 21.444864469957352 }, "geometry": { "type": "MultiPolygon", "coordinates": [ [ [ [ -60.101518595010013, -30.737499997294528 ], [ -60.096670916465484, -30.737499997294528 ], [ -60.099269983947096, -30.741666663960821 ], [ -60.104117872144563, -30.741666663960821 ], [ -60.101518595010013, -30.737499997294528 ] ] ] ] } },
{ "type": "Feature", "properties": { "_uid_": 1045030.0, "id": 9702059.0, "initialdat": "2008-11-21", "finaldate": "2008-12-05", "area_ha": 579.02605287802214 }, "geometry": { "type": "MultiPolygon", "coordinates": [ [ [ [ -60.334182830262598, -30.899651526744915 ], [ -60.331776747703586, -30.895833330613829 ], [ -60.333782811703713, -30.895833330613829 ], [ -60.333262067108784, -30.890862798738535 ], [ -60.333156954911388, -30.89047526864692 ], [ -60.329951148075075, -30.883333330614935 ], [ -60.328758048686467, -30.883333330614935 ], [ -60.323903006190989, -30.883333330614935 ], [ -60.314192921200032, -30.883333330614935 ], [ -60.309337878704554, -30.883333330614935 ], [ -60.311961278246038, -30.887499997281235 ], [ -60.31983476063602, -30.89999999728013 ], [ -60.324690648154991, -30.89999999728013 ], [ -60.32954653567397, -30.89999999728013 ], [ -60.33421933825656, -30.89999999728013 ], [ -60.334182830262598, -30.899651526744915 ] ] ], [ [ [ -60.302250770875496, -30.887499997281235 ], [ -60.297395517190232, -30.887499997281235 ], [ -60.300018830258317, -30.891666663947529 ], [ -60.295163365339207, -30.891666663947529 ], [ -60.297787014324527, -30.895833330613829 ], [ -60.300411210560085, -30.89999999728013 ], [ -60.305267098079057, -30.89999999728013 ], [ -60.310122985598035, -30.89999999728013 ], [ -60.31497887311702, -30.89999999728013 ], [ -60.312354042915551, -30.895833330613829 ], [ -60.317209719112569, -30.895833330613829 ], [ -60.314585225015648, -30.891666663947529 ], [ -60.311961278246038, -30.887499997281235 ], [ -60.302250770875496, -30.887499997281235 ] ] ] ] } },
{ "type": "Feature", "properties": { "_uid_": 1045031.0, "id": 9702061.0, "initialdat": "2008-11-19", "finaldate": "2008-11-19", "area_ha": 21.445563524103164 }, "geometry": { "type": "MultiPolygon", "coordinates": [ [ [ [ -60.317209719112569, -30.895833330613829 ], [ -60.312354042915551, -30.895833330613829 ], [ -60.31497887311702, -30.89999999728013 ], [ -60.31983476063602, -30.89999999728013 ], [ -60.317209719112569, -30.895833330613829 ] ] ] ] } },
{ "type": "Feature", "properties": { "_uid_": 1147889.0, "id": 9802334.0, "initialdat": "2008-12-22", "finaldate": "2008-12-22", "area_ha": 42.886725087285043 }, "geometry": { "type": "MultiPolygon", "coordinates": [ [ [ [ -59.933691210644071, -30.395833330658128 ], [ -59.924029940198224, -30.395833330658128 ], [ -59.926586486895495, -30.399999997324425 ], [ -59.936248169521377, -30.399999997324425 ], [ -59.933691210644071, -30.395833330658128 ] ] ] ] } }
]
}
