{
"type": "FeatureCollection",
"name": "2009",
"crs": { "type": "name", "properties": { "name": "urn:ogc:def:crs:OGC:1.3:CRS84" } },
"features": [
{ "type": "Feature", "properties": { "_uid_": 24960.0, "id": 9915142.0, "initialdat": "2009-01-04", "finaldate": "2009-01-06", "area_ha": 128.66347336332797 }, "geometry": { "type": "MultiPolygon", "coordinates": [ [ [ [ -60.058003578385872, -30.558333330643727 ], [ -60.053164873618037, -30.558333330643727 ], [ -60.055743606895177, -30.562499997310027 ], [ -60.060582519441056, -30.562499997310027 ], [ -60.070260344532834, -30.562499997310027 ], [ -60.06768098792157, -30.558333330643727 ], [ -60.077358397457267, -30.558333330643727 ], [ -60.0747791645177, -30.554166663977433 ], [ -60.060263673417978, -30.554166663977433 ], [ -60.062842283153721, -30.558333330643727 ], [ -60.058003578385872, -30.558333330643727 ] ] ] ] } },
{ "type": "Feature", "properties": { "_uid_": 24961.0, "id": 9915143.0, "initialdat": "2009-01-10", "finaldate": "2009-01-10", "area_ha": 21.444075563538075 }, "geometry": { "type": "MultiPolygon", "coordinates": [ [ [ [ -60.077358397457267, -30.558333330643727 ], [ -60.072519692689433, -30.558333330643727 ], [ -60.07509925707874, -30.562499997310027 ], [ -60.079938169624619, -30.562499997310027 ], [ -60.077358397457267, -30.558333330643727 ] ] ] ] } },
{ "type": "Feature", "properties": { "_uid_": 24962.0, "id": 9915144.0, "initialdat": "2009-01-04", "finaldate": "2009-01-06", "area_ha": 42.888279279935361 }, "geometry": { "type": "MultiPolygon", "coordinates": [ [ [ [ -60.07058134733284, -30.570833330642628 ], [ -60.06574201910054, -30.570833330642628 ], [ -60.068322577898364, -30.574999997308922 ], [ -60.073162114039043, -30.574999997308922 ], [ -60.07058134733284, -30.570833330642628 ] ] ], [ [ [ -60.068322577898364, -30.574999997308922 ], [ -60.063483041757692, -30.574999997308922 ], [ -60.066063932044806, -30.579166663975219 ], [ -60.070903676137313, -30.579166663975219 ], [ -60.068322577898364, -30.574999997308922 ] ] ] ] } },
{ "type": "Feature", "properties": { "_uid_": 24965.0, "id": 9915149.0, "initialdat": "2009-01-12", "finaldate": "2009-01-12", "area_ha": 42.890962023484704 }, "geometry": { "type": "MultiPolygon", "coordinates": [ [ [ [ -60.061361708507796, -30.874999997282345 ], [ -60.056507088259764, -30.874999997282345 ], [ -60.05911862745544, -30.879166663948638 ], [ -60.063973458805179, -30.879166663948638 ], [ -60.061361708507796, -30.874999997282345 ] ] ], [ [ [ -60.05911862745544, -30.879166663948638 ], [ -60.054263796105701, -30.879166663948638 ], [ -60.05687566893959, -30.883333330614935 ], [ -60.061730711435075, -30.883333330614935 ], [ -60.05911862745544, -30.879166663948638 ] ] ] ] } },
{ "type": "Feature", "properties": { "_uid_": 24967.0, "id": 9915151.0, "initialdat": "2009-01-09", "finaldate": "2009-01-14", "area_ha": 128.67551910231114 }, "geometry": { "type": "MultiPolygon", "coordinates": [ [ [ [ -60.138773384887237, -30.974999997273482 ], [ -60.129053987168447, -30.974999997273482 ], [ -60.134304665696426, -30.983333330606076 ], [ -60.144024912146897, -30.983333330606076 ], [ -60.141399148517067, -30.979166663939775 ], [ -60.146258785868049, -30.979166663939775 ], [ -60.143633083746629, -30.974999997273482 ], [ -60.138773384887237, -30.974999997273482 ] ] ], [ [ [ -60.134304665696426, -30.983333330606076 ], [ -60.131679052807449, -30.979166663939775 ], [ -60.126819141787237, -30.979166663939775 ], [ -60.12944454247117, -30.983333330606076 ], [ -60.134304665696426, -30.983333330606076 ] ] ] ] } },
{ "type": "Feature", "properties": { "_uid_": 24970.0, "id": 9915156.0, "initialdat": "2009-01-01", "finaldate": "2009-01-07", "area_ha": 193.02203508982657 }, "geometry": { "type": "MultiPolygon", "coordinates": [ [ [ [ -60.508218462280858, -31.242444090693866 ], [ -60.507720373632424, -31.241666663916515 ], [ -60.508446169474681, -31.241666663916515 ], [ -60.509462719046532, -31.238196010028098 ], [ -60.509404017235319, -31.236687275752079 ], [ -60.507255903263228, -31.233333330583925 ], [ -60.497510029718356, -31.233333330583925 ], [ -60.502847006978605, -31.241666663916515 ], [ -60.500178240671637, -31.237499997250218 ], [ -60.495305088980864, -31.237499997250218 ], [ -60.500642747079404, -31.245833330582816 ], [ -60.505516328741031, -31.245833330582816 ], [ -60.507225758753286, -31.245833330582816 ], [ -60.508218462280858, -31.242444090693866 ] ] ], [ [ [ -60.497973640324794, -31.241666663916515 ], [ -60.488226907017157, -31.241666663916515 ], [ -60.490895583756185, -31.245833330582816 ], [ -60.500642747079404, -31.245833330582816 ], [ -60.497973640324794, -31.241666663916515 ] ] ] ] } },
{ "type": "Feature", "properties": { "_uid_": 65078.0, "id": 9915146.0, "initialdat": "2009-01-23", "finaldate": "2009-01-25", "area_ha": 42.890004695117469 }, "geometry": { "type": "MultiPolygon", "coordinates": [ [ [ [ -60.185369654805861, -30.770833330624907 ], [ -60.180520297811661, -30.770833330624907 ], [ -60.183126439532764, -30.7749999972912 ], [ -60.18797600653032, -30.7749999972912 ], [ -60.185369654805861, -30.770833330624907 ] ] ], [ [ [ -60.180520297811661, -30.770833330624907 ], [ -60.177914700027969, -30.766666663958606 ], [ -60.1730655529933, -30.766666663958606 ], [ -60.175670940817461, -30.770833330624907 ], [ -60.180520297811661, -30.770833330624907 ] ] ] ] } },
{ "type": "Feature", "properties": { "_uid_": 65079.0, "id": 9915147.0, "initialdat": "2009-01-28", "finaldate": "2009-01-31", "area_ha": 150.11520984286071 }, "geometry": { "type": "MultiPolygon", "coordinates": [ [ [ [ -60.171183794155276, -30.779166663957497 ], [ -60.173790393772819, -30.78333333062379 ], [ -60.183490368044446, -30.78333333062379 ], [ -60.180883348244798, -30.779166663957497 ], [ -60.185733125289552, -30.779166663957497 ], [ -60.183126439532764, -30.7749999972912 ], [ -60.180520297811661, -30.770833330624907 ], [ -60.170821583823269, -30.770833330624907 ], [ -60.173427305537643, -30.7749999972912 ], [ -60.168577738540094, -30.7749999972912 ], [ -60.171183794155276, -30.779166663957497 ] ] ] ] } },
{ "type": "Feature", "properties": { "_uid_": 171035.0, "id": 10078185.0, "initialdat": "2009-03-13", "finaldate": "2009-03-13", "area_ha": 64.33437324390411 }, "geometry": { "type": "MultiPolygon", "coordinates": [ [ [ [ -60.071739550285891, -30.720833330629336 ], [ -60.057199029174768, -30.720833330629336 ], [ -60.059794670041342, -30.724999997295637 ], [ -60.074335819586231, -30.724999997295637 ], [ -60.071739550285891, -30.720833330629336 ] ] ] ] } },
{ "type": "Feature", "properties": { "_uid_": 203499.0, "id": 10078183.0, "initialdat": "2009-03-04", "finaldate": "2009-03-16", "area_ha": 471.7846896230817 }, "geometry": { "type": "MultiPolygon", "coordinates": [ [ [ [ -60.090092405296659, -30.695833330631551 ], [ -60.085246820875589, -30.695833330631551 ], [ -60.087841094567814, -30.699999997297844 ], [ -60.092686888204497, -30.699999997297844 ], [ -60.090092405296659, -30.695833330631551 ] ] ], [ [ [ -60.087841094567814, -30.699999997297844 ], [ -60.082995300931145, -30.699999997297844 ], [ -60.073303713657808, -30.699999997297844 ], [ -60.068457920021139, -30.699999997297844 ], [ -60.06361212638447, -30.699999997297844 ], [ -60.058766332747794, -30.699999997297844 ], [ -60.061359892719189, -30.704166663964145 ], [ -60.066205895615177, -30.704166663964145 ], [ -60.068800206560034, -30.708333330630438 ], [ -60.073646418759047, -30.708333330630438 ], [ -60.076241480862478, -30.712499997296735 ], [ -60.085934323953964, -30.712499997296735 ], [ -60.083338843157065, -30.708333330630438 ], [ -60.088185055356064, -30.708333330630438 ], [ -60.085589907199122, -30.704166663964145 ], [ -60.090435910095103, -30.704166663964145 ], [ -60.087841094567814, -30.699999997297844 ] ] ], [ [ [ -60.058766332747794, -30.699999997297844 ], [ -60.056173314349294, -30.695833330631551 ], [ -60.051327729928239, -30.695833330631551 ], [ -60.041636561086143, -30.695833330631551 ], [ -60.044228951837788, -30.699999997297844 ], [ -60.039383158201119, -30.699999997297844 ], [ -60.03453736456445, -30.699999997297844 ], [ -60.037129878239249, -30.704166663964145 ], [ -60.039722933366001, -30.708333330630438 ], [ -60.049415357763998, -30.708333330630438 ], [ -60.046822154800893, -30.704166663964145 ], [ -60.051667886927206, -30.704166663964145 ], [ -60.056513889823194, -30.704166663964145 ], [ -60.053920809875713, -30.699999997297844 ], [ -60.058766332747794, -30.699999997297844 ] ] ] ] } },
{ "type": "Feature", "properties": { "_uid_": 203500.0, "id": 10078186.0, "initialdat": "2009-03-16", "finaldate": "2009-03-18", "area_ha": 64.334464731407166 }, "geometry": { "type": "MultiPolygon", "coordinates": [ [ [ [ -60.089224922632162, -30.733333330628227 ], [ -60.094072391567508, -30.733333330628227 ], [ -60.091474409155339, -30.72916666396193 ], [ -60.088876969131107, -30.724999997295637 ], [ -60.084029919282813, -30.724999997295637 ], [ -60.086627149785386, -30.72916666396193 ], [ -60.081779890415433, -30.72916666396193 ], [ -60.084377453696781, -30.733333330628227 ], [ -60.089224922632162, -30.733333330628227 ] ] ] ] } },
{ "type": "Feature", "properties": { "_uid_": 203504.0, "id": 10078191.0, "initialdat": "2009-03-15", "finaldate": "2009-03-18", "area_ha": 150.13402096502782 }, "geometry": { "type": "MultiPolygon", "coordinates": [ [ [ [ -60.420891423223743, -31.387499997236933 ], [ -60.42357245341735, -31.391666663903226 ], [ -60.42845358860221, -31.391666663903226 ], [ -60.425772341829713, -31.387499997236933 ], [ -60.430653260435705, -31.387499997236933 ], [ -60.427972354588974, -31.383333330570633 ], [ -60.432853056661074, -31.383333330570633 ], [ -60.430172491727646, -31.379166663904332 ], [ -60.435052977310903, -31.379166663904332 ], [ -60.432372753278251, -31.374999997238039 ], [ -60.427492484138845, -31.374999997238039 ], [ -60.422612214999418, -31.374999997238039 ], [ -60.425292006144389, -31.379166663904332 ], [ -60.420411520561132, -31.379166663904332 ], [ -60.423091652516867, -31.383333330570633 ], [ -60.418210950444767, -31.383333330570633 ], [ -60.420891423223743, -31.387499997236933 ] ] ] ] } },
{ "type": "Feature", "properties": { "_uid_": 394755.0, "id": 10316574.0, "initialdat": "2009-06-13", "finaldate": "2009-06-13", "area_ha": 21.443984042322636 }, "geometry": { "type": "MultiPolygon", "coordinates": [ [ [ [ -59.924175293763966, -30.537499997312242 ], [ -59.919337627235024, -30.537499997312242 ], [ -59.921908477401388, -30.541666663978543 ], [ -59.926746351491289, -30.541666663978543 ], [ -59.924175293763966, -30.537499997312242 ] ] ] ] } },
{ "type": "Feature", "properties": { "_uid_": 394756.0, "id": 10316576.0, "initialdat": "2009-06-02", "finaldate": "2009-06-06", "area_ha": 214.44598430309296 }, "geometry": { "type": "MultiPolygon", "coordinates": [ [ [ [ -60.028642594474711, -30.791666663956391 ], [ -60.026041422099183, -30.787499997290091 ], [ -60.021191224828485, -30.787499997290091 ], [ -60.023792187025244, -30.791666663956391 ], [ -60.028642594474711, -30.791666663956391 ] ] ], [ [ [ -60.028642594474711, -30.791666663956391 ], [ -60.031244309787539, -30.795833330622688 ], [ -60.040945545131741, -30.795833330622688 ], [ -60.038343409373638, -30.791666663956391 ], [ -60.04319381682312, -30.791666663956391 ], [ -60.040592013911308, -30.787499997290091 ], [ -60.045442211182007, -30.787499997290091 ], [ -60.042840741106112, -30.78333333062379 ], [ -60.023440792562901, -30.78333333062379 ], [ -60.028642594474711, -30.791666663956391 ] ] ] ] } },
{ "type": "Feature", "properties": { "_uid_": 428995.0, "id": 10316557.0, "initialdat": "2009-06-21", "finaldate": "2009-06-21", "area_ha": 21.442833647298812 }, "geometry": { "type": "MultiPolygon", "coordinates": [ [ [ [ -60.00451210031612, -30.274999997335502 ], [ -59.99968742297429, -30.274999997335502 ], [ -60.002234843363119, -30.279166664001803 ], [ -60.007059725547364, -30.279166664001803 ], [ -60.00451210031612, -30.274999997335502 ] ] ] ] } },
{ "type": "Feature", "properties": { "_uid_": 429011.0, "id": 10316573.0, "initialdat": "2009-06-19", "finaldate": "2009-06-19", "area_ha": 21.443965683281423 }, "geometry": { "type": "MultiPolygon", "coordinates": [ [ [ [ -59.926442232534093, -30.533333330645945 ], [ -59.921604773522738, -30.533333330645945 ], [ -59.924175293763966, -30.537499997312242 ], [ -59.929012960292901, -30.537499997312242 ], [ -59.926442232534093, -30.533333330645945 ] ] ] ] } },
{ "type": "Feature", "properties": { "_uid_": 429012.0, "id": 10316575.0, "initialdat": "2009-06-19", "finaldate": "2009-06-26", "area_ha": 85.780303980290896 }, "geometry": { "type": "MultiPolygon", "coordinates": [ [ [ [ -60.045442211182007, -30.787499997290091 ], [ -60.048044224272573, -30.791666663956391 ], [ -60.052894631722047, -30.791666663956391 ], [ -60.057745039171515, -30.791666663956391 ], [ -60.055142605723411, -30.787499997290091 ], [ -60.052540715377724, -30.78333333062379 ], [ -60.047690728241932, -30.78333333062379 ], [ -60.042840741106112, -30.78333333062379 ], [ -60.045442211182007, -30.787499997290091 ] ] ] ] } },
{ "type": "Feature", "properties": { "_uid_": 479424.0, "id": 10414992.0, "initialdat": "2009-07-07", "finaldate": "2009-07-08", "area_ha": 300.19903666448596 }, "geometry": { "type": "MultiPolygon", "coordinates": [ [ [ [ -60.021262898872742, -30.270833330669209 ], [ -60.016438426330424, -30.270833330669209 ], [ -60.013891253971565, -30.266666664002909 ], [ -60.009066986185864, -30.266666664002909 ], [ -60.006520552098252, -30.262499997336612 ], [ -59.996872425954301, -30.262499997336612 ], [ -59.999418450614456, -30.266666664002909 ], [ -59.99459418282877, -30.266666664002909 ], [ -59.989769915043063, -30.266666664002909 ], [ -59.994862745632446, -30.274999997335502 ], [ -59.99968742297429, -30.274999997335502 ], [ -60.00451210031612, -30.274999997335502 ], [ -60.014161454999808, -30.274999997335502 ], [ -60.023810809683496, -30.274999997335502 ], [ -60.021262898872742, -30.270833330669209 ] ] ], [ [ [ -60.013891253971565, -30.266666664002909 ], [ -60.018715521757272, -30.266666664002909 ], [ -60.016168678242188, -30.262499997336612 ], [ -60.011344615170216, -30.262499997336612 ], [ -60.013891253971565, -30.266666664002909 ] ] ] ] } },
{ "type": "Feature", "properties": { "_uid_": 479425.0, "id": 10414993.0, "initialdat": "2009-07-12", "finaldate": "2009-07-12", "area_ha": 21.44277905164957 }, "geometry": { "type": "MultiPolygon", "coordinates": [ [ [ [ -60.011344615170216, -30.262499997336612 ], [ -60.006520552098252, -30.262499997336612 ], [ -60.009066986185864, -30.266666664002909 ], [ -60.013891253971565, -30.266666664002909 ], [ -60.011344615170216, -30.262499997336612 ] ] ] ] } },
{ "type": "Feature", "properties": { "_uid_": 530813.0, "id": 10414999.0, "initialdat": "2009-07-30", "finaldate": "2009-07-30", "area_ha": 64.343547979784006 }, "geometry": { "type": "MultiPolygon", "coordinates": [ [ [ [ -60.444152581891565, -31.324999997242468 ], [ -60.439274906570226, -31.324999997242468 ], [ -60.441950177147945, -31.329166663908769 ], [ -60.437072285922277, -31.329166663908769 ], [ -60.439747897071754, -31.333333330575062 ], [ -60.449504111421589, -31.333333330575062 ], [ -60.444152581891565, -31.324999997242468 ] ] ] ] } },
{ "type": "Feature", "properties": { "_uid_": 530814.0, "id": 10415000.0, "initialdat": "2009-07-30", "finaldate": "2009-07-30", "area_ha": 42.895479780101773 }, "geometry": { "type": "MultiPolygon", "coordinates": [ [ [ [ -60.427972354588974, -31.383333330570633 ], [ -60.423091652516867, -31.383333330570633 ], [ -60.425772341829713, -31.387499997236933 ], [ -60.430653260435705, -31.387499997236933 ], [ -60.427972354588974, -31.383333330570633 ] ] ], [ [ [ -60.425772341829713, -31.387499997236933 ], [ -60.420891423223743, -31.387499997236933 ], [ -60.42357245341735, -31.391666663903226 ], [ -60.42845358860221, -31.391666663903226 ], [ -60.425772341829713, -31.387499997236933 ] ] ] ] } },
{ "type": "Feature", "properties": { "_uid_": 602471.0, "id": 10552038.0, "initialdat": "2009-08-10", "finaldate": "2009-08-11", "area_ha": 493.2114071107149 }, "geometry": { "type": "MultiPolygon", "coordinates": [ [ [ [ -60.09607194463792, -30.541666663978543 ], [ -60.098650806100622, -30.545833330644836 ], [ -60.108326969489156, -30.545833330644836 ], [ -60.105747692817737, -30.541666663978543 ], [ -60.110585566907623, -30.541666663978543 ], [ -60.105428215954255, -30.533333330645945 ], [ -60.110265674965618, -30.533333330645945 ], [ -60.107687600620544, -30.529166663979652 ], [ -60.112524852157705, -30.529166663979652 ], [ -60.109947109366878, -30.524999997313351 ], [ -60.104793240484192, -30.516666663980757 ], [ -60.095119981734605, -30.516666663980757 ], [ -60.097696232070128, -30.520833330647058 ], [ -60.09285939535124, -30.520833330647058 ], [ -60.095435977047863, -30.524999997313351 ], [ -60.090598932941518, -30.524999997313351 ], [ -60.093175846009061, -30.529166663979652 ], [ -60.0883385944719, -30.529166663979652 ], [ -60.093493622276682, -30.537499997312242 ], [ -60.088655955747726, -30.537499997312242 ], [ -60.091234070548019, -30.541666663978543 ], [ -60.09607194463792, -30.541666663978543 ] ] ], [ [ [ -60.090598932941518, -30.524999997313351 ], [ -60.088022558632353, -30.520833330647058 ], [ -60.083185721913459, -30.520833330647058 ], [ -60.085761888835187, -30.524999997313351 ], [ -60.090598932941518, -30.524999997313351 ] ] ] ] } },
{ "type": "Feature", "properties": { "_uid_": 938202.0, "id": 10918111.0, "initialdat": "2009-11-12", "finaldate": "2009-11-13", "area_ha": 85.778753130412099 }, "geometry": { "type": "MultiPolygon", "coordinates": [ [ [ [ -59.929649623578364, -30.640296025617733 ], [ -59.930498810723051, -30.64166666396968 ], [ -59.940184547904614, -30.64166666396968 ], [ -59.935469250691249, -30.634056329869683 ], [ -59.929649623578364, -30.640296025617733 ] ] ] ] } },
{ "type": "Feature", "properties": { "_uid_": 938203.0, "id": 10918113.0, "initialdat": "2009-11-04", "finaldate": "2009-11-04", "area_ha": 42.892438547134397 }, "geometry": { "type": "MultiPolygon", "coordinates": [ [ [ [ -60.068995689512093, -31.041666663934237 ], [ -60.06413259076777, -31.041666663934237 ], [ -60.06676174123109, -31.045833330600537 ], [ -60.071625052844844, -31.045833330600537 ], [ -60.068995689512093, -31.041666663934237 ] ] ], [ [ [ -60.06676174123109, -31.045833330600537 ], [ -60.061898429617344, -31.045833330600537 ], [ -60.064527915036017, -31.049999997266838 ], [ -60.06939143956356, -31.049999997266838 ], [ -60.06676174123109, -31.045833330600537 ] ] ] ] } },
{ "type": "Feature", "properties": { "_uid_": 1067516.0, "id": 11009242.0, "initialdat": "2009-12-20", "finaldate": "2009-12-23", "area_ha": 42.886834468317033 }, "geometry": { "type": "MultiPolygon", "coordinates": [ [ [ [ -59.917207424813839, -30.408333330657019 ], [ -59.91237617119144, -30.408333330657019 ], [ -59.907544917569034, -30.408333330657019 ], [ -59.910102038751191, -30.412499997323319 ], [ -59.914933498593044, -30.412499997323319 ], [ -59.919764958434882, -30.412499997323319 ], [ -59.917207424813839, -30.408333330657019 ] ] ] ] } }
]
}
