{
"type": "FeatureCollection",
"name": "2010",
"crs": { "type": "name", "properties": { "name": "urn:ogc:def:crs:OGC:1.3:CRS84" } },
"features": [
{ "type": "Feature", "properties": { "_uid_": 31134.0, "id": 11124738.0, "initialdat": "2010-01-26", "finaldate": "2010-01-26", "area_ha": 85.771589538633819 }, "geometry": { "type": "MultiPolygon", "coordinates": [ [ [ [ -59.968728949264538, -30.287499997334397 ], [ -59.959078365268823, -30.287499997334397 ], [ -59.961625337242367, -30.291666664000694 ], [ -59.956799840273312, -30.291666664000694 ], [ -59.959347140758844, -30.295833330666987 ], [ -59.968998544725181, -30.295833330666987 ], [ -59.966450834211408, -30.291666664000694 ], [ -59.971276331180455, -30.291666664000694 ], [ -59.968728949264538, -30.287499997334397 ] ] ] ] } },
{ "type": "Feature", "properties": { "_uid_": 31135.0, "id": 11124739.0, "initialdat": "2010-01-26", "finaldate": "2010-01-26", "area_ha": 21.442943110787869 }, "geometry": { "type": "MultiPolygon", "coordinates": [ [ [ [ -59.942591346661558, -30.299999997333288 ], [ -59.937765439621309, -30.299999997333288 ], [ -59.940312781857983, -30.304166663999588 ], [ -59.945138893998248, -30.304166663999588 ], [ -59.942591346661558, -30.299999997333288 ] ] ] ] } },
{ "type": "Feature", "properties": { "_uid_": 31138.0, "id": 11124742.0, "initialdat": "2010-01-26", "finaldate": "2010-01-27", "area_ha": 128.65565098774434 }, "geometry": { "type": "MultiPolygon", "coordinates": [ [ [ [ -59.969541679432169, -30.312499997332178 ], [ -59.959888634493801, -30.312499997332178 ], [ -59.967538913095972, -30.324999997331073 ], [ -59.972366051380867, -30.324999997331073 ], [ -59.96981521916787, -30.320833330664772 ], [ -59.974642152137868, -30.320833330664772 ], [ -59.972091915785022, -30.316666663998479 ], [ -59.976918376456481, -30.316666663998479 ], [ -59.974368201901349, -30.312499997332178 ], [ -59.969541679432169, -30.312499997332178 ] ] ] ] } },
{ "type": "Feature", "properties": { "_uid_": 114037.0, "id": 11230473.0, "initialdat": "2010-02-28", "finaldate": "2010-02-28", "area_ha": 42.886798051333429 }, "geometry": { "type": "MultiPolygon", "coordinates": [ [ [ [ -60.069243944628063, -30.404166663990726 ], [ -60.059581849735871, -30.404166663990726 ], [ -60.06214503348572, -30.408333330657019 ], [ -60.071807540730518, -30.408333330657019 ], [ -60.069243944628063, -30.404166663990726 ] ] ] ] } },
{ "type": "Feature", "properties": { "_uid_": 114038.0, "id": 11230474.0, "initialdat": "2010-02-22", "finaldate": "2010-02-22", "area_ha": 85.773669775080677 }, "geometry": { "type": "MultiPolygon", "coordinates": [ [ [ [ -60.071807540730518, -30.408333330657019 ], [ -60.052482526240937, -30.408333330657019 ], [ -60.055045834006592, -30.412499997323319 ], [ -60.074371673373967, -30.412499997323319 ], [ -60.071807540730518, -30.408333330657019 ] ] ] ] } },
{ "type": "Feature", "properties": { "_uid_": 114039.0, "id": 11230475.0, "initialdat": "2010-02-26", "finaldate": "2010-02-28", "area_ha": 64.330269912612437 }, "geometry": { "type": "MultiPolygon", "coordinates": [ [ [ [ -60.035719994639202, -30.412499997323319 ], [ -60.038283013818614, -30.41666666398962 ], [ -60.043114679923065, -30.41666666398962 ], [ -60.040551454481047, -30.412499997323319 ], [ -60.045382914322886, -30.412499997323319 ], [ -60.042820018996139, -30.408333330657019 ], [ -60.037988765373747, -30.408333330657019 ], [ -60.033157511751348, -30.408333330657019 ], [ -60.035719994639202, -30.412499997323319 ] ] ] ] } },
{ "type": "Feature", "properties": { "_uid_": 114040.0, "id": 11230476.0, "initialdat": "2010-02-19", "finaldate": "2010-02-19", "area_ha": 21.443435423743725 }, "geometry": { "type": "MultiPolygon", "coordinates": [ [ [ [ -60.035719994639202, -30.412499997323319 ], [ -60.030888534797349, -30.412499997323319 ], [ -60.033451347714156, -30.41666666398962 ], [ -60.038283013818614, -30.41666666398962 ], [ -60.035719994639202, -30.412499997323319 ] ] ] ] } },
{ "type": "Feature", "properties": { "_uid_": 148652.0, "id": 11306971.0, "initialdat": "2010-03-05", "finaldate": "2010-03-09", "area_ha": 171.54648315081596 }, "geometry": { "type": "MultiPolygon", "coordinates": [ [ [ [ -60.081470047975309, -30.408333330657019 ], [ -60.078906039520263, -30.404166663990726 ], [ -60.07634256759669, -30.399999997324425 ], [ -60.071511726283745, -30.399999997324425 ], [ -60.074074992074159, -30.404166663990726 ], [ -60.069243944628063, -30.404166663990726 ], [ -60.071807540730518, -30.408333330657019 ], [ -60.07663879435291, -30.408333330657019 ], [ -60.081470047975309, -30.408333330657019 ] ] ], [ [ [ -60.081470047975309, -30.408333330657019 ], [ -60.086301301597693, -30.408333330657019 ], [ -60.091132555220106, -30.408333330657019 ], [ -60.088568134412455, -30.404166663990726 ], [ -60.093399181858551, -30.404166663990726 ], [ -60.090835091535517, -30.399999997324425 ], [ -60.086004250222572, -30.399999997324425 ], [ -60.081173408909613, -30.399999997324425 ], [ -60.07634256759669, -30.399999997324425 ], [ -60.081470047975309, -30.408333330657019 ] ] ] ] } },
{ "type": "Feature", "properties": { "_uid_": 232194.0, "id": 11393690.0, "initialdat": "2010-04-05", "finaldate": "2010-04-08", "area_ha": 85.774434735012051 }, "geometry": { "type": "MultiPolygon", "coordinates": [ [ [ [ -59.962390460267443, -30.387499997325534 ], [ -59.957560237095194, -30.387499997325534 ], [ -59.952730013922931, -30.387499997325534 ], [ -59.955286932736144, -30.391666663991835 ], [ -59.95784438675868, -30.395833330658128 ], [ -59.967505657204519, -30.395833330658128 ], [ -59.962390460267443, -30.387499997325534 ] ] ] ] } },
{ "type": "Feature", "properties": { "_uid_": 489352.0, "id": 11629623.0, "initialdat": "2010-07-26", "finaldate": "2010-07-26", "area_ha": 42.889141285669801 }, "geometry": { "type": "MultiPolygon", "coordinates": [ [ [ [ -60.156890492595231, -30.670833330633766 ], [ -60.147201832506191, -30.670833330633766 ], [ -60.149796200494677, -30.674999997300059 ], [ -60.159485278490934, -30.674999997300059 ], [ -60.156890492595231, -30.670833330633766 ] ] ] ] } },
{ "type": "Feature", "properties": { "_uid_": 552730.0, "id": 11761742.0, "initialdat": "2010-08-11", "finaldate": "2010-08-15", "area_ha": 42.888389228427407 }, "geometry": { "type": "MultiPolygon", "coordinates": [ [ [ [ -60.068645361826427, -30.583333330641519 ], [ -60.063805409738606, -30.583333330641519 ], [ -60.066387171072805, -30.587499997307813 ], [ -60.07122733119941, -30.587499997307813 ], [ -60.068645361826427, -30.583333330641519 ] ] ], [ [ [ -60.066387171072805, -30.587499997307813 ], [ -60.0615470109462, -30.587499997307813 ], [ -60.064129103842916, -30.591666663974113 ], [ -60.068969472051791, -30.591666663974113 ], [ -60.066387171072805, -30.587499997307813 ] ] ] ] } },
{ "type": "Feature", "properties": { "_uid_": 552731.0, "id": 11761751.0, "initialdat": "2010-08-12", "finaldate": "2010-08-12", "area_ha": 21.445803598833084 }, "geometry": { "type": "MultiPolygon", "coordinates": [ [ [ [ -60.17647462871566, -30.949999997275697 ], [ -60.171616201892732, -30.949999997275697 ], [ -60.174240528866136, -30.95416666394199 ], [ -60.179099167584667, -30.95416666394199 ], [ -60.17647462871566, -30.949999997275697 ] ] ] ] } },
{ "type": "Feature", "properties": { "_uid_": 552732.0, "id": 11761752.0, "initialdat": "2010-08-09", "finaldate": "2010-08-09", "area_ha": 21.446431891882419 }, "geometry": { "type": "MultiPolygon", "coordinates": [ [ [ [ -60.413217682044234, -31.093603208135445 ], [ -60.411986224613877, -31.091666663929807 ], [ -60.407120568506855, -31.091666663929807 ], [ -60.409769957737517, -31.095833330596108 ], [ -60.413817818052358, -31.095833330596108 ], [ -60.413217682044234, -31.093603208135445 ] ] ] ] } },
{ "type": "Feature", "properties": { "_uid_": 552735.0, "id": 11761757.0, "initialdat": "2010-08-07", "finaldate": "2010-08-10", "area_ha": 85.785810032296169 }, "geometry": { "type": "MultiPolygon", "coordinates": [ [ [ [ -60.406647057290691, -31.129166663926483 ], [ -60.411514635619248, -31.129166663926483 ], [ -60.408861683291725, -31.12499999726019 ], [ -60.413729047862127, -31.12499999726019 ], [ -60.411076434261858, -31.120833330593893 ], [ -60.401342132548294, -31.120833330593893 ], [ -60.403994318721296, -31.12499999726019 ], [ -60.399126954150887, -31.12499999726019 ], [ -60.401779478962126, -31.129166663926483 ], [ -60.406647057290691, -31.129166663926483 ] ] ] ] } },
{ "type": "Feature", "properties": { "_uid_": 629610.0, "id": 11761739.0, "initialdat": "2010-08-24", "finaldate": "2010-08-26", "area_ha": 192.99519762312173 }, "geometry": { "type": "MultiPolygon", "coordinates": [ [ [ [ -60.112206742226796, -30.520833330647058 ], [ -60.107369905507902, -30.520833330647058 ], [ -60.109947109366878, -30.524999997313351 ], [ -60.105110065260547, -30.524999997313351 ], [ -60.107687600620544, -30.529166663979652 ], [ -60.117362103694866, -30.529166663979652 ], [ -60.122199355232027, -30.529166663979652 ], [ -60.119621197579562, -30.524999997313351 ], [ -60.124458241685915, -30.524999997313351 ], [ -60.121880415664585, -30.520833330647058 ], [ -60.126717252383472, -30.520833330647058 ], [ -60.1241397579834, -30.516666663980757 ], [ -60.114466499233792, -30.516666663980757 ], [ -60.109629869858992, -30.516666663980757 ], [ -60.112206742226796, -30.520833330647058 ] ] ] ] } },
{ "type": "Feature", "properties": { "_uid_": 629618.0, "id": 11761749.0, "initialdat": "2010-08-26", "finaldate": "2010-09-06", "area_ha": 257.34830254745481 }, "geometry": { "type": "MultiPolygon", "coordinates": [ [ [ [ -60.1125485670308, -30.933333330610505 ], [ -60.109929091236005, -30.929166663944205 ], [ -60.107310161588259, -30.924999997277908 ], [ -60.102453005211551, -30.924999997277908 ], [ -60.105071723228612, -30.929166663944205 ], [ -60.107690987348612, -30.933333330610505 ], [ -60.1125485670308, -30.933333330610505 ] ] ], [ [ [ -60.1125485670308, -30.933333330610505 ], [ -60.117406146713009, -30.933333330610505 ], [ -60.114786732338985, -30.929166663944205 ], [ -60.119643827250762, -30.929166663944205 ], [ -60.117024474341669, -30.924999997277908 ], [ -60.121881630718377, -30.924999997277908 ], [ -60.126738787095078, -30.924999997277908 ], [ -60.121500873328564, -30.916666663945314 ], [ -60.116644140080837, -30.916666663945314 ], [ -60.106930673585417, -30.916666663945314 ], [ -60.109548722778669, -30.920833330611615 ], [ -60.104691777988513, -30.920833330611615 ], [ -60.107310161588259, -30.924999997277908 ], [ -60.1125485670308, -30.933333330610505 ] ] ] ] } },
{ "type": "Feature", "properties": { "_uid_": 629619.0, "id": 11761750.0, "initialdat": "2010-08-18", "finaldate": "2010-08-18", "area_ha": 42.891570478820803 }, "geometry": { "type": "MultiPolygon", "coordinates": [ [ [ [ -60.178708851947029, -30.9458333306094 ], [ -60.168992422004003, -30.9458333306094 ], [ -60.171616201892732, -30.949999997275697 ], [ -60.181333055538602, -30.949999997275697 ], [ -60.178708851947029, -30.9458333306094 ] ] ] ] } },
{ "type": "Feature", "properties": { "_uid_": 629621.0, "id": 11761753.0, "initialdat": "2010-08-07", "finaldate": "2010-08-16", "area_ha": 128.67892476607562 }, "geometry": { "type": "MultiPolygon", "coordinates": [ [ [ [ -60.42643919868005, -31.10788462645122 ], [ -60.420287589196334, -31.104166663928705 ], [ -60.419936688487617, -31.104166663928705 ], [ -60.422587947296883, -31.108333330594999 ], [ -60.417721437314007, -31.108333330594999 ], [ -60.423025184609138, -31.116666663927592 ], [ -60.427892121796788, -31.116666663927592 ], [ -60.425240034546839, -31.112499997261299 ], [ -60.430106481929379, -31.112499997261299 ], [ -60.427584990597033, -31.108538414971548 ], [ -60.42643919868005, -31.10788462645122 ] ] ] ] } },
{ "type": "Feature", "properties": { "_uid_": 705030.0, "id": 11929929.0, "initialdat": "2010-09-05", "finaldate": "2010-09-06", "area_ha": 42.891275291097166 }, "geometry": { "type": "MultiPolygon", "coordinates": [ [ [ [ -60.114026213784967, -30.912499997279014 ], [ -60.109169692035579, -30.912499997279014 ], [ -60.10431317028619, -30.912499997279014 ], [ -60.106930673585417, -30.916666663945314 ], [ -60.111787406833137, -30.916666663945314 ], [ -60.116644140080837, -30.916666663945314 ], [ -60.114026213784967, -30.912499997279014 ] ] ] ] } },
{ "type": "Feature", "properties": { "_uid_": 705031.0, "id": 11929930.0, "initialdat": "2010-09-08", "finaldate": "2010-09-12", "area_ha": 107.22938855371476 }, "geometry": { "type": "MultiPolygon", "coordinates": [ [ [ [ -60.285589581320252, -30.9458333306094 ], [ -60.290447796291751, -30.9458333306094 ], [ -60.287819268206881, -30.941666663943099 ], [ -60.29267727137114, -30.941666663943099 ], [ -60.28742143558987, -30.933333330610505 ], [ -60.282563855907668, -30.933333330610505 ], [ -60.285191288112003, -30.937499997276799 ], [ -60.28033349671086, -30.937499997276799 ], [ -60.282961265042637, -30.941666663943099 ], [ -60.278103261878371, -30.941666663943099 ], [ -60.280731366348725, -30.9458333306094 ], [ -60.285589581320252, -30.9458333306094 ] ] ] ] } },
{ "type": "Feature", "properties": { "_uid_": 705032.0, "id": 11929938.0, "initialdat": "2010-09-01", "finaldate": "2010-09-01", "area_ha": 21.446505972445014 }, "geometry": { "type": "MultiPolygon", "coordinates": [ [ [ [ -60.349590297553682, -31.108333330594999 ], [ -60.344723787570793, -31.108333330594999 ], [ -60.347372181357969, -31.112499997261299 ], [ -60.352238904920995, -31.112499997261299 ], [ -60.349590297553682, -31.108333330594999 ] ] ] ] } },
{ "type": "Feature", "properties": { "_uid_": 768691.0, "id": 11929928.0, "initialdat": "2010-09-15", "finaldate": "2010-09-15", "area_ha": 21.445600775790215 }, "geometry": { "type": "MultiPolygon", "coordinates": [ [ [ [ -60.118504196513982, -30.904166663946423 ], [ -60.113648097628953, -30.904166663946423 ], [ -60.116265143667491, -30.90833333061272 ], [ -60.121121453962651, -30.90833333061272 ], [ -60.118504196513982, -30.904166663946423 ] ] ] ] } },
{ "type": "Feature", "properties": { "_uid_": 768692.0, "id": 11929931.0, "initialdat": "2010-09-15", "finaldate": "2010-09-18", "area_ha": 85.783132308340058 }, "geometry": { "type": "MultiPolygon", "coordinates": [ [ [ [ -60.211668867778187, -30.974999997273482 ], [ -60.214297540150866, -30.979166663939775 ], [ -60.219157451171064, -30.979166663939775 ], [ -60.216528566637578, -30.974999997273482 ], [ -60.221388265496977, -30.974999997273482 ], [ -60.2187597167934, -30.970833330607185 ], [ -60.209040743307767, -30.970833330607185 ], [ -60.204181256564951, -30.970833330607185 ], [ -60.206809168918788, -30.974999997273482 ], [ -60.211668867778187, -30.974999997273482 ] ] ] ] } },
{ "type": "Feature", "properties": { "_uid_": 768697.0, "id": 11929935.0, "initialdat": "2010-09-12", "finaldate": "2010-09-15", "area_ha": 514.71087429227828 }, "geometry": { "type": "MultiPolygon", "coordinates": [ [ [ [ -60.407286981564397, -31.079166663930916 ], [ -60.404040727457385, -31.079166663930916 ], [ -60.406688674819755, -31.083333330597213 ], [ -60.408618244454615, -31.083333330597213 ], [ -60.407286981564397, -31.079166663930916 ] ] ] ] } },
{ "type": "Feature", "properties": { "_uid_": 768698.0, "id": 11929936.0, "initialdat": "2010-09-06", "finaldate": "2010-09-15", "area_ha": 278.80294148437974 }, "geometry": { "type": "MultiPolygon", "coordinates": [ [ [ [ -60.418923355933941, -31.103342136924031 ], [ -60.418381462176789, -31.10309332741452 ], [ -60.415588087950894, -31.102411266790643 ], [ -60.414681167750587, -31.099041503694934 ], [ -60.414613974535811, -31.098634574314023 ], [ -60.414436462728013, -31.098132231791311 ], [ -60.413817818052358, -31.095833330596108 ], [ -60.409769957737517, -31.095833330596108 ], [ -60.404904088228214, -31.095833330596108 ], [ -60.400038218718926, -31.095833330596108 ], [ -60.402687732969767, -31.099999997262408 ], [ -60.392955567057712, -31.099999997262408 ], [ -60.395605206251552, -31.104166663928705 ], [ -60.400471502698757, -31.104166663928705 ], [ -60.403121907365367, -31.108333330594999 ], [ -60.407988417348243, -31.108333330594999 ], [ -60.412854927331118, -31.108333330594999 ], [ -60.417721437314007, -31.108333330594999 ], [ -60.41507039204042, -31.104166663928705 ], [ -60.419936688487617, -31.104166663928705 ], [ -60.419717488331528, -31.103822101476393 ], [ -60.418923355933941, -31.103342136924031 ] ] ], [ [ [ -60.413107524351759, -31.093193859019777 ], [ -60.41211737581321, -31.091666663929807 ], [ -60.411986224613877, -31.091666663929807 ], [ -60.413217682044234, -31.093603208135445 ], [ -60.413107524351759, -31.093193859019777 ] ] ] ] } },
{ "type": "Feature", "properties": { "_uid_": 768699.0, "id": 11929937.0, "initialdat": "2010-09-13", "finaldate": "2010-09-15", "area_ha": 64.339406751966479 }, "geometry": { "type": "MultiPolygon", "coordinates": [ [ [ [ -60.373491235233615, -31.099999997262408 ], [ -60.368625152277595, -31.099999997262408 ], [ -60.363759069321581, -31.099999997262408 ], [ -60.358892986365547, -31.099999997262408 ], [ -60.361541131121037, -31.104166663928705 ], [ -60.366407427568255, -31.104166663928705 ], [ -60.371273724015467, -31.104166663928705 ], [ -60.376140020462685, -31.104166663928705 ], [ -60.373491235233615, -31.099999997262408 ] ] ] ] } },
{ "type": "Feature", "properties": { "_uid_": 829013.0, "id": 12060681.0, "initialdat": "2010-10-08", "finaldate": "2010-10-08", "area_ha": 21.443691384053231 }, "geometry": { "type": "MultiPolygon", "coordinates": [ [ [ [ -60.129663326703451, -30.47083333065148 ], [ -60.124828975254097, -30.47083333065148 ], [ -60.127401788131692, -30.474999997317781 ], [ -60.132236346448686, -30.474999997317781 ], [ -60.129663326703451, -30.47083333065148 ] ] ] ] } },
{ "type": "Feature", "properties": { "_uid_": 874872.0, "id": 12060687.0, "initialdat": "2010-10-20", "finaldate": "2010-10-29", "area_ha": 300.24342934056523 }, "geometry": { "type": "MultiPolygon", "coordinates": [ [ [ [ -60.382744297120531, -31.035858871869525 ], [ -60.382048836071625, -31.035204670668918 ], [ -60.380205405074307, -31.033785715591193 ], [ -60.3802224813168, -31.033593646164633 ], [ -60.38012495531936, -31.033587216792544 ], [ -60.380147564265556, -31.033333330601646 ], [ -60.379812360188446, -31.033333330601646 ], [ -60.38509710789193, -31.041666663934237 ], [ -60.382454458742053, -31.037499997267943 ], [ -60.377591572822837, -31.037499997267943 ], [ -60.380234009147628, -31.041666663934237 ], [ -60.382876996124594, -31.045833330600537 ], [ -60.387740307738341, -31.045833330600537 ], [ -60.390723571353426, -31.045833330600537 ], [ -60.382744297120531, -31.035858871869525 ] ] ] ] } },
{ "type": "Feature", "properties": { "_uid_": 874875.0, "id": 12060690.0, "initialdat": "2010-10-31", "finaldate": "2010-10-31", "area_ha": 21.446246943795678 }, "geometry": { "type": "MultiPolygon", "coordinates": [ [ [ [ -60.366066435743818, -31.049999997266838 ], [ -60.361202911216274, -31.049999997266838 ], [ -60.363845935007596, -31.054166663933131 ], [ -60.368709672493296, -31.054166663933131 ], [ -60.366066435743818, -31.049999997266838 ] ] ] ] } },
{ "type": "Feature", "properties": { "_uid_": 914678.0, "id": 12152448.0, "initialdat": "2010-11-08", "finaldate": "2010-11-11", "area_ha": 64.337905389690405 }, "geometry": { "type": "MultiPolygon", "coordinates": [ [ [ [ -60.17581350973088, -30.987499997272369 ], [ -60.170953174256354, -30.987499997272369 ], [ -60.176210109598436, -30.995833330604967 ], [ -60.181070869704236, -30.995833330604967 ], [ -60.178442189717558, -30.99166666393867 ], [ -60.183302463534346, -30.99166666393867 ], [ -60.180673845205384, -30.987499997272369 ], [ -60.17581350973088, -30.987499997272369 ] ] ] ] } },
{ "type": "Feature", "properties": { "_uid_": 988127.0, "id": 12234838.0, "initialdat": "2010-12-06", "finaldate": "2010-12-06", "area_ha": 42.888041309666633 }, "geometry": { "type": "MultiPolygon", "coordinates": [ [ [ [ -60.21067816754951, -30.549552166146309 ], [ -60.210130909903299, -30.548583723149356 ], [ -60.210153537646178, -30.547980656911559 ], [ -60.209403355676677, -30.545833330644836 ], [ -60.200250521680331, -30.545833330644836 ], [ -60.202834282944437, -30.549999997311136 ], [ -60.210730976520061, -30.549999997311136 ], [ -60.21067816754951, -30.549552166146309 ] ] ] ] } },
{ "type": "Feature", "properties": { "_uid_": 988128.0, "id": 12234839.0, "initialdat": "2010-12-03", "finaldate": "2010-12-07", "area_ha": 128.66595425388812 }, "geometry": { "type": "MultiPolygon", "coordinates": [ [ [ [ -60.121557475445776, -30.574999997308922 ], [ -60.12414086115497, -30.579166663975219 ], [ -60.119301117062463, -30.579166663975219 ], [ -60.121884834792482, -30.583333330641519 ], [ -60.13156473896813, -30.583333330641519 ], [ -60.128980875277293, -30.579166663975219 ], [ -60.133820349340006, -30.579166663975219 ], [ -60.131236547727127, -30.574999997308922 ], [ -60.128653286120375, -30.570833330642628 ], [ -60.123813957888089, -30.570833330642628 ], [ -60.118974629655789, -30.570833330642628 ], [ -60.121557475445776, -30.574999997308922 ] ] ] ] } },
{ "type": "Feature", "properties": { "_uid_": 988129.0, "id": 12234840.0, "initialdat": "2010-12-02", "finaldate": "2010-12-06", "area_ha": 64.332166887629029 }, "geometry": { "type": "MultiPolygon", "coordinates": [ [ [ [ -60.107692417722838, -30.591666663974113 ], [ -60.110276923449639, -30.59583333064041 ], [ -60.115117499784276, -30.59583333064041 ], [ -60.112532785931712, -30.591666663974113 ], [ -60.117373154140587, -30.591666663974113 ], [ -60.114788772338891, -30.587499997307813 ], [ -60.10510845208568, -30.587499997307813 ], [ -60.107692417722838, -30.591666663974113 ] ] ] ] } },
{ "type": "Feature", "properties": { "_uid_": 988133.0, "id": 12234845.0, "initialdat": "2010-12-06", "finaldate": "2010-12-07", "area_ha": 128.67634332412482 }, "geometry": { "type": "MultiPolygon", "coordinates": [ [ [ [ -60.232937055899335, -31.062499997265729 ], [ -60.228072892364146, -31.062499997265729 ], [ -60.23071138900201, -31.066666663932022 ], [ -60.240440142254982, -31.066666663932022 ], [ -60.245304518881468, -31.066666663932022 ], [ -60.242665382969669, -31.062499997265729 ], [ -60.247529546504843, -31.062499997265729 ], [ -60.244890747323858, -31.058333330599432 ], [ -60.230298895859107, -31.058333330599432 ], [ -60.232937055899335, -31.062499997265729 ] ] ] ] } },
{ "type": "Feature", "properties": { "_uid_": 988134.0, "id": 12234847.0, "initialdat": "2010-12-07", "finaldate": "2010-12-11", "area_ha": 64.339166539633268 }, "geometry": { "type": "MultiPolygon", "coordinates": [ [ [ [ -60.26295525861876, -31.079166663930916 ], [ -60.2580902424519, -31.079166663930916 ], [ -60.26073179174557, -31.083333330597213 ], [ -60.265597021181385, -31.083333330597213 ], [ -60.26295525861876, -31.079166663930916 ] ] ], [ [ [ -60.26073179174557, -31.083333330597213 ], [ -60.251001332873969, -31.083333330597213 ], [ -60.253643005864213, -31.087499997263507 ], [ -60.263373891362583, -31.087499997263507 ], [ -60.26073179174557, -31.083333330597213 ] ] ] ] } },
{ "type": "Feature", "properties": { "_uid_": 988136.0, "id": 12234849.0, "initialdat": "2010-12-07", "finaldate": "2010-12-07", "area_ha": 42.893734167456635 }, "geometry": { "type": "MultiPolygon", "coordinates": [ [ [ [ -60.297726186782342, -31.187499997254655 ], [ -60.292855611161436, -31.187499997254655 ], [ -60.295510000564001, -31.191666663920952 ], [ -60.300380790611712, -31.191666663920952 ], [ -60.297726186782342, -31.187499997254655 ] ] ], [ [ [ -60.295510000564001, -31.191666663920952 ], [ -60.290639210516282, -31.191666663920952 ], [ -60.293293938077042, -31.195833330587245 ], [ -60.298164942596216, -31.195833330587245 ], [ -60.295510000564001, -31.191666663920952 ] ] ] ] } },
{ "type": "Feature", "properties": { "_uid_": 988137.0, "id": 12234850.0, "initialdat": "2010-12-12", "finaldate": "2010-12-14", "area_ha": 42.893734298324595 }, "geometry": { "type": "MultiPolygon", "coordinates": [ [ [ [ -60.292855611161436, -31.187499997254655 ], [ -60.287985035540522, -31.187499997254655 ], [ -60.290639210516282, -31.191666663920952 ], [ -60.295510000564001, -31.191666663920952 ], [ -60.292855611161436, -31.187499997254655 ] ] ], [ [ [ -60.290639210516282, -31.191666663920952 ], [ -60.285768420468564, -31.191666663920952 ], [ -60.288422933557882, -31.195833330587245 ], [ -60.293293938077042, -31.195833330587245 ], [ -60.290639210516282, -31.191666663920952 ] ] ] ] } },
{ "type": "Feature", "properties": { "_uid_": 988138.0, "id": 12234851.0, "initialdat": "2010-12-12", "finaldate": "2010-12-12", "area_ha": 21.446857729995251 }, "geometry": { "type": "MultiPolygon", "coordinates": [ [ [ [ -60.249020430573196, -31.187499997254655 ], [ -60.244149854952298, -31.187499997254655 ], [ -60.246802100086818, -31.191666663920952 ], [ -60.251672890134522, -31.191666663920952 ], [ -60.249020430573196, -31.187499997254655 ] ] ] ] } },
{ "type": "Feature", "properties": { "_uid_": 988139.0, "id": 12234853.0, "initialdat": "2010-12-07", "finaldate": "2010-12-08", "area_ha": 85.789219874811167 }, "geometry": { "type": "MultiPolygon", "coordinates": [ [ [ [ -60.297274990667553, -31.224999997251331 ], [ -60.292402483597584, -31.224999997251331 ], [ -60.295060776164419, -31.229166663917624 ], [ -60.290188054265577, -31.229166663917624 ], [ -60.292846685275798, -31.233333330583925 ], [ -60.302592558820685, -31.233333330583925 ], [ -60.299933774744119, -31.229166663917624 ], [ -60.30480621996211, -31.229166663917624 ], [ -60.302147497737515, -31.224999997251331 ], [ -60.297274990667553, -31.224999997251331 ] ] ] ] } },
{ "type": "Feature", "properties": { "_uid_": 988140.0, "id": 12234854.0, "initialdat": "2010-12-02", "finaldate": "2010-12-02", "area_ha": 107.23687370756866 }, "geometry": { "type": "MultiPolygon", "coordinates": [ [ [ [ -60.391671953940573, -31.25833333058171 ], [ -60.381923500033544, -31.25833333058171 ], [ -60.384589234590898, -31.262499997248007 ], [ -60.374840350310158, -31.262499997248007 ], [ -60.377506209159698, -31.266666663914307 ], [ -60.392130181275633, -31.266666663914307 ], [ -60.389463676731246, -31.262499997248007 ], [ -60.394338118871602, -31.262499997248007 ], [ -60.391671953940573, -31.25833333058171 ] ] ] ] } },
{ "type": "Feature", "properties": { "_uid_": 1026604.0, "id": 12234852.0, "initialdat": "2010-12-18", "finaldate": "2010-12-18", "area_ha": 21.446876326823233 }, "geometry": { "type": "MultiPolygon", "coordinates": [ [ [ [ -60.310122370707163, -31.191666663920952 ], [ -60.305251580659444, -31.191666663920952 ], [ -60.30790695163455, -31.195833330587245 ], [ -60.31277795615371, -31.195833330587245 ], [ -60.310122370707163, -31.191666663920952 ] ] ] ] } },
{ "type": "Feature", "properties": { "_uid_": 1026605.0, "id": 12234855.0, "initialdat": "2010-12-27", "finaldate": "2011-01-03", "area_ha": 557.6224995247245 }, "geometry": { "type": "MultiPolygon", "coordinates": [ [ [ [ -60.366925768807661, -31.295833330578386 ], [ -60.371801934055576, -31.295833330578386 ], [ -60.369133545000011, -31.291666663912086 ], [ -60.374009217125561, -31.291666663912086 ], [ -60.371340890146534, -31.287499997245792 ], [ -60.368673118264581, -31.283333330579492 ], [ -60.366005901377875, -31.279166663913195 ], [ -60.363339239384658, -31.274999997246901 ], [ -60.358007579671785, -31.266666663914307 ], [ -60.353132922299821, -31.266666663914307 ], [ -60.348258264927836, -31.266666663914307 ], [ -60.343383607555857, -31.266666663914307 ], [ -60.346048514238042, -31.270833330580601 ], [ -60.341173641589656, -31.270833330580601 ], [ -60.343838887506273, -31.274999997246901 ], [ -60.354505418315256, -31.291666663912086 ], [ -60.359381368017843, -31.291666663912086 ], [ -60.362049603559775, -31.295833330578386 ], [ -60.366925768807661, -31.295833330578386 ] ], [ [ -60.361589421742352, -31.287499997245792 ], [ -60.356713965021555, -31.287499997245792 ], [ -60.35404656202526, -31.283333330579492 ], [ -60.358922080771698, -31.283333330579492 ], [ -60.357588704210571, -31.281249806251328 ], [ -60.361589421742352, -31.287499997245792 ] ] ], [ [ [ -60.343838887506273, -31.274999997246901 ], [ -60.338963799536685, -31.274999997246901 ], [ -60.341629384699822, -31.279166663913195 ], [ -60.344295524532384, -31.283333330579492 ], [ -60.349171043278815, -31.283333330579492 ], [ -60.346504688035431, -31.279166663913195 ], [ -60.343838887506273, -31.274999997246901 ] ] ] ] } }
]
}
