{
"type": "FeatureCollection",
"name": "2011",
"crs": { "type": "name", "properties": { "name": "urn:ogc:def:crs:OGC:1.3:CRS84" } },
"features": [
{ "type": "Feature", "properties": { "_uid_": 2095.0, "id": 12358718.0, "initialdat": "2011-01-10", "finaldate": "2011-01-12", "area_ha": 471.76713454066515 }, "geometry": { "type": "MultiPolygon", "coordinates": [ [ [ [ -60.0568437717668, -30.46249999731889 ], [ -60.047175896079111, -30.46249999731889 ], [ -60.049744531113497, -30.466666663985187 ], [ -60.044910386488532, -30.466666663985187 ], [ -60.042341958235262, -30.46249999731889 ], [ -60.037508020391414, -30.46249999731889 ], [ -60.040076241863567, -30.466666663985187 ], [ -60.04264500061538, -30.47083333065148 ], [ -60.032976297716715, -30.47083333065148 ], [ -60.035545180109082, -30.474999997317781 ], [ -60.038114599886889, -30.479166663984081 ], [ -60.047784130342677, -30.479166663984081 ], [ -60.067123191254275, -30.479166663984081 ], [ -60.064553067623983, -30.474999997317781 ], [ -60.069387088327943, -30.474999997317781 ], [ -60.061677709610635, -30.46249999731889 ], [ -60.0568437717668, -30.46249999731889 ] ] ] ] } },
{ "type": "Feature", "properties": { "_uid_": 2096.0, "id": 12358719.0, "initialdat": "2011-01-12", "finaldate": "2011-01-12", "area_ha": 64.331210906815528 }, "geometry": { "type": "MultiPolygon", "coordinates": [ [ [ [ -60.025573807988692, -30.466666663985187 ], [ -60.015905518738769, -30.466666663985187 ], [ -60.018473243368717, -30.47083333065148 ], [ -60.023307594818043, -30.47083333065148 ], [ -60.025876063475131, -30.474999997317781 ], [ -60.030710621792103, -30.474999997317781 ], [ -60.025573807988692, -30.466666663985187 ] ] ] ] } },
{ "type": "Feature", "properties": { "_uid_": 2097.0, "id": 12358720.0, "initialdat": "2011-01-06", "finaldate": "2011-01-12", "area_ha": 278.76737533016205 }, "geometry": { "type": "MultiPolygon", "coordinates": [ [ [ [ -60.031014612782094, -30.483333330650375 ], [ -60.033584693624363, -30.487499997316675 ], [ -60.028749514444783, -30.487499997316675 ], [ -60.031319925833714, -30.491666663982965 ], [ -60.040990698274463, -30.491666663982965 ], [ -60.038420141619333, -30.487499997316675 ], [ -60.04325505198355, -30.487499997316675 ], [ -60.040684557146299, -30.483333330650375 ], [ -60.045519529328388, -30.483333330650375 ], [ -60.042949365114779, -30.479166663984081 ], [ -60.038114599886889, -30.479166663984081 ], [ -60.032976297716715, -30.47083333065148 ], [ -60.04264500061538, -30.47083333065148 ], [ -60.040076241863567, -30.466666663985187 ], [ -60.025573807988692, -30.466666663985187 ], [ -60.030710621792103, -30.474999997317781 ], [ -60.025876063475131, -30.474999997317781 ], [ -60.031014612782094, -30.483333330650375 ] ] ] ] } },
{ "type": "Feature", "properties": { "_uid_": 2098.0, "id": 12358721.0, "initialdat": "2011-01-06", "finaldate": "2011-01-12", "area_ha": 235.88247468123436 }, "geometry": { "type": "MultiPolygon", "coordinates": [ [ [ [ -60.113165051183429, -30.545833330644836 ], [ -60.108326969489156, -30.545833330644836 ], [ -60.103488887794882, -30.545833330644836 ], [ -60.098650806100622, -30.545833330644836 ], [ -60.106390626064368, -30.558333330643727 ], [ -60.111229330832217, -30.558333330643727 ], [ -60.10864864375035, -30.554166663977433 ], [ -60.118325637816824, -30.554166663977433 ], [ -60.113165051183429, -30.545833330644836 ] ] ], [ [ [ -60.106390626064368, -30.558333330643727 ], [ -60.10123020676145, -30.549999997311136 ], [ -60.098650806100622, -30.545833330644836 ], [ -60.088974642712067, -30.545833330644836 ], [ -60.091553628077335, -30.549999997311136 ], [ -60.096391917419389, -30.549999997311136 ], [ -60.101551921296505, -30.558333330643727 ], [ -60.106390626064368, -30.558333330643727 ] ] ] ] } },
{ "type": "Feature", "properties": { "_uid_": 2099.0, "id": 12358724.0, "initialdat": "2011-01-05", "finaldate": "2011-01-06", "area_ha": 85.777508381366729 }, "geometry": { "type": "MultiPolygon", "coordinates": [ [ [ [ -60.118649469991752, -30.562499997310027 ], [ -60.113810557445859, -30.562499997310027 ], [ -60.108971644899974, -30.562499997310027 ], [ -60.111553203320746, -30.566666663976328 ], [ -60.114135301423495, -30.570833330642628 ], [ -60.123813957888089, -30.570833330642628 ], [ -60.118649469991752, -30.562499997310027 ] ] ] ] } },
{ "type": "Feature", "properties": { "_uid_": 2102.0, "id": 12358727.0, "initialdat": "2011-01-05", "finaldate": "2011-01-05", "area_ha": 21.444222228765486 }, "geometry": { "type": "MultiPolygon", "coordinates": [ [ [ [ -60.112532785931712, -30.591666663974113 ], [ -60.107692417722838, -30.591666663974113 ], [ -60.110276923449639, -30.59583333064041 ], [ -60.115117499784276, -30.59583333064041 ], [ -60.112532785931712, -30.591666663974113 ] ] ] ] } },
{ "type": "Feature", "properties": { "_uid_": 53146.0, "id": 12358722.0, "initialdat": "2011-01-12", "finaldate": "2011-01-18", "area_ha": 1007.8700636775136 }, "geometry": { "type": "MultiPolygon", "coordinates": [ [ [ [ -60.228337787747257, -30.595710067952528 ], [ -60.22381303195732, -30.591588627031967 ], [ -60.226450755481061, -30.59583333064041 ], [ -60.228412504468345, -30.59583333064041 ], [ -60.228337787747257, -30.595710067952528 ] ] ], [ [ [ -60.218432348971533, -30.586687552130307 ], [ -60.217050950885493, -30.585735227569756 ], [ -60.212561170640633, -30.583333330641519 ], [ -60.204164020285475, -30.583333330641519 ], [ -60.206751814744472, -30.587499997307813 ], [ -60.201911654617867, -30.587499997307813 ], [ -60.204499781900438, -30.591666663974113 ], [ -60.209340150109313, -30.591666663974113 ], [ -60.211929026477137, -30.59583333064041 ], [ -60.207088450142486, -30.59583333064041 ], [ -60.209677659441198, -30.599999997306703 ], [ -60.204836874937278, -30.599999997306703 ], [ -60.207426417177068, -30.604166663973004 ], [ -60.212267409893755, -30.604166663973004 ], [ -60.21710840261045, -30.604166663973004 ], [ -60.214518443945117, -30.599999997306703 ], [ -60.219359228449008, -30.599999997306703 ], [ -60.216769873383598, -30.59583333064041 ], [ -60.221610179146424, -30.59583333064041 ], [ -60.219021157072056, -30.591666663974113 ], [ -60.223861254735951, -30.591666663974113 ], [ -60.223812420255456, -30.591588069854254 ], [ -60.218432348971533, -30.586687552130307 ] ] ], [ [ [ -60.212469895211022, -30.566092510452183 ], [ -60.212537153393143, -30.565316756650883 ], [ -60.211713656577061, -30.558333330643727 ], [ -60.198326016653482, -30.558333330643727 ], [ -60.203496490300765, -30.566666663976328 ], [ -60.208335610668129, -30.566666663976328 ], [ -60.211437531918961, -30.571663587746027 ], [ -60.212469895211022, -30.566092510452183 ] ] ] ] } },
{ "type": "Feature", "properties": { "_uid_": 53147.0, "id": 12358723.0, "initialdat": "2011-01-08", "finaldate": "2011-01-17", "area_ha": 1415.3223037568569 }, "geometry": { "type": "MultiPolygon", "coordinates": [ [ [ [ -60.107692417722838, -30.591666663974113 ], [ -60.102852049513956, -30.591666663974113 ], [ -60.105436347114981, -30.59583333064041 ], [ -60.110276923449639, -30.59583333064041 ], [ -60.107692417722838, -30.591666663974113 ] ] ], [ [ [ -60.102852049513956, -30.591666663974113 ], [ -60.097686154057847, -30.583333330641519 ], [ -60.102525026441199, -30.583333330641519 ], [ -60.099942140692413, -30.579166663975219 ], [ -60.10478188478492, -30.579166663975219 ], [ -60.102199330883089, -30.574999997308922 ], [ -60.097035842218624, -30.566666663976328 ], [ -60.092196721851259, -30.566666663976328 ], [ -60.087357601483895, -30.566666663976328 ], [ -60.089938660262021, -30.570833330642628 ], [ -60.085099332029721, -30.570833330642628 ], [ -60.080260003797427, -30.570833330642628 ], [ -60.077679360749158, -30.566666663976328 ], [ -60.072840240381765, -30.566666663976328 ], [ -60.078001650179715, -30.574999997308922 ], [ -60.075420675565127, -30.570833330642628 ], [ -60.07058134733284, -30.570833330642628 ], [ -60.073162114039043, -30.574999997308922 ], [ -60.075743420229834, -30.579166663975219 ], [ -60.070903676137313, -30.579166663975219 ], [ -60.066063932044806, -30.579166663975219 ], [ -60.068645361826427, -30.583333330641519 ], [ -60.063805409738606, -30.583333330641519 ], [ -60.066387171072805, -30.587499997307813 ], [ -60.0615470109462, -30.587499997307813 ], [ -60.064129103842916, -30.591666663974113 ], [ -60.059288735634027, -30.591666663974113 ], [ -60.054448367425152, -30.591666663974113 ], [ -60.059613339820103, -30.599999997306703 ], [ -60.054772555316191, -30.599999997306703 ], [ -60.059939270462493, -30.608333330639304 ], [ -60.064780471435462, -30.608333330639304 ], [ -60.069621672408424, -30.608333330639304 ], [ -60.0744628733814, -30.608333330639304 ], [ -60.071878621110102, -30.604166663973004 ], [ -60.076719613826782, -30.604166663973004 ], [ -60.074135693331819, -30.599999997306703 ], [ -60.078976477835731, -30.599999997306703 ], [ -60.076392889107126, -30.59583333064041 ], [ -60.08123346544177, -30.59583333064041 ], [ -60.083817262339622, -30.599999997306703 ], [ -60.098339615851359, -30.599999997306703 ], [ -60.095755194445701, -30.59583333064041 ], [ -60.100595770780345, -30.59583333064041 ], [ -60.098011681305081, -30.591666663974113 ], [ -60.102852049513956, -30.591666663974113 ] ] ], [ [ [ -60.097035842218624, -30.566666663976328 ], [ -60.101874962585988, -30.566666663976328 ], [ -60.099293819808175, -30.562499997310027 ], [ -60.094454907262289, -30.562499997310027 ], [ -60.097035842218624, -30.566666663976328 ] ] ], [ [ [ -60.087357601483895, -30.566666663976328 ], [ -60.084777082170518, -30.562499997310027 ], [ -60.079938169624619, -30.562499997310027 ], [ -60.077358397457267, -30.558333330643727 ], [ -60.072519692689433, -30.558333330643727 ], [ -60.07509925707874, -30.562499997310027 ], [ -60.077679360749158, -30.566666663976328 ], [ -60.082518481116516, -30.566666663976328 ], [ -60.087357601483895, -30.566666663976328 ] ] ], [ [ [ -60.077358397457267, -30.558333330643727 ], [ -60.08219710222513, -30.558333330643727 ], [ -60.079617661550934, -30.554166663977433 ], [ -60.0747791645177, -30.554166663977433 ], [ -60.077358397457267, -30.558333330643727 ] ] ] ] } },
{ "type": "Feature", "properties": { "_uid_": 126158.0, "id": 12448030.0, "initialdat": "2011-02-21", "finaldate": "2011-02-21", "area_ha": 21.443271112418174 }, "geometry": { "type": "MultiPolygon", "coordinates": [ [ [ [ -60.089950630371824, -30.374999997326643 ], [ -60.085121024952237, -30.374999997326643 ], [ -60.087682309069727, -30.37916666399294 ], [ -60.092512120363764, -30.37916666399294 ], [ -60.089950630371824, -30.374999997326643 ] ] ] ] } },
{ "type": "Feature", "properties": { "_uid_": 126184.0, "id": 12448032.0, "initialdat": "2011-02-27", "finaldate": "2011-02-27", "area_ha": 21.443380699694156 }, "geometry": { "type": "MultiPolygon", "coordinates": [ [ [ [ -60.07634256759669, -30.399999997324425 ], [ -60.071511726283745, -30.399999997324425 ], [ -60.074074992074159, -30.404166663990726 ], [ -60.078906039520263, -30.404166663990726 ], [ -60.07634256759669, -30.399999997324425 ] ] ] ] } },
{ "type": "Feature", "properties": { "_uid_": 126191.0, "id": 12448039.0, "initialdat": "2011-02-26", "finaldate": "2011-02-28", "area_ha": 107.22175744677781 }, "geometry": { "type": "MultiPolygon", "coordinates": [ [ [ [ -60.110606562843529, -30.604166663973004 ], [ -60.105765570126842, -30.604166663973004 ], [ -60.103180400355249, -30.599999997306703 ], [ -60.098339615851359, -30.599999997306703 ], [ -60.100924577410176, -30.604166663973004 ], [ -60.103510079219198, -30.608333330639304 ], [ -60.113192481165115, -30.608333330639304 ], [ -60.110606562843529, -30.604166663973004 ] ] ], [ [ [ -60.103180400355249, -30.599999997306703 ], [ -60.108021184859169, -30.599999997306703 ], [ -60.105436347114981, -30.59583333064041 ], [ -60.100595770780345, -30.59583333064041 ], [ -60.103180400355249, -30.599999997306703 ] ] ], [ [ [ -60.115117499784276, -30.59583333064041 ], [ -60.110276923449639, -30.59583333064041 ], [ -60.112861969363074, -30.599999997306703 ], [ -60.117702753866979, -30.599999997306703 ], [ -60.115117499784276, -30.59583333064041 ] ] ] ] } },
{ "type": "Feature", "properties": { "_uid_": 126192.0, "id": 12448040.0, "initialdat": "2011-02-16", "finaldate": "2011-02-16", "area_ha": 21.444240496563911 }, "geometry": { "type": "MultiPolygon", "coordinates": [ [ [ [ -60.110276923449639, -30.59583333064041 ], [ -60.105436347114981, -30.59583333064041 ], [ -60.108021184859169, -30.599999997306703 ], [ -60.112861969363074, -30.599999997306703 ], [ -60.110276923449639, -30.59583333064041 ] ] ] ] } },
{ "type": "Feature", "properties": { "_uid_": 126194.0, "id": 12448043.0, "initialdat": "2011-02-28", "finaldate": "2011-02-28", "area_ha": 42.888590888702872 }, "geometry": { "type": "MultiPolygon", "coordinates": [ [ [ [ -60.093827677273261, -30.608333330639304 ], [ -60.08414527532733, -30.608333330639304 ], [ -60.086730484284381, -30.612499997305598 ], [ -60.09641330282993, -30.612499997305598 ], [ -60.093827677273261, -30.608333330639304 ] ] ] ] } },
{ "type": "Feature", "properties": { "_uid_": 126196.0, "id": 12448045.0, "initialdat": "2011-02-10", "finaldate": "2011-02-14", "area_ha": 107.22301818673611 }, "geometry": { "type": "MultiPolygon", "coordinates": [ [ [ [ -60.215022453129357, -30.670833330633766 ], [ -60.210178123084845, -30.670833330633766 ], [ -60.212775207470216, -30.674999997300059 ], [ -60.217619746468351, -30.674999997300059 ], [ -60.215022453129357, -30.670833330633766 ] ] ], [ [ [ -60.212775207470216, -30.674999997300059 ], [ -60.207930668472102, -30.674999997300059 ], [ -60.210528086375874, -30.67916666396636 ], [ -60.215372834371244, -30.67916666396636 ], [ -60.212775207470216, -30.674999997300059 ] ] ], [ [ [ -60.210528086375874, -30.67916666396636 ], [ -60.205683338380496, -30.67916666396636 ], [ -60.210879383869283, -30.68749999729895 ], [ -60.215724549990149, -30.68749999729895 ], [ -60.210528086375874, -30.67916666396636 ] ] ], [ [ [ -60.210879383869283, -30.68749999729895 ], [ -60.208281089813028, -30.68333333063266 ], [ -60.203436132776737, -30.68333333063266 ], [ -60.206034217748417, -30.68749999729895 ], [ -60.210879383869283, -30.68749999729895 ] ] ] ] } },
{ "type": "Feature", "properties": { "_uid_": 126197.0, "id": 12448046.0, "initialdat": "2011-02-28", "finaldate": "2011-02-28", "area_ha": 21.444680804908277 }, "geometry": { "type": "MultiPolygon", "coordinates": [ [ [ [ -60.051327729928239, -30.695833330631551 ], [ -60.046482145507198, -30.695833330631551 ], [ -60.049074745474456, -30.699999997297844 ], [ -60.053920539111111, -30.699999997297844 ], [ -60.051327729928239, -30.695833330631551 ] ] ] ] } },
{ "type": "Feature", "properties": { "_uid_": 126198.0, "id": 12448047.0, "initialdat": "2011-02-15", "finaldate": "2011-03-13", "area_ha": 3345.3993619130911 }, "geometry": { "type": "MultiPolygon", "coordinates": [ [ [ [ -60.128357313131936, -30.741666663960821 ], [ -60.130958181475371, -30.745833330627121 ], [ -60.135806279369561, -30.745833330627121 ], [ -60.133205201329417, -30.741666663960821 ], [ -60.162292530514272, -30.741666663960821 ], [ -60.15969100912077, -30.737499997294528 ], [ -60.16453841608898, -30.737499997294528 ], [ -60.161936956662629, -30.733333330628227 ], [ -60.166784425597974, -30.733333330628227 ], [ -60.171631894533355, -30.733333330628227 ], [ -60.169030559074571, -30.72916666396193 ], [ -60.173877818444524, -30.72916666396193 ], [ -60.176479363468708, -30.733333330628227 ], [ -60.181326832404082, -30.733333330628227 ], [ -60.178725077814491, -30.72916666396193 ], [ -60.18357233718443, -30.72916666396193 ], [ -60.180970916248647, -30.724999997295637 ], [ -60.185817966096941, -30.724999997295637 ], [ -60.183216878804529, -30.720833330629336 ], [ -60.188063719174906, -30.720833330629336 ], [ -60.185462965515377, -30.716666663963036 ], [ -60.175769703642992, -30.716666663963036 ], [ -60.178370038434146, -30.720833330629336 ], [ -60.168676629161332, -30.720833330629336 ], [ -60.166076441770599, -30.716666663963036 ], [ -60.156383179898214, -30.716666663963036 ], [ -60.161582716855484, -30.724999997295637 ], [ -60.158982676952647, -30.720833330629336 ], [ -60.154135836582277, -30.720833330629336 ], [ -60.149288996211894, -30.720833330629336 ], [ -60.139595315471141, -30.720833330629336 ], [ -60.134748475100771, -30.720833330629336 ], [ -60.132150296483204, -30.716666663963036 ], [ -60.136996656153435, -30.716666663963036 ], [ -60.134398539411372, -30.712499997296735 ], [ -60.139244960957114, -30.712499997296735 ], [ -60.136647177346163, -30.708333330630438 ], [ -60.141493389545161, -30.708333330630438 ], [ -60.136299030934516, -30.699999997297844 ], [ -60.131453237297862, -30.699999997297844 ], [ -60.12885708066505, -30.695833330631551 ], [ -60.124011496243995, -30.695833330631551 ], [ -60.126607443661179, -30.699999997297844 ], [ -60.12176165002451, -30.699999997297844 ], [ -60.124357930367019, -30.704166663964145 ], [ -60.119511927471031, -30.704166663964145 ], [ -60.122108540749132, -30.708333330630438 ], [ -60.117262328550126, -30.708333330630438 ], [ -60.11985927477415, -30.712499997296735 ], [ -60.115012853228407, -30.712499997296735 ], [ -60.112416116351113, -30.708333330630438 ], [ -60.107569904152101, -30.708333330630438 ], [ -60.102723691953095, -30.708333330630438 ], [ -60.107916870536272, -30.716666663963036 ], [ -60.105320010136928, -30.712499997296735 ], [ -60.100473588591186, -30.712499997296735 ], [ -60.103070239600079, -30.716666663963036 ], [ -60.098223608663879, -30.716666663963036 ], [ -60.095627167045443, -30.712499997296735 ], [ -60.0907807454997, -30.712499997296735 ], [ -60.088185055356064, -30.708333330630438 ], [ -60.093031267555084, -30.708333330630438 ], [ -60.087841094567814, -30.699999997297844 ], [ -60.082995300931145, -30.699999997297844 ], [ -60.085589907199122, -30.704166663964145 ], [ -60.080743904303134, -30.704166663964145 ], [ -60.075897901407146, -30.704166663964145 ], [ -60.073303713657808, -30.699999997297844 ], [ -60.068457920021139, -30.699999997297844 ], [ -60.071051898511165, -30.704166663964145 ], [ -60.066205895615177, -30.704166663964145 ], [ -60.061359892719189, -30.704166663964145 ], [ -60.063953994361029, -30.708333330630438 ], [ -60.068800206560034, -30.708333330630438 ], [ -60.071395059316735, -30.712499997296735 ], [ -60.073990453982901, -30.716666663963036 ], [ -60.07658639065626, -30.720833330629336 ], [ -60.071739550285891, -30.720833330629336 ], [ -60.066892709915507, -30.720833330629336 ], [ -60.069488769737923, -30.724999997295637 ], [ -60.064641719889643, -30.724999997295637 ], [ -60.067238112305574, -30.72916666396193 ], [ -60.081779890415433, -30.72916666396193 ], [ -60.079182869434518, -30.724999997295637 ], [ -60.08697555937642, -30.737499997294528 ], [ -60.091823237920948, -30.737499997294528 ], [ -60.096670916465484, -30.737499997294528 ], [ -60.094072391567508, -30.733333330628227 ], [ -60.099269983947096, -30.741666663960821 ], [ -60.104117872144563, -30.741666663960821 ], [ -60.108965760342031, -30.741666663960821 ], [ -60.106366273554556, -30.737499997294528 ], [ -60.120909309188164, -30.737499997294528 ], [ -60.123509424934468, -30.741666663960821 ], [ -60.128357313131936, -30.741666663960821 ] ] ], [ [ [ -60.124011496243995, -30.695833330631551 ], [ -60.121416090913741, -30.69166666396525 ], [ -60.126261466162866, -30.69166666396525 ], [ -60.131106841411984, -30.69166666396525 ], [ -60.13595221666111, -30.69166666396525 ], [ -60.133356725935414, -30.68749999729895 ], [ -60.128511559814548, -30.68749999729895 ], [ -60.123666393693682, -30.68749999729895 ], [ -60.113976061451943, -30.68749999729895 ], [ -60.119165911822947, -30.695833330631551 ], [ -60.124011496243995, -30.695833330631551 ] ] ], [ [ [ -60.117262328550126, -30.708333330630438 ], [ -60.114665924575043, -30.704166663964145 ], [ -60.109819921679062, -30.704166663964145 ], [ -60.112416116351113, -30.708333330630438 ], [ -60.117262328550126, -30.708333330630438 ] ] ], [ [ [ -60.08697555937642, -30.737499997294528 ], [ -60.084377453696781, -30.733333330628227 ], [ -60.079529984761429, -30.733333330628227 ], [ -60.082127880831877, -30.737499997294528 ], [ -60.08697555937642, -30.737499997294528 ] ] ], [ [ [ -60.099269983947096, -30.741666663960821 ], [ -60.094422095749628, -30.741666663960821 ], [ -60.097021496216051, -30.745833330627121 ], [ -60.101869594110234, -30.745833330627121 ], [ -60.099269983947096, -30.741666663960821 ] ] ] ] } },
{ "type": "Feature", "properties": { "_uid_": 126199.0, "id": 12448048.0, "initialdat": "2011-02-20", "finaldate": "2011-02-20", "area_ha": 21.444717370462417 }, "geometry": { "type": "MultiPolygon", "coordinates": [ [ [ [ -60.109819921679062, -30.704166663964145 ], [ -60.10497391878306, -30.704166663964145 ], [ -60.107569904152101, -30.708333330630438 ], [ -60.112416116351113, -30.708333330630438 ], [ -60.109819921679062, -30.704166663964145 ] ] ] ] } },
{ "type": "Feature", "properties": { "_uid_": 126200.0, "id": 12448051.0, "initialdat": "2011-02-14", "finaldate": "2011-02-14", "area_ha": 21.4449012139678 }, "geometry": { "type": "MultiPolygon", "coordinates": [ [ [ [ -60.252160628830083, -30.745833330627121 ], [ -60.247312530935893, -30.745833330627121 ], [ -60.249918976093412, -30.749999997293415 ], [ -60.2547672837281, -30.749999997293415 ], [ -60.252160628830083, -30.745833330627121 ] ] ] ] } },
{ "type": "Feature", "properties": { "_uid_": 159024.0, "id": 12528269.0, "initialdat": "2011-03-13", "finaldate": "2011-03-13", "area_ha": 21.444662358927722 }, "geometry": { "type": "MultiPolygon", "coordinates": [ [ [ [ -60.126261466162866, -30.69166666396525 ], [ -60.121416090913741, -30.69166666396525 ], [ -60.124011496243995, -30.695833330631551 ], [ -60.12885708066505, -30.695833330631551 ], [ -60.126261466162866, -30.69166666396525 ] ] ] ] } },
{ "type": "Feature", "properties": { "_uid_": 159025.0, "id": 12528271.0, "initialdat": "2011-03-13", "finaldate": "2011-03-13", "area_ha": 21.444717420220375 }, "geometry": { "type": "MultiPolygon", "coordinates": [ [ [ [ -60.119511927471031, -30.704166663964145 ], [ -60.114665924575043, -30.704166663964145 ], [ -60.117262328550126, -30.708333330630438 ], [ -60.122108540749132, -30.708333330630438 ], [ -60.119511927471031, -30.704166663964145 ] ] ] ] } },
{ "type": "Feature", "properties": { "_uid_": 159026.0, "id": 12528272.0, "initialdat": "2011-03-06", "finaldate": "2011-03-07", "area_ha": 85.780045992660519 }, "geometry": { "type": "MultiPolygon", "coordinates": [ [ [ [ -60.16572445054021, -30.708333330630438 ], [ -60.160878238341184, -30.708333330630438 ], [ -60.163477068685815, -30.712499997296735 ], [ -60.158630647140086, -30.712499997296735 ], [ -60.161229810834399, -30.716666663963036 ], [ -60.170923072706799, -30.716666663963036 ], [ -60.168323761623505, -30.712499997296735 ], [ -60.1731699117773, -30.712499997296735 ], [ -60.170570662739216, -30.708333330630438 ], [ -60.16572445054021, -30.708333330630438 ] ] ] ] } },
{ "type": "Feature", "properties": { "_uid_": 159027.0, "id": 12528273.0, "initialdat": "2011-03-01", "finaldate": "2011-03-01", "area_ha": 21.444974894237522 }, "geometry": { "type": "MultiPolygon", "coordinates": [ [ [ [ -60.223799017273038, -30.762499997292306 ], [ -60.21895008015408, -30.762499997292306 ], [ -60.221557023339933, -30.766666663958606 ], [ -60.226406170374595, -30.766666663958606 ], [ -60.223799017273038, -30.762499997292306 ] ] ] ] } },
{ "type": "Feature", "properties": { "_uid_": 286022.0, "id": 12664500.0, "initialdat": "2011-05-04", "finaldate": "2011-05-04", "area_ha": 21.442797215080262 }, "geometry": { "type": "MultiPolygon", "coordinates": [ [ [ [ -60.013891253971565, -30.266666664002909 ], [ -60.009066986185864, -30.266666664002909 ], [ -60.011613953788093, -30.270833330669209 ], [ -60.016438426330424, -30.270833330669209 ], [ -60.013891253971565, -30.266666664002909 ] ] ] ] } },
{ "type": "Feature", "properties": { "_uid_": 286023.0, "id": 12664501.0, "initialdat": "2011-05-01", "finaldate": "2011-05-01", "area_ha": 21.442833657324314 }, "geometry": { "type": "MultiPolygon", "coordinates": [ [ [ [ -60.009336777657978, -30.274999997335502 ], [ -60.00451210031612, -30.274999997335502 ], [ -60.007059725547364, -30.279166664001803 ], [ -60.011884607731652, -30.279166664001803 ], [ -60.009336777657978, -30.274999997335502 ] ] ] ] } },
{ "type": "Feature", "properties": { "_uid_": 315681.0, "id": 12664499.0, "initialdat": "2011-05-07", "finaldate": "2011-05-16", "area_ha": 214.4281367283821 }, "geometry": { "type": "MultiPolygon", "coordinates": [ [ [ [ -60.009336777657978, -30.274999997335502 ], [ -60.011884607731652, -30.279166664001803 ], [ -60.02153437210017, -30.279166664001803 ], [ -60.018986132341652, -30.274999997335502 ], [ -60.028635487025326, -30.274999997335502 ], [ -60.026087371415052, -30.270833330669209 ], [ -60.030911843957391, -30.270833330669209 ], [ -60.028364057328673, -30.266666664002909 ], [ -60.018715521757272, -30.266666664002909 ], [ -60.013891253971565, -30.266666664002909 ], [ -60.016438426330424, -30.270833330669209 ], [ -60.011613953788093, -30.270833330669209 ], [ -60.001965008703451, -30.270833330669209 ], [ -60.00451210031612, -30.274999997335502 ], [ -60.009336777657978, -30.274999997335502 ] ] ] ] } },
{ "type": "Feature", "properties": { "_uid_": 439615.0, "id": 12837520.0, "initialdat": "2011-07-02", "finaldate": "2011-07-02", "area_ha": 42.885594672608377 }, "geometry": { "type": "MultiPolygon", "coordinates": [ [ [ [ -60.028364057328673, -30.266666664002909 ], [ -60.018715521757272, -30.266666664002909 ], [ -60.021262898872742, -30.270833330669209 ], [ -60.030911843957391, -30.270833330669209 ], [ -60.028364057328673, -30.266666664002909 ] ] ] ] } },
{ "type": "Feature", "properties": { "_uid_": 550883.0, "id": 12965738.0, "initialdat": "2011-08-05", "finaldate": "2011-08-13", "area_ha": 364.52465623165369 }, "geometry": { "type": "MultiPolygon", "coordinates": [ [ [ [ -60.001893572520657, -30.231970991498716 ], [ -59.999489152636635, -30.233304844486028 ], [ -59.998428509445304, -30.233452187953883 ], [ -60.000898817449531, -30.237499997338826 ], [ -60.005721653139396, -30.237499997338826 ], [ -60.002288786676978, -30.231875406303697 ], [ -60.001893572520657, -30.231970991498716 ] ] ], [ [ [ -59.997089133050224, -30.233638252753458 ], [ -59.991025694120545, -30.234806908300882 ], [ -59.987947073089082, -30.235570413573612 ], [ -59.986452222379917, -30.2361104772719 ], [ -59.985644396824462, -30.236212035591205 ], [ -59.986430310379937, -30.237499997338826 ], [ -59.981607474690065, -30.237499997338826 ], [ -59.984150300767737, -30.241666664005127 ], [ -59.988973340914157, -30.241666664005127 ], [ -59.993796381060569, -30.241666664005127 ], [ -59.996340148997298, -30.245833330671417 ], [ -59.998884449974682, -30.249999997337717 ], [ -60.001429284087443, -30.254166664004011 ], [ -60.006252937860602, -30.254166664004011 ], [ -60.011076591633753, -30.254166664004011 ], [ -60.008531348350772, -30.249999997337717 ], [ -60.013354797538817, -30.249999997337717 ], [ -60.018178246726876, -30.249999997337717 ], [ -60.015633127580514, -30.245833330671417 ], [ -60.013088541646226, -30.241666664005127 ], [ -60.008265501499807, -30.241666664005127 ], [ -60.010809882934701, -30.245833330671417 ], [ -60.001163393643097, -30.245833330671417 ], [ -59.998619421206982, -30.241666664005127 ], [ -60.003442461353394, -30.241666664005127 ], [ -60.000898817449531, -30.237499997338826 ], [ -59.998428270853879, -30.233452221098762 ], [ -59.997089133050224, -30.233638252753458 ] ] ] ] } },
{ "type": "Feature", "properties": { "_uid_": 550885.0, "id": 12965740.0, "initialdat": "2011-08-09", "finaldate": "2011-08-09", "area_ha": 21.442706373643876 }, "geometry": { "type": "MultiPolygon", "coordinates": [ [ [ [ -60.030102861517904, -30.245833330671417 ], [ -60.025279616872105, -30.245833330671417 ], [ -60.027825145102966, -30.249999997337717 ], [ -60.032648594291011, -30.249999997337717 ], [ -60.030102861517904, -30.245833330671417 ] ] ] ] } },
{ "type": "Feature", "properties": { "_uid_": 550896.0, "id": 12965772.0, "initialdat": "2011-08-11", "finaldate": "2011-08-11", "area_ha": 42.889600297427179 }, "geometry": { "type": "MultiPolygon", "coordinates": [ [ [ [ -60.042658508063646, -30.720833330629336 ], [ -60.037811667693262, -30.720833330629336 ], [ -60.040406470648186, -30.724999997295637 ], [ -60.045253520496473, -30.724999997295637 ], [ -60.042658508063646, -30.720833330629336 ] ] ], [ [ [ -60.040406470648186, -30.724999997295637 ], [ -60.035559420799878, -30.724999997295637 ], [ -60.03815455608585, -30.72916666396193 ], [ -60.043001815455817, -30.72916666396193 ], [ -60.040406470648186, -30.724999997295637 ] ] ] ] } },
{ "type": "Feature", "properties": { "_uid_": 614234.0, "id": 12965741.0, "initialdat": "2011-08-07", "finaldate": "2011-08-25", "area_ha": 857.71074084367751 }, "geometry": { "type": "MultiPolygon", "coordinates": [ [ [ [ -60.02153437210017, -30.279166664001803 ], [ -60.024083145700914, -30.283333330668096 ], [ -60.028908232770526, -30.283333330668096 ], [ -60.03373331984011, -30.283333330668096 ], [ -60.031184136468688, -30.279166664001803 ], [ -60.036009018652976, -30.279166664001803 ], [ -60.03346016436717, -30.274999997335502 ], [ -60.038284841709014, -30.274999997335502 ], [ -60.035736316499708, -30.270833330669209 ], [ -60.040560789042026, -30.270833330669209 ], [ -60.038012592900081, -30.266666664002909 ], [ -60.033188325114367, -30.266666664002909 ], [ -60.030640867458104, -30.262499997336612 ], [ -60.028093943435998, -30.258333330670311 ], [ -60.032917801837122, -30.258333330670311 ], [ -60.030371206726358, -30.254166664004011 ], [ -60.027825145102966, -30.249999997337717 ], [ -60.025279616872105, -30.245833330671417 ], [ -60.020456372226313, -30.245833330671417 ], [ -60.023001695914907, -30.249999997337717 ], [ -60.018178246726876, -30.249999997337717 ], [ -60.023270085034873, -30.258333330670311 ], [ -60.020723899180062, -30.254166664004011 ], [ -60.015900245406897, -30.254166664004011 ], [ -60.018446226633749, -30.258333330670311 ], [ -60.013622368232625, -30.258333330670311 ], [ -60.008798509831507, -30.258333330670311 ], [ -60.011344615170216, -30.262499997336612 ], [ -60.006520552098252, -30.262499997336612 ], [ -60.009066986185864, -30.266666664002909 ], [ -60.004242718400171, -30.266666664002909 ], [ -60.006789481245782, -30.270833330669209 ], [ -59.99714053616114, -30.270833330669209 ], [ -59.99968742297429, -30.274999997335502 ], [ -59.994862745632446, -30.274999997335502 ], [ -59.997409961178846, -30.279166664001803 ], [ -59.992585078994587, -30.279166664001803 ], [ -59.995132623283311, -30.283333330668096 ], [ -59.999957710352895, -30.283333330668096 ], [ -60.004782797422507, -30.283333330668096 ], [ -60.002234843363119, -30.279166664001803 ], [ -60.007059725547364, -30.279166664001803 ], [ -60.011884607731652, -30.279166664001803 ], [ -60.009336777657978, -30.274999997335502 ], [ -60.014161454999808, -30.274999997335502 ], [ -60.016709489915911, -30.279166664001803 ], [ -60.02153437210017, -30.279166664001803 ] ], [ [ -60.02153437210017, -30.279166664001803 ], [ -60.018986132341652, -30.274999997335502 ], [ -60.023810809683496, -30.274999997335502 ], [ -60.026359254284444, -30.279166664001803 ], [ -60.02153437210017, -30.279166664001803 ] ] ] ] } },
{ "type": "Feature", "properties": { "_uid_": 614236.0, "id": 12965743.0, "initialdat": "2011-08-16", "finaldate": "2011-08-16", "area_ha": 21.442906463515762 }, "geometry": { "type": "MultiPolygon", "coordinates": [ [ [ [ -59.995403816025693, -30.291666664000694 ], [ -59.990578319056645, -30.291666664000694 ], [ -59.993127054641043, -30.295833330666987 ], [ -59.997952756624215, -30.295833330666987 ], [ -59.995403816025693, -30.291666664000694 ] ] ] ] } },
{ "type": "Feature", "properties": { "_uid_": 614250.0, "id": 12965766.0, "initialdat": "2011-08-21", "finaldate": "2011-08-21", "area_ha": 21.444460398495199 }, "geometry": { "type": "MultiPolygon", "coordinates": [ [ [ [ -60.102588536591703, -30.64583333063598 ], [ -60.097745459352659, -30.64583333063598 ], [ -60.100335116856563, -30.649999997302281 ], [ -60.105178402787487, -30.649999997302281 ], [ -60.102588536591703, -30.64583333063598 ] ] ] ] } },
{ "type": "Feature", "properties": { "_uid_": 614251.0, "id": 12965767.0, "initialdat": "2011-08-24", "finaldate": "2011-08-29", "area_ha": 107.22296897361278 }, "geometry": { "type": "MultiPolygon", "coordinates": [ [ [ [ -60.09582864824489, -30.658333330634875 ], [ -60.090984944799381, -30.658333330634875 ], [ -60.093575599301467, -30.662499997301168 ], [ -60.10326342383788, -30.662499997301168 ], [ -60.100672351690392, -30.658333330634875 ], [ -60.105516055135901, -30.658333330634875 ], [ -60.102925315418524, -30.654166663968574 ], [ -60.100335116856563, -30.649999997302281 ], [ -60.09549183092561, -30.649999997302281 ], [ -60.098081820752093, -30.654166663968574 ], [ -60.093238326085689, -30.654166663968574 ], [ -60.09582864824489, -30.658333330634875 ] ] ] ] } },
{ "type": "Feature", "properties": { "_uid_": 683094.0, "id": 13111220.0, "initialdat": "2011-09-04", "finaldate": "2011-09-04", "area_ha": 21.444478854751587 }, "geometry": { "type": "MultiPolygon", "coordinates": [ [ [ [ -60.09549183092561, -30.649999997302281 ], [ -60.090648544994679, -30.649999997302281 ], [ -60.093238326085689, -30.654166663968574 ], [ -60.098081820752093, -30.654166663968574 ], [ -60.09549183092561, -30.649999997302281 ] ] ] ] } },
{ "type": "Feature", "properties": { "_uid_": 747012.0, "id": 13111249.0, "initialdat": "2011-09-09", "finaldate": "2011-09-20", "area_ha": 171.57698488590717 }, "geometry": { "type": "MultiPolygon", "coordinates": [ [ [ [ -60.302174660402564, -31.270833330580601 ], [ -60.299511691208068, -31.266666663914307 ], [ -60.294637033836096, -31.266666663914307 ], [ -60.29729978775417, -31.270833330580601 ], [ -60.302174660402564, -31.270833330580601 ] ] ], [ [ [ -60.302174660402564, -31.270833330580601 ], [ -60.30704953305095, -31.270833330580601 ], [ -60.31192440569933, -31.270833330580601 ], [ -60.316799278347723, -31.270833330580601 ], [ -60.314135663324009, -31.266666663914307 ], [ -60.319010320695966, -31.266666663914307 ], [ -60.316347044625886, -31.262499997248007 ], [ -60.311472602485544, -31.262499997248007 ], [ -60.306598160345182, -31.262499997248007 ], [ -60.301723718204826, -31.262499997248007 ], [ -60.296849276064464, -31.262499997248007 ], [ -60.302174660402564, -31.270833330580601 ] ] ] ] } },
{ "type": "Feature", "properties": { "_uid_": 964784.0, "id": 13423980.0, "initialdat": "2011-12-10", "finaldate": "2011-12-10", "area_ha": 21.444625748205183 }, "geometry": { "type": "MultiPolygon", "coordinates": [ [ [ [ -60.096847077978403, -30.68333333063266 ], [ -60.092002120942098, -30.68333333063266 ], [ -60.094595396968465, -30.68749999729895 ], [ -60.099440563089345, -30.68749999729895 ], [ -60.096847077978403, -30.68333333063266 ] ] ] ] } },
{ "type": "Feature", "properties": { "_uid_": 964788.0, "id": 13423989.0, "initialdat": "2011-12-14", "finaldate": "2011-12-14", "area_ha": 21.445859019064905 }, "geometry": { "type": "MultiPolygon", "coordinates": [ [ [ [ -60.194068012391178, -30.962499997274591 ], [ -60.189208949748902, -30.962499997274591 ], [ -60.191835342628806, -30.966666663940885 ], [ -60.196694617299244, -30.966666663940885 ], [ -60.194068012391178, -30.962499997274591 ] ] ] ] } },
{ "type": "Feature", "properties": { "_uid_": 964789.0, "id": 13423990.0, "initialdat": "2011-12-15", "finaldate": "2011-12-15", "area_ha": 21.446043756532671 }, "geometry": { "type": "MultiPolygon", "coordinates": [ [ [ [ -60.064800798832749, -31.004166663937561 ], [ -60.059939613918623, -31.004166663937561 ], [ -60.062564687926702, -31.008333330603861 ], [ -60.067426085311411, -31.008333330603861 ], [ -60.064800798832749, -31.004166663937561 ] ] ] ] } },
{ "type": "Feature", "properties": { "_uid_": 964790.0, "id": 13423992.0, "initialdat": "2011-12-03", "finaldate": "2011-12-04", "area_ha": 42.894216449749472 }, "geometry": { "type": "MultiPolygon", "coordinates": [ [ [ [ -60.320320225599843, -31.245833330582816 ], [ -60.322981930922801, -31.249999997249109 ], [ -60.327855727636951, -31.249999997249109 ], [ -60.325193807261442, -31.245833330582816 ], [ -60.322532440787413, -31.241666663916515 ], [ -60.317659074133594, -31.241666663916515 ], [ -60.320320225599843, -31.245833330582816 ] ] ] ] } },
{ "type": "Feature", "properties": { "_uid_": 964791.0, "id": 13423996.0, "initialdat": "2011-12-02", "finaldate": "2011-12-08", "area_ha": 171.57952080533505 }, "geometry": { "type": "MultiPolygon", "coordinates": [ [ [ [ -60.348342959019796, -31.312499997243577 ], [ -60.343465931142063, -31.312499997243577 ], [ -60.346135648916217, -31.316666663909871 ], [ -60.341258405268825, -31.316666663909871 ], [ -60.346599075464781, -31.324999997242468 ], [ -60.351476750786127, -31.324999997242468 ], [ -60.348805922096901, -31.320833330576171 ], [ -60.35368338155881, -31.320833330576171 ], [ -60.348342959019796, -31.312499997243577 ] ] ], [ [ [ -60.346599075464781, -31.324999997242468 ], [ -60.343928462634985, -31.320833330576171 ], [ -60.341258405268825, -31.316666663909871 ], [ -60.336381161621439, -31.316666663909871 ], [ -60.339051003173076, -31.320833330576171 ], [ -60.329296084249258, -31.320833330576171 ], [ -60.331966049500764, -31.324999997242468 ], [ -60.341721400143435, -31.324999997242468 ], [ -60.346599075464781, -31.324999997242468 ] ] ] ] } }
]
}
