{
"type": "FeatureCollection",
"name": "2012",
"crs": { "type": "name", "properties": { "name": "urn:ogc:def:crs:OGC:1.3:CRS84" } },
"features": [
{ "type": "Feature", "properties": { "_uid_": 4239.0, "id": 13543100.0, "initialdat": "2012-01-08", "finaldate": "2012-01-08", "area_ha": 85.77450948791504 }, "geometry": { "type": "MultiPolygon", "coordinates": [ [ [ [ -60.051707286547241, -30.454166663986296 ], [ -60.042040237724521, -30.454166663986296 ], [ -60.044607798314829, -30.458333330652589 ], [ -60.039774067208839, -30.458333330652589 ], [ -60.042341958235262, -30.46249999731889 ], [ -60.052009833922952, -30.46249999731889 ], [ -60.049441529420804, -30.458333330652589 ], [ -60.054275260526779, -30.458333330652589 ], [ -60.051707286547241, -30.454166663986296 ] ] ] ] } },
{ "type": "Feature", "properties": { "_uid_": 4240.0, "id": 13543101.0, "initialdat": "2012-01-04", "finaldate": "2012-01-12", "area_ha": 278.76742015761135 }, "geometry": { "type": "MultiPolygon", "coordinates": [ [ [ [ -60.006237229488839, -30.466666663985187 ], [ -60.001403084863888, -30.466666663985187 ], [ -60.003970189020691, -30.47083333065148 ], [ -60.008804540470038, -30.47083333065148 ], [ -60.013638891919364, -30.47083333065148 ], [ -60.018473243368717, -30.47083333065148 ], [ -60.015905518738769, -30.466666663985187 ], [ -60.020739663363727, -30.466666663985187 ], [ -60.025573807988692, -30.466666663985187 ], [ -60.02300620685989, -30.46249999731889 ], [ -60.027840144703738, -30.46249999731889 ], [ -60.025272873890913, -30.458333330652589 ], [ -60.020439142784937, -30.458333330652589 ], [ -60.017872615667734, -30.454166663986296 ], [ -60.013039091256374, -30.454166663986296 ], [ -60.008205566845028, -30.454166663986296 ], [ -60.010771680572979, -30.458333330652589 ], [ -60.00593794946699, -30.458333330652589 ], [ -60.008504393328352, -30.46249999731889 ], [ -60.003670455484517, -30.46249999731889 ], [ -60.006237229488839, -30.466666663985187 ] ] ] ] } },
{ "type": "Feature", "properties": { "_uid_": 4241.0, "id": 13543102.0, "initialdat": "2012-01-01", "finaldate": "2012-01-01", "area_ha": 21.443673036181927 }, "geometry": { "type": "MultiPolygon", "coordinates": [ [ [ [ -60.020739663363727, -30.466666663985187 ], [ -60.015905518738769, -30.466666663985187 ], [ -60.018473243368717, -30.47083333065148 ], [ -60.023307594818043, -30.47083333065148 ], [ -60.020739663363727, -30.466666663985187 ] ] ] ] } },
{ "type": "Feature", "properties": { "_uid_": 53347.0, "id": 13543105.0, "initialdat": "2012-01-15", "finaldate": "2012-01-21", "area_ha": 343.11175638062952 }, "geometry": { "type": "MultiPolygon", "coordinates": [ [ [ [ -60.072283576524782, -30.674999997300059 ], [ -60.07487514250537, -30.67916666396636 ], [ -60.079719890500755, -30.67916666396636 ], [ -60.084564638496133, -30.67916666396636 ], [ -60.089409386491496, -30.67916666396636 ], [ -60.086817193519146, -30.674999997300059 ], [ -60.09166173251726, -30.674999997300059 ], [ -60.086478552753796, -30.666666663967465 ], [ -60.08163443161925, -30.666666663967465 ], [ -60.079043862496825, -30.662499997301168 ], [ -60.064512125692183, -30.662499997301168 ], [ -60.067102068215618, -30.666666663967465 ], [ -60.062257947081065, -30.666666663967465 ], [ -60.064848221749507, -30.670833330633766 ], [ -60.067439037526668, -30.674999997300059 ], [ -60.072283576524782, -30.674999997300059 ] ] ] ] } },
{ "type": "Feature", "properties": { "_uid_": 53348.0, "id": 13543106.0, "initialdat": "2012-01-19", "finaldate": "2012-01-19", "area_ha": 21.445914425182341 }, "geometry": { "type": "MultiPolygon", "coordinates": [ [ [ [ -60.289424049528527, -30.974999997273482 ], [ -60.284564350669129, -30.974999997273482 ], [ -60.287196205453895, -30.979166663939775 ], [ -60.292056116474093, -30.979166663939775 ], [ -60.289424049528527, -30.974999997273482 ] ] ] ] } },
{ "type": "Feature", "properties": { "_uid_": 95878.0, "id": 13645217.0, "initialdat": "2012-02-07", "finaldate": "2012-02-07", "area_ha": 42.886652008008959 }, "geometry": { "type": "MultiPolygon", "coordinates": [ [ [ [ -59.981711352956488, -30.387499997325534 ], [ -59.972050906611969, -30.387499997325534 ], [ -59.97460864944027, -30.391666663991835 ], [ -59.984269507792327, -30.391666663991835 ], [ -59.981711352956488, -30.387499997325534 ] ] ] ] } },
{ "type": "Feature", "properties": { "_uid_": 146420.0, "id": 13645222.0, "initialdat": "2012-02-23", "finaldate": "2012-02-23", "area_ha": 21.446691197788716 }, "geometry": { "type": "MultiPolygon", "coordinates": [ [ [ [ -60.268990958209159, -31.149999997257975 ], [ -60.264122310421911, -31.149999997257975 ], [ -60.266771516675902, -31.154166663924268 ], [ -60.271640378488549, -31.154166663924268 ], [ -60.268990958209159, -31.149999997257975 ] ] ] ] } },
{ "type": "Feature", "properties": { "_uid_": 256433.0, "id": 13815059.0, "initialdat": "2012-04-07", "finaldate": "2012-04-07", "area_ha": 21.44501149532795 }, "geometry": { "type": "MultiPolygon", "coordinates": [ [ [ [ -60.010792803014837, -30.770833330624907 ], [ -60.005943446020645, -30.770833330624907 ], [ -60.008542027620734, -30.7749999972912 ], [ -60.013391594618277, -30.7749999972912 ], [ -60.010792803014837, -30.770833330624907 ] ] ] ] } },
{ "type": "Feature", "properties": { "_uid_": 393094.0, "id": 13970035.0, "initialdat": "2012-06-07", "finaldate": "2012-06-09", "area_ha": 42.889765674436084 }, "geometry": { "type": "MultiPolygon", "coordinates": [ [ [ [ -60.138053089526899, -30.741666663960821 ], [ -60.133205201329417, -30.741666663960821 ], [ -60.128357313131936, -30.741666663960821 ], [ -60.130958181475371, -30.745833330627121 ], [ -60.135806279369561, -30.745833330627121 ], [ -60.140654377263751, -30.745833330627121 ], [ -60.138053089526899, -30.741666663960821 ] ] ] ] } },
{ "type": "Feature", "properties": { "_uid_": 393095.0, "id": 13970038.0, "initialdat": "2012-06-09", "finaldate": "2012-06-09", "area_ha": 21.44515872919559 }, "geometry": { "type": "MultiPolygon", "coordinates": [ [ [ [ -60.021896254870654, -30.804166663955282 ], [ -60.017045216621625, -30.804166663955282 ], [ -60.01964771991809, -30.808333330621583 ], [ -60.024498968521399, -30.808333330621583 ], [ -60.021896254870654, -30.804166663955282 ] ] ] ] } },
{ "type": "Feature", "properties": { "_uid_": 393097.0, "id": 13970043.0, "initialdat": "2012-06-13", "finaldate": "2012-06-13", "area_ha": 21.445232340109349 }, "geometry": { "type": "MultiPolygon", "coordinates": [ [ [ [ -60.017754729267274, -30.820833330620474 ], [ -60.012902849337657, -30.820833330620474 ], [ -60.015506894251104, -30.824999997286767 ], [ -60.020358984710654, -30.824999997286767 ], [ -60.017754729267274, -30.820833330620474 ] ] ] ] } },
{ "type": "Feature", "properties": { "_uid_": 393100.0, "id": 13970051.0, "initialdat": "2012-06-07", "finaldate": "2012-06-07", "area_ha": 21.445637664306165 }, "geometry": { "type": "MultiPolygon", "coordinates": [ [ [ [ -60.206300127023347, -30.912499997279014 ], [ -60.201443605273973, -30.912499997279014 ], [ -60.204065338539742, -30.916666663945314 ], [ -60.208922071787455, -30.916666663945314 ], [ -60.206300127023347, -30.912499997279014 ] ] ] ] } },
{ "type": "Feature", "properties": { "_uid_": 393101.0, "id": 13970052.0, "initialdat": "2012-06-07", "finaldate": "2012-06-07", "area_ha": 64.337023814034467 }, "geometry": { "type": "MultiPolygon", "coordinates": [ [ [ [ -60.223492271530596, -30.916666663945314 ], [ -60.218635538282882, -30.916666663945314 ], [ -60.221258452952164, -30.920833330611615 ], [ -60.226115397742319, -30.920833330611615 ], [ -60.223492271530596, -30.916666663945314 ] ] ], [ [ [ -60.221258452952164, -30.920833330611615 ], [ -60.216401508162015, -30.920833330611615 ], [ -60.219024758252495, -30.924999997277908 ], [ -60.223881914629196, -30.924999997277908 ], [ -60.221258452952164, -30.920833330611615 ] ] ], [ [ [ -60.219024758252495, -30.924999997277908 ], [ -60.214167601875786, -30.924999997277908 ], [ -60.216791187398449, -30.929166663944205 ], [ -60.221648555405835, -30.929166663944205 ], [ -60.219024758252495, -30.924999997277908 ] ] ] ] } },
{ "type": "Feature", "properties": { "_uid_": 393103.0, "id": 13970056.0, "initialdat": "2012-06-07", "finaldate": "2012-06-07", "area_ha": 21.445674605429172 }, "geometry": { "type": "MultiPolygon", "coordinates": [ [ [ [ -60.201830673791555, -30.920833330611615 ], [ -60.196973729001414, -30.920833330611615 ], [ -60.199596132745683, -30.924999997277908 ], [ -60.204453289122377, -30.924999997277908 ], [ -60.201830673791555, -30.920833330611615 ] ] ] ] } },
{ "type": "Feature", "properties": { "_uid_": 393104.0, "id": 13970057.0, "initialdat": "2012-06-07", "finaldate": "2012-06-10", "area_ha": 42.891367476272585 }, "geometry": { "type": "MultiPolygon", "coordinates": [ [ [ [ -60.180167507238849, -30.924999997277908 ], [ -60.182789611346763, -30.929166663944205 ], [ -60.187646979354149, -30.929166663944205 ], [ -60.18502466361555, -30.924999997277908 ], [ -60.18240289463094, -30.920833330611615 ], [ -60.177545949840798, -30.920833330611615 ], [ -60.180167507238849, -30.924999997277908 ] ] ] ] } },
{ "type": "Feature", "properties": { "_uid_": 393105.0, "id": 13970058.0, "initialdat": "2012-06-13", "finaldate": "2012-06-13", "area_ha": 85.785139872646326 }, "geometry": { "type": "MultiPolygon", "coordinates": [ [ [ [ -60.065836219667304, -30.920833330611615 ], [ -60.060979274877141, -30.920833330611615 ], [ -60.06621277916954, -30.929166663944205 ], [ -60.06135541116214, -30.929166663944205 ], [ -60.063972770208835, -30.933333330610505 ], [ -60.073687929573239, -30.933333330610505 ], [ -60.065836219667304, -30.920833330611615 ] ] ] ] } },
{ "type": "Feature", "properties": { "_uid_": 393106.0, "id": 13970059.0, "initialdat": "2012-06-07", "finaldate": "2012-06-07", "area_ha": 150.12070779775382 }, "geometry": { "type": "MultiPolygon", "coordinates": [ [ [ [ -60.21232441709477, -30.937499997276799 ], [ -60.207466625693627, -30.937499997276799 ], [ -60.210091217578871, -30.941666663943099 ], [ -60.205233214414612, -30.941666663943099 ], [ -60.207858141776072, -30.9458333306094 ], [ -60.212716356747599, -30.9458333306094 ], [ -60.222432786690611, -30.9458333306094 ], [ -60.219807223907367, -30.941666663943099 ], [ -60.214949220743115, -30.941666663943099 ], [ -60.21232441709477, -30.937499997276799 ] ] ], [ [ [ -60.205233214414612, -30.941666663943099 ], [ -60.202608834292462, -30.937499997276799 ], [ -60.197751042891312, -30.937499997276799 ], [ -60.200375211250368, -30.941666663943099 ], [ -60.205233214414612, -30.941666663943099 ] ] ], [ [ [ -60.207466625693627, -30.937499997276799 ], [ -60.202219083376313, -30.929166663944205 ], [ -60.197361715368913, -30.929166663944205 ], [ -60.202608834292462, -30.937499997276799 ], [ -60.207466625693627, -30.937499997276799 ] ] ] ] } },
{ "type": "Feature", "properties": { "_uid_": 393107.0, "id": 13970060.0, "initialdat": "2012-06-13", "finaldate": "2012-06-13", "area_ha": 21.445729838502405 }, "geometry": { "type": "MultiPolygon", "coordinates": [ [ [ [ -60.054257610844452, -30.933333330610505 ], [ -60.049400031162257, -30.933333330610505 ], [ -60.052017300856853, -30.937499997276799 ], [ -60.056875092257997, -30.937499997276799 ], [ -60.054257610844452, -30.933333330610505 ] ] ] ] } },
{ "type": "Feature", "properties": { "_uid_": 393108.0, "id": 13970062.0, "initialdat": "2012-06-07", "finaldate": "2012-06-07", "area_ha": 21.445766849970816 }, "geometry": { "type": "MultiPolygon", "coordinates": [ [ [ [ -60.18580120175762, -30.941666663943099 ], [ -60.180943198593361, -30.941666663943099 ], [ -60.183567066918535, -30.9458333306094 ], [ -60.188425281890048, -30.9458333306094 ], [ -60.18580120175762, -30.941666663943099 ] ] ] ] } },
{ "type": "Feature", "properties": { "_uid_": 393109.0, "id": 13970063.0, "initialdat": "2012-06-09", "finaldate": "2012-06-09", "area_ha": 21.445766644930838 }, "geometry": { "type": "MultiPolygon", "coordinates": [ [ [ [ -60.176085195429117, -30.941666663943099 ], [ -60.171227192264851, -30.941666663943099 ], [ -60.173850636975502, -30.9458333306094 ], [ -60.178708851947029, -30.9458333306094 ], [ -60.176085195429117, -30.941666663943099 ] ] ] ] } },
{ "type": "Feature", "properties": { "_uid_": 393110.0, "id": 13970070.0, "initialdat": "2012-06-07", "finaldate": "2012-06-09", "area_ha": 128.67702874562741 }, "geometry": { "type": "MultiPolygon", "coordinates": [ [ [ [ -60.150467459289935, -31.016666663936455 ], [ -60.153097789304582, -31.020833330602752 ], [ -60.157959824366777, -31.020833330602752 ], [ -60.162821859428973, -31.020833330602752 ], [ -60.172545929553351, -31.020833330602752 ], [ -60.169914749124871, -31.016666663936455 ], [ -60.165052926666142, -31.016666663936455 ], [ -60.162422507075952, -31.012499997270154 ], [ -60.157560897176381, -31.012499997270154 ], [ -60.160191104207406, -31.016666663936455 ], [ -60.155329281748685, -31.016666663936455 ], [ -60.152699287276803, -31.012499997270154 ], [ -60.147837677377233, -31.012499997270154 ], [ -60.150467459289935, -31.016666663936455 ] ] ] ] } },
{ "type": "Feature", "properties": { "_uid_": 393111.0, "id": 13970071.0, "initialdat": "2012-06-09", "finaldate": "2012-06-09", "area_ha": 21.446117665290831 }, "geometry": { "type": "MultiPolygon", "coordinates": [ [ [ [ -60.371889367103272, -31.020833330602752 ], [ -60.367027332041076, -31.020833330602752 ], [ -60.369667566759261, -31.024999997269052 ], [ -60.37452981446922, -31.024999997269052 ], [ -60.371889367103272, -31.020833330602752 ] ] ] ] } },
{ "type": "Feature", "properties": { "_uid_": 393112.0, "id": 13970072.0, "initialdat": "2012-06-05", "finaldate": "2012-06-11", "area_ha": 150.12361709316968 }, "geometry": { "type": "MultiPolygon", "coordinates": [ [ [ [ -60.347996049718581, -31.029166663935346 ], [ -60.350636321357641, -31.033333330601646 ], [ -60.355498994496116, -31.033333330601646 ], [ -60.360361667634571, -31.033333330601646 ], [ -60.365224340773032, -31.033333330601646 ], [ -60.362583430924737, -31.029166663935346 ], [ -60.357303261916691, -31.020833330602752 ], [ -60.352441226854495, -31.020833330602752 ], [ -60.355080823629365, -31.024999997269052 ], [ -60.350218575919406, -31.024999997269052 ], [ -60.345356328209448, -31.024999997269052 ], [ -60.347996049718581, -31.029166663935346 ] ] ] ] } },
{ "type": "Feature", "properties": { "_uid_": 393113.0, "id": 13970077.0, "initialdat": "2012-06-07", "finaldate": "2012-06-09", "area_ha": 128.67689915034771 }, "geometry": { "type": "MultiPolygon", "coordinates": [ [ [ [ -60.177809935646771, -31.029166663935346 ], [ -60.172947475244726, -31.029166663935346 ], [ -60.175580088372854, -31.033333330601646 ], [ -60.1707174152344, -31.033333330601646 ], [ -60.175983861886799, -31.041666663934237 ], [ -60.180846960631108, -31.041666663934237 ], [ -60.178213250135045, -31.037499997267943 ], [ -60.183076136054254, -31.037499997267943 ], [ -60.180443035850516, -31.033333330601646 ], [ -60.185305434649791, -31.033333330601646 ], [ -60.180039906070689, -31.024999997269052 ], [ -60.175177658360724, -31.024999997269052 ], [ -60.179126365931872, -31.03124980766821 ], [ -60.177809935646771, -31.029166663935346 ] ] ] ] } },
{ "type": "Feature", "properties": { "_uid_": 393114.0, "id": 13970078.0, "initialdat": "2012-06-12", "finaldate": "2012-06-12", "area_ha": 21.446172945046424 }, "geometry": { "type": "MultiPolygon", "coordinates": [ [ [ [ -60.382744297120531, -31.035858871869525 ], [ -60.382048836071625, -31.035204670668918 ], [ -60.380205405074307, -31.033785715591193 ], [ -60.3802224813168, -31.033593646164633 ], [ -60.38012495531936, -31.033587216792544 ], [ -60.380147564265556, -31.033333330601646 ], [ -60.379812360188446, -31.033333330601646 ], [ -60.382454458742053, -31.037499997267943 ], [ -60.384057149271982, -31.037499997267943 ], [ -60.382744297120531, -31.035858871869525 ] ] ] ] } },
{ "type": "Feature", "properties": { "_uid_": 393115.0, "id": 13970079.0, "initialdat": "2012-06-07", "finaldate": "2012-06-07", "area_ha": 21.446210116779802 }, "geometry": { "type": "MultiPolygon", "coordinates": [ [ [ [ -60.156531466909584, -31.041666663934237 ], [ -60.151668368165275, -31.041666663934237 ], [ -60.15430135027853, -31.045833330600537 ], [ -60.15916466189227, -31.045833330600537 ], [ -60.156531466909584, -31.041666663934237 ] ] ] ] } },
{ "type": "Feature", "properties": { "_uid_": 393116.0, "id": 13970080.0, "initialdat": "2012-06-14", "finaldate": "2012-06-14", "area_ha": 21.446246966052055 }, "geometry": { "type": "MultiPolygon", "coordinates": [ [ [ [ -60.234751273500095, -31.049999997266838 ], [ -60.229887748972558, -31.049999997266838 ], [ -60.232525022893405, -31.054166663933131 ], [ -60.237388760379112, -31.054166663933131 ], [ -60.234751273500095, -31.049999997266838 ] ] ] ] } },
{ "type": "Feature", "properties": { "_uid_": 393117.0, "id": 13970081.0, "initialdat": "2012-06-09", "finaldate": "2012-06-09", "area_ha": 21.446247019338607 }, "geometry": { "type": "MultiPolygon", "coordinates": [ [ [ [ -60.210433650862377, -31.049999997266838 ], [ -60.205570126334834, -31.049999997266838 ], [ -60.208206335464844, -31.054166663933131 ], [ -60.213070072950558, -31.054166663933131 ], [ -60.210433650862377, -31.049999997266838 ] ] ] ] } },
{ "type": "Feature", "properties": { "_uid_": 393118.0, "id": 13970082.0, "initialdat": "2012-06-14", "finaldate": "2012-06-14", "area_ha": 21.446247045660019 }, "geometry": { "type": "MultiPolygon", "coordinates": [ [ [ [ -60.205570126334834, -31.049999997266838 ], [ -60.200706601807283, -31.049999997266838 ], [ -60.20334259797913, -31.054166663933131 ], [ -60.208206335464844, -31.054166663933131 ], [ -60.205570126334834, -31.049999997266838 ] ] ] ] } },
{ "type": "Feature", "properties": { "_uid_": 393119.0, "id": 13970084.0, "initialdat": "2012-06-09", "finaldate": "2012-06-14", "area_ha": 64.338981196212771 }, "geometry": { "type": "MultiPolygon", "coordinates": [ [ [ [ -60.21389207633576, -31.070833330598322 ], [ -60.216530819842717, -31.074999997264616 ], [ -60.221395622785039, -31.074999997264616 ], [ -60.218756666097953, -31.070833330598322 ], [ -60.223621255860152, -31.070833330598322 ], [ -60.220982635749024, -31.066666663932022 ], [ -60.216118259122538, -31.066666663932022 ], [ -60.211253882496052, -31.066666663932022 ], [ -60.21389207633576, -31.070833330598322 ] ] ] ] } },
{ "type": "Feature", "properties": { "_uid_": 393120.0, "id": 13970085.0, "initialdat": "2012-06-12", "finaldate": "2012-06-12", "area_ha": 21.446320939230919 }, "geometry": { "type": "MultiPolygon", "coordinates": [ [ [ [ -60.196660752616609, -31.066666663932022 ], [ -60.191796375990123, -31.066666663932022 ], [ -60.194433717286977, -31.070833330598322 ], [ -60.199298307049176, -31.070833330598322 ], [ -60.196660752616609, -31.066666663932022 ] ] ] ] } },
{ "type": "Feature", "properties": { "_uid_": 393121.0, "id": 13970086.0, "initialdat": "2012-06-07", "finaldate": "2012-06-09", "area_ha": 42.892697492480281 }, "geometry": { "type": "MultiPolygon", "coordinates": [ [ [ [ -60.235990031611983, -31.074999997264616 ], [ -60.238630177784508, -31.079166663930916 ], [ -60.243495193951354, -31.079166663930916 ], [ -60.240854834554305, -31.074999997264616 ], [ -60.238215025146758, -31.070833330598322 ], [ -60.233350435384551, -31.070833330598322 ], [ -60.235990031611983, -31.074999997264616 ] ] ] ] } },
{ "type": "Feature", "properties": { "_uid_": 393122.0, "id": 13970089.0, "initialdat": "2012-06-07", "finaldate": "2012-06-07", "area_ha": 21.446505863606934 }, "geometry": { "type": "MultiPolygon", "coordinates": [ [ [ [ -60.334990767605042, -31.108333330594999 ], [ -60.33012425762216, -31.108333330594999 ], [ -60.332772010668883, -31.112499997261299 ], [ -60.337638734231909, -31.112499997261299 ], [ -60.334990767605042, -31.108333330594999 ] ] ] ] } },
{ "type": "Feature", "properties": { "_uid_": 393123.0, "id": 13970091.0, "initialdat": "2012-06-07", "finaldate": "2012-06-07", "area_ha": 21.446802275860311 }, "geometry": { "type": "MultiPolygon", "coordinates": [ [ [ [ -60.241066364246812, -31.17499999725576 ], [ -60.23619643163854, -31.17499999725576 ], [ -60.238847020829084, -31.179166663922061 ], [ -60.243717167730289, -31.179166663922061 ], [ -60.241066364246812, -31.17499999725576 ] ] ] ] } },
{ "type": "Feature", "properties": { "_uid_": 393124.0, "id": 13970098.0, "initialdat": "2012-06-08", "finaldate": "2012-06-08", "area_ha": 21.446913272166253 }, "geometry": { "type": "MultiPolygon", "coordinates": [ [ [ [ -60.295949218323912, -31.199999997253546 ], [ -60.291077999288653, -31.199999997253546 ], [ -60.293733617761966, -31.204166663919839 ], [ -60.298605051357974, -31.204166663919839 ], [ -60.295949218323912, -31.199999997253546 ] ] ] ] } },
{ "type": "Feature", "properties": { "_uid_": 393125.0, "id": 13970100.0, "initialdat": "2012-06-09", "finaldate": "2012-06-09", "area_ha": 21.446932097375392 }, "geometry": { "type": "MultiPolygon", "coordinates": [ [ [ [ -60.473976660814614, -31.204166663919839 ], [ -60.469105227218598, -31.204166663919839 ], [ -60.471769124330812, -31.208333330586139 ], [ -60.476640772532242, -31.208333330586139 ], [ -60.473976660814614, -31.204166663919839 ] ] ] ] } },
{ "type": "Feature", "properties": { "_uid_": 393126.0, "id": 13970101.0, "initialdat": "2012-06-07", "finaldate": "2012-06-09", "area_ha": 150.12638690533637 }, "geometry": { "type": "MultiPolygon", "coordinates": [ [ [ [ -60.245456021973894, -31.21249999725244 ], [ -60.240584159122335, -31.21249999725244 ], [ -60.243238860092831, -31.21666666391873 ], [ -60.248110937639161, -31.21666666391873 ], [ -60.245456021973894, -31.21249999725244 ] ] ], [ [ [ -60.257416603467448, -31.208333330586139 ], [ -60.247673307064566, -31.208333330586139 ], [ -60.255638698245889, -31.22083333058503 ], [ -60.260510990531685, -31.22083333058503 ], [ -60.257855092731802, -31.21666666391873 ], [ -60.262727170278119, -31.21666666391873 ], [ -60.260071886872787, -31.21249999725244 ], [ -60.264943473380036, -31.21249999725244 ], [ -60.262288251668878, -31.208333330586139 ], [ -60.257416603467448, -31.208333330586139 ] ] ] ] } },
{ "type": "Feature", "properties": { "_uid_": 393127.0, "id": 13970106.0, "initialdat": "2012-06-12", "finaldate": "2012-06-12", "area_ha": 21.447043393003941 }, "geometry": { "type": "MultiPolygon", "coordinates": [ [ [ [ -60.299933498063268, -31.229166663917624 ], [ -60.295060776164419, -31.229166663917624 ], [ -60.297719622048234, -31.233333330583925 ], [ -60.302592558820685, -31.233333330583925 ], [ -60.299933498063268, -31.229166663917624 ] ] ] ] } },
{ "type": "Feature", "properties": { "_uid_": 393128.0, "id": 13970108.0, "initialdat": "2012-06-07", "finaldate": "2012-06-09", "area_ha": 150.13094771511555 }, "geometry": { "type": "MultiPolygon", "coordinates": [ [ [ [ -60.291974833924122, -31.262499997248007 ], [ -60.287100391783753, -31.262499997248007 ], [ -60.289762376464118, -31.266666663914307 ], [ -60.294637033836096, -31.266666663914307 ], [ -60.291974833924122, -31.262499997248007 ] ] ], [ [ [ -60.289762376464118, -31.266666663914307 ], [ -60.284887719092147, -31.266666663914307 ], [ -60.287550042457397, -31.270833330580601 ], [ -60.292424915105791, -31.270833330580601 ], [ -60.289762376464118, -31.266666663914307 ] ] ], [ [ [ -60.287550042457397, -31.270833330580601 ], [ -60.282675169809011, -31.270833330580601 ], [ -60.277351507503042, -31.262499997248007 ], [ -60.272477065362679, -31.262499997248007 ], [ -60.277800297160617, -31.270833330580601 ], [ -60.280462743901538, -31.274999997246901 ], [ -60.290212919840741, -31.274999997246901 ], [ -60.287550042457397, -31.270833330580601 ] ] ], [ [ [ -60.277800297160617, -31.270833330580601 ], [ -60.275138404348183, -31.266666663914307 ], [ -60.270263746976205, -31.266666663914307 ], [ -60.272925424512238, -31.270833330580601 ], [ -60.277800297160617, -31.270833330580601 ] ] ] ] } },
{ "type": "Feature", "properties": { "_uid_": 393129.0, "id": 13970110.0, "initialdat": "2012-06-07", "finaldate": "2012-06-08", "area_ha": 64.341667982840534 }, "geometry": { "type": "MultiPolygon", "coordinates": [ [ [ [ -60.30704953305095, -31.270833330580601 ], [ -60.302174660402564, -31.270833330580601 ], [ -60.29729978775417, -31.270833330580601 ], [ -60.29996309577993, -31.274999997246901 ], [ -60.304838183749524, -31.274999997246901 ], [ -60.309713271719112, -31.274999997246901 ], [ -60.30704953305095, -31.270833330580601 ] ] ], [ [ [ -60.314135663324009, -31.266666663914307 ], [ -60.309261005952017, -31.266666663914307 ], [ -60.31192440569933, -31.270833330580601 ], [ -60.316799278347723, -31.270833330580601 ], [ -60.314135663324009, -31.266666663914307 ] ] ] ] } },
{ "type": "Feature", "properties": { "_uid_": 393130.0, "id": 13970113.0, "initialdat": "2012-06-05", "finaldate": "2012-06-05", "area_ha": 21.447544698035717 }, "geometry": { "type": "MultiPolygon", "coordinates": [ [ [ [ -60.38167977950156, -31.341666663907663 ], [ -60.376801240293368, -31.341666663907663 ], [ -60.379475496308046, -31.345833330573956 ], [ -60.384354251600271, -31.345833330573956 ], [ -60.38167977950156, -31.341666663907663 ] ] ] ] } },
{ "type": "Feature", "properties": { "_uid_": 432279.0, "id": 13970037.0, "initialdat": "2012-06-13", "finaldate": "2012-06-18", "area_ha": 300.23212756462095 }, "geometry": { "type": "MultiPolygon", "coordinates": [ [ [ [ -60.014091372126309, -30.791666663956391 ], [ -60.018941779575776, -30.791666663956391 ], [ -60.023792187025244, -30.791666663956391 ], [ -60.021191224828485, -30.787499997290091 ], [ -60.026041422099183, -30.787499997290091 ], [ -60.023440792562901, -30.78333333062379 ], [ -60.01859080542711, -30.78333333062379 ], [ -60.004040844019677, -30.78333333062379 ], [ -60.00664063301636, -30.787499997290091 ], [ -59.992090041204257, -30.787499997290091 ], [ -59.994689742328433, -30.791666663956391 ], [ -59.989839334878958, -30.791666663956391 ], [ -59.992439368410729, -30.795833330622688 ], [ -60.011841839099134, -30.795833330622688 ], [ -60.009240964676835, -30.791666663956391 ], [ -60.014091372126309, -30.791666663956391 ] ] ] ] } },
{ "type": "Feature", "properties": { "_uid_": 432280.0, "id": 13970039.0, "initialdat": "2012-06-15", "finaldate": "2012-06-15", "area_ha": 21.445158775794507 }, "geometry": { "type": "MultiPolygon", "coordinates": [ [ [ [ -60.002492101874608, -30.804166663955282 ], [ -59.997641063625593, -30.804166663955282 ], [ -60.000242725504876, -30.808333330621583 ], [ -60.005093974108185, -30.808333330621583 ], [ -60.002492101874608, -30.804166663955282 ] ] ] ] } },
{ "type": "Feature", "properties": { "_uid_": 432283.0, "id": 13970046.0, "initialdat": "2012-06-06", "finaldate": "2012-06-18", "area_ha": 1351.0614152823925 }, "geometry": { "type": "MultiPolygon", "coordinates": [ [ [ [ -60.166303667688013, -30.887499997281235 ], [ -60.156593160317477, -30.887499997281235 ], [ -60.159210347604173, -30.891666663947529 ], [ -60.168921277442386, -30.891666663947529 ], [ -60.166303667688013, -30.887499997281235 ] ] ], [ [ [ -60.159210347604173, -30.891666663947529 ], [ -60.149499417765959, -30.891666663947529 ], [ -60.1468829258121, -30.887499997281235 ], [ -60.151737906632214, -30.887499997281235 ], [ -60.14912147635372, -30.883333330614935 ], [ -60.146505591750717, -30.879166663948638 ], [ -60.151360423100456, -30.879166663948638 ], [ -60.148744872972387, -30.874999997282345 ], [ -60.153599493220412, -30.874999997282345 ], [ -60.150984550290005, -30.870833330616037 ], [ -60.155838686746847, -30.870833330616037 ], [ -60.153223805536321, -30.866666663949744 ], [ -60.158078003713022, -30.866666663949744 ], [ -60.155463456945135, -30.862499997283447 ], [ -60.145755482531015, -30.862499997283447 ], [ -60.140901495323966, -30.862499997283447 ], [ -60.131193520909846, -30.862499997283447 ], [ -60.116631559288656, -30.862499997283447 ], [ -60.119244418299417, -30.866666663949744 ], [ -60.121857822414349, -30.870833330616037 ], [ -60.117003413223998, -30.870833330616037 ], [ -60.119617151484199, -30.874999997282345 ], [ -60.124846263876314, -30.883333330614935 ], [ -60.130077558089525, -30.891666663947529 ], [ -60.125222093170422, -30.891666663947529 ], [ -60.127838347429162, -30.895833330613829 ], [ -60.132694023626179, -30.895833330613829 ], [ -60.13754969982319, -30.895833330613829 ], [ -60.1401669224337, -30.89999999728013 ], [ -60.145022809952685, -30.89999999728013 ], [ -60.149878697471671, -30.89999999728013 ], [ -60.152496888709202, -30.904166663946423 ], [ -60.157352987594237, -30.904166663946423 ], [ -60.154734858004232, -30.89999999728013 ], [ -60.159590472509635, -30.89999999728013 ], [ -60.156972404611231, -30.895833330613829 ], [ -60.161828080808242, -30.895833330613829 ], [ -60.159210347604173, -30.891666663947529 ] ] ], [ [ [ -60.1401669224337, -30.89999999728013 ], [ -60.135311034914729, -30.89999999728013 ], [ -60.137928592054109, -30.904166663946423 ], [ -60.142784690939138, -30.904166663946423 ], [ -60.1401669224337, -30.89999999728013 ] ] ], [ [ [ -60.155463456945135, -30.862499997283447 ], [ -60.160317444152199, -30.862499997283447 ], [ -60.157703231816207, -30.858333330617153 ], [ -60.152849455534771, -30.858333330617153 ], [ -60.155463456945135, -30.862499997283447 ] ] ], [ [ [ -60.160317444152199, -30.862499997283447 ], [ -60.162932201889731, -30.866666663949744 ], [ -60.167786400066426, -30.866666663949744 ], [ -60.172640598243127, -30.866666663949744 ], [ -60.170025418566318, -30.862499997283447 ], [ -60.165171431359255, -30.862499997283447 ], [ -60.160317444152199, -30.862499997283447 ] ] ], [ [ [ -60.125977764257819, -30.90833333061272 ], [ -60.128595779033134, -30.912499997279014 ], [ -60.133452300782523, -30.912499997279014 ], [ -60.130834074552979, -30.90833333061272 ], [ -60.135690384848139, -30.90833333061272 ], [ -60.133072493169081, -30.904166663946423 ], [ -60.123360295399017, -30.904166663946423 ], [ -60.125977764257819, -30.90833333061272 ] ] ] ] } },
{ "type": "Feature", "properties": { "_uid_": 432285.0, "id": 13970049.0, "initialdat": "2012-06-15", "finaldate": "2012-06-15", "area_ha": 21.445434867215155 }, "geometry": { "type": "MultiPolygon", "coordinates": [ [ [ [ -60.109536021946013, -30.866666663949744 ], [ -60.104681823769312, -30.866666663949744 ], [ -60.107294594843282, -30.870833330616037 ], [ -60.112149004033633, -30.870833330616037 ], [ -60.109536021946013, -30.866666663949744 ] ] ] ] } },
{ "type": "Feature", "properties": { "_uid_": 432286.0, "id": 13970050.0, "initialdat": "2012-06-12", "finaldate": "2012-06-15", "area_ha": 150.11679330587387 }, "geometry": { "type": "MultiPolygon", "coordinates": [ [ [ [ -60.19658708352457, -30.912499997279014 ], [ -60.199208605292014, -30.916666663945314 ], [ -60.204065338539742, -30.916666663945314 ], [ -60.201443605273973, -30.912499997279014 ], [ -60.206300127023347, -30.912499997279014 ], [ -60.211156648772736, -30.912499997279014 ], [ -60.208535039275581, -30.90833333061272 ], [ -60.205913976444513, -30.904166663946423 ], [ -60.191345679789428, -30.904166663946423 ], [ -60.19658708352457, -30.912499997279014 ] ] ] ] } },
{ "type": "Feature", "properties": { "_uid_": 432287.0, "id": 13970053.0, "initialdat": "2012-06-13", "finaldate": "2012-06-21", "area_ha": 943.60916045348642 }, "geometry": { "type": "MultiPolygon", "coordinates": [ [ [ [ -60.173462085885582, -30.937499997276799 ], [ -60.168604294484417, -30.937499997276799 ], [ -60.171227192264851, -30.941666663943099 ], [ -60.176085195429117, -30.941666663943099 ], [ -60.173462085885582, -30.937499997276799 ] ] ], [ [ [ -60.226115397742319, -30.920833330611615 ], [ -60.221258452952164, -30.920833330611615 ], [ -60.223881914629196, -30.924999997277908 ], [ -60.228739071005904, -30.924999997277908 ], [ -60.226115397742319, -30.920833330611615 ] ] ], [ [ [ -60.221258452952164, -30.920833330611615 ], [ -60.218635538282882, -30.916666663945314 ], [ -60.213778805035169, -30.916666663945314 ], [ -60.216401508162015, -30.920833330611615 ], [ -60.221258452952164, -30.920833330611615 ] ] ], [ [ [ -60.216401508162015, -30.920833330611615 ], [ -60.201830673791555, -30.920833330611615 ], [ -60.204453289122377, -30.924999997277908 ], [ -60.199596132745683, -30.924999997277908 ], [ -60.196973729001414, -30.920833330611615 ], [ -60.192116784211244, -30.920833330611615 ], [ -60.19473897636896, -30.924999997277908 ], [ -60.189881819992259, -30.924999997277908 ], [ -60.192504347361528, -30.929166663944205 ], [ -60.187646979354149, -30.929166663944205 ], [ -60.190269841945941, -30.933333330610505 ], [ -60.185412262263753, -30.933333330610505 ], [ -60.180554682581551, -30.933333330610505 ], [ -60.177932243339377, -30.929166663944205 ], [ -60.173074875331999, -30.929166663944205 ], [ -60.175697102899356, -30.933333330610505 ], [ -60.170839523217168, -30.933333330610505 ], [ -60.178708851947029, -30.9458333306094 ], [ -60.183957806303198, -30.95416666394199 ], [ -60.188816445021743, -30.95416666394199 ], [ -60.186191755970142, -30.949999997275697 ], [ -60.195908336007406, -30.949999997275697 ], [ -60.193283496861561, -30.9458333306094 ], [ -60.19814171183306, -30.9458333306094 ], [ -60.195517208086116, -30.941666663943099 ], [ -60.200375211250368, -30.941666663943099 ], [ -60.197751042891312, -30.937499997276799 ], [ -60.202608834292462, -30.937499997276799 ], [ -60.197361715368913, -30.929166663944205 ], [ -60.202219083376313, -30.929166663944205 ], [ -60.20484258099254, -30.933333330610505 ], [ -60.209700160674728, -30.933333330610505 ], [ -60.214949220743115, -30.941666663943099 ], [ -60.224665227071611, -30.941666663943099 ], [ -60.222039999897056, -30.937499997276799 ], [ -60.226897791298214, -30.937499997276799 ], [ -60.224272899721313, -30.933333330610505 ], [ -60.219415320039111, -30.933333330610505 ], [ -60.214167601875786, -30.924999997277908 ], [ -60.219024758252495, -30.924999997277908 ], [ -60.216401508162015, -30.920833330611615 ] ], [ [ -60.18580120175762, -30.941666663943099 ], [ -60.188425281890048, -30.9458333306094 ], [ -60.183567066918535, -30.9458333306094 ], [ -60.180943198593361, -30.941666663943099 ], [ -60.18580120175762, -30.941666663943099 ] ] ], [ [ [ -60.202608834292462, -30.937499997276799 ], [ -60.205233214414612, -30.941666663943099 ], [ -60.210091217578871, -30.941666663943099 ], [ -60.207466625693627, -30.937499997276799 ], [ -60.202608834292462, -30.937499997276799 ] ] ], [ [ [ -60.178708851947029, -30.9458333306094 ], [ -60.173850636975502, -30.9458333306094 ], [ -60.17647462871566, -30.949999997275697 ], [ -60.181333055538602, -30.949999997275697 ], [ -60.178708851947029, -30.9458333306094 ] ] ], [ [ [ -60.177932243339377, -30.929166663944205 ], [ -60.182789611346763, -30.929166663944205 ], [ -60.180167507238849, -30.924999997277908 ], [ -60.175310350862141, -30.924999997277908 ], [ -60.177932243339377, -30.929166663944205 ] ] ] ] } },
{ "type": "Feature", "properties": { "_uid_": 432290.0, "id": 13970064.0, "initialdat": "2012-06-13", "finaldate": "2012-06-15", "area_ha": 107.22894460250139 }, "geometry": { "type": "MultiPolygon", "coordinates": [ [ [ [ -60.222432786690611, -30.9458333306094 ], [ -60.212716356747599, -30.9458333306094 ], [ -60.202999926804573, -30.9458333306094 ], [ -60.205625189653283, -30.949999997275697 ], [ -60.215342043299152, -30.949999997275697 ], [ -60.225058896945015, -30.949999997275697 ], [ -60.222432786690611, -30.9458333306094 ] ] ], [ [ [ -60.205625189653283, -30.949999997275697 ], [ -60.200766762830341, -30.949999997275697 ], [ -60.203392361177322, -30.95416666394199 ], [ -60.20825099989586, -30.95416666394199 ], [ -60.205625189653283, -30.949999997275697 ] ] ] ] } },
{ "type": "Feature", "properties": { "_uid_": 432294.0, "id": 13970065.0, "initialdat": "2012-06-07", "finaldate": "2012-06-15", "area_ha": 1286.7603792788982 }, "geometry": { "type": "MultiPolygon", "coordinates": [ [ [ [ -60.286598488134445, -31.016666663936455 ], [ -60.291460310593187, -31.016666663936455 ], [ -60.288824364464872, -31.012499997270154 ], [ -60.29368597436445, -31.012499997270154 ], [ -60.298547584264007, -31.012499997270154 ], [ -60.295911762392713, -31.008333330603861 ], [ -60.29105063962357, -31.008333330603861 ], [ -60.28841530488269, -31.004166663937561 ], [ -60.29327648979681, -31.004166663937561 ], [ -60.290641766376439, -30.99999999727126 ], [ -60.295502738864265, -30.99999999727126 ], [ -60.287601225644551, -30.987499997272369 ], [ -60.282740890170032, -30.987499997272369 ], [ -60.28537396666286, -30.99166666393867 ], [ -60.280513693310738, -30.99166666393867 ], [ -60.277880554695535, -30.987499997272369 ], [ -60.273020767942072, -30.987499997272369 ], [ -60.270388116003033, -30.983333330606076 ], [ -60.275248239228262, -30.983333330606076 ], [ -60.272616472393288, -30.979166663939775 ], [ -60.267756561373091, -30.979166663939775 ], [ -60.258036739332681, -30.979166663939775 ], [ -60.260667869552542, -30.983333330606076 ], [ -60.263299548272002, -30.987499997272369 ], [ -60.258439212797498, -30.987499997272369 ], [ -60.26107122782274, -30.99166666393867 ], [ -60.265931775590758, -30.99166666393867 ], [ -60.271197876425113, -30.99999999727126 ], [ -60.268564551608549, -30.995833330604967 ], [ -60.263703791502749, -30.995833330604967 ], [ -60.266336903937301, -30.99999999727126 ], [ -60.261475931449468, -30.99999999727126 ], [ -60.256614958961649, -30.99999999727126 ], [ -60.259248195397923, -31.004166663937561 ], [ -60.261881980699762, -31.008333330603861 ], [ -60.25702058331504, -31.008333330603861 ], [ -60.259654705067419, -31.012499997270154 ], [ -60.254793095167855, -31.012499997270154 ], [ -60.257427553382058, -31.016666663936455 ], [ -60.252565730923315, -31.016666663936455 ], [ -60.247703908464587, -31.016666663936455 ], [ -60.250338490548444, -31.020833330602752 ], [ -60.25520052561064, -31.020833330602752 ], [ -60.257835869430096, -31.024999997269052 ], [ -60.262698117140069, -31.024999997269052 ], [ -60.260062560672829, -31.020833330602752 ], [ -60.264924595735025, -31.020833330602752 ], [ -60.262289375840787, -31.016666663936455 ], [ -60.26715119829953, -31.016666663936455 ], [ -60.272013020758244, -31.016666663936455 ], [ -60.276874843216987, -31.016666663936455 ], [ -60.286598488134445, -31.016666663936455 ] ] ], [ [ [ -60.262698117140069, -31.024999997269052 ], [ -60.265334222883709, -31.029166663935346 ], [ -60.270196683285754, -31.029166663935346 ], [ -60.275059143687812, -31.029166663935346 ], [ -60.279921604089857, -31.029166663935346 ], [ -60.284784064491902, -31.029166663935346 ], [ -60.282147107979917, -31.024999997269052 ], [ -60.279510700921605, -31.020833330602752 ], [ -60.274648665859402, -31.020833330602752 ], [ -60.269786630797221, -31.020833330602752 ], [ -60.264924595735025, -31.020833330602752 ], [ -60.267560364850027, -31.024999997269052 ], [ -60.262698117140069, -31.024999997269052 ] ] ] ] } },
{ "type": "Feature", "properties": { "_uid_": 432296.0, "id": 13970068.0, "initialdat": "2012-06-15", "finaldate": "2012-06-15", "area_ha": 21.446080638825894 }, "geometry": { "type": "MultiPolygon", "coordinates": [ [ [ [ -60.167284116975516, -31.012499997270154 ], [ -60.162422507075952, -31.012499997270154 ], [ -60.165052926666142, -31.016666663936455 ], [ -60.169914749124871, -31.016666663936455 ], [ -60.167284116975516, -31.012499997270154 ] ] ] ] } },
{ "type": "Feature", "properties": { "_uid_": 432297.0, "id": 13970069.0, "initialdat": "2012-06-15", "finaldate": "2012-06-15", "area_ha": 21.446080695605279 }, "geometry": { "type": "MultiPolygon", "coordinates": [ [ [ [ -60.157560897176381, -31.012499997270154 ], [ -60.152699287276803, -31.012499997270154 ], [ -60.155329281748685, -31.016666663936455 ], [ -60.160191104207406, -31.016666663936455 ], [ -60.157560897176381, -31.012499997270154 ] ] ] ] } },
{ "type": "Feature", "properties": { "_uid_": 432298.0, "id": 13970073.0, "initialdat": "2012-06-15", "finaldate": "2012-06-15", "area_ha": 21.446117656850817 }, "geometry": { "type": "MultiPolygon", "coordinates": [ [ [ [ -60.162821859428973, -31.020833330602752 ], [ -60.157959824366777, -31.020833330602752 ], [ -60.160590915230834, -31.024999997269052 ], [ -60.165453162940793, -31.024999997269052 ], [ -60.162821859428973, -31.020833330602752 ] ] ] ] } },
{ "type": "Feature", "properties": { "_uid_": 432299.0, "id": 13970074.0, "initialdat": "2012-06-15", "finaldate": "2012-06-15", "area_ha": 21.446136084604262 }, "geometry": { "type": "MultiPolygon", "coordinates": [ [ [ [ -60.37452981446922, -31.024999997269052 ], [ -60.369667566759261, -31.024999997269052 ], [ -60.37230835172884, -31.029166663935346 ], [ -60.377170812130892, -31.029166663935346 ], [ -60.37452981446922, -31.024999997269052 ] ] ] ] } },
{ "type": "Feature", "properties": { "_uid_": 432300.0, "id": 13970075.0, "initialdat": "2012-06-18", "finaldate": "2012-06-23", "area_ha": 64.338463460850718 }, "geometry": { "type": "MultiPolygon", "coordinates": [ [ [ [ -60.345773648219186, -31.033333330601646 ], [ -60.348414257307546, -31.037499997267943 ], [ -60.353277143226769, -31.037499997267943 ], [ -60.350636321357641, -31.033333330601646 ], [ -60.347996049718581, -31.029166663935346 ], [ -60.345356328209448, -31.024999997269052 ], [ -60.340494080499475, -31.024999997269052 ], [ -60.343133589316523, -31.029166663935346 ], [ -60.345773648219186, -31.033333330601646 ] ] ] ] } },
{ "type": "Feature", "properties": { "_uid_": 432301.0, "id": 13970083.0, "initialdat": "2012-06-25", "finaldate": "2012-06-25", "area_ha": 21.446283927738666 }, "geometry": { "type": "MultiPolygon", "coordinates": [ [ [ [ -60.240026796835608, -31.058333330599432 ], [ -60.235162846347357, -31.058333330599432 ], [ -60.237801219434509, -31.062499997265729 ], [ -60.242665382969669, -31.062499997265729 ], [ -60.240026796835608, -31.058333330599432 ] ] ] ] } },
{ "type": "Feature", "properties": { "_uid_": 432302.0, "id": 13970087.0, "initialdat": "2012-06-15", "finaldate": "2012-06-15", "area_ha": 21.446468913769721 }, "geometry": { "type": "MultiPolygon", "coordinates": [ [ [ [ -60.349160820453505, -31.099999997262408 ], [ -60.344294737497485, -31.099999997262408 ], [ -60.346942241779388, -31.104166663928705 ], [ -60.351808538226607, -31.104166663928705 ], [ -60.349160820453505, -31.099999997262408 ] ] ] ] } },
{ "type": "Feature", "properties": { "_uid_": 432303.0, "id": 13970088.0, "initialdat": "2012-06-12", "finaldate": "2012-06-15", "area_ha": 107.232584814775 }, "geometry": { "type": "MultiPolygon", "coordinates": [ [ [ [ -60.340287252418975, -31.116666663927592 ], [ -60.335420315231318, -31.116666663927592 ], [ -60.338069171410091, -31.120833330593893 ], [ -60.342936322266873, -31.120833330593893 ], [ -60.340287252418975, -31.116666663927592 ] ] ], [ [ [ -60.335420315231318, -31.116666663927592 ], [ -60.332772010668883, -31.112499997261299 ], [ -60.33012425762216, -31.108333330594999 ], [ -60.325257747639284, -31.108333330594999 ], [ -60.327905287105871, -31.112499997261299 ], [ -60.323038563542845, -31.112499997261299 ], [ -60.325686440856003, -31.116666663927592 ], [ -60.330553378043668, -31.116666663927592 ], [ -60.335420315231318, -31.116666663927592 ] ] ], [ [ [ -60.337209648884951, -31.104166663928705 ], [ -60.332343352437739, -31.104166663928705 ], [ -60.334990767605042, -31.108333330594999 ], [ -60.339857277587917, -31.108333330594999 ], [ -60.337209648884951, -31.104166663928705 ] ] ] ] } },
{ "type": "Feature", "properties": { "_uid_": 432304.0, "id": 13970090.0, "initialdat": "2012-06-15", "finaldate": "2012-06-15", "area_ha": 21.446783705294131 }, "geometry": { "type": "MultiPolygon", "coordinates": [ [ [ [ -60.24328583094745, -31.17083333058946 ], [ -60.238416112587494, -31.17083333058946 ], [ -60.241066364246812, -31.17499999725576 ], [ -60.245936296855092, -31.17499999725576 ], [ -60.24328583094745, -31.17083333058946 ] ] ] ] } },
{ "type": "Feature", "properties": { "_uid_": 432305.0, "id": 13970092.0, "initialdat": "2012-06-15", "finaldate": "2012-06-15", "area_ha": 42.893660077786443 }, "geometry": { "type": "MultiPolygon", "coordinates": [ [ [ [ -60.23397687392788, -31.179166663922061 ], [ -60.229106727026682, -31.179166663922061 ], [ -60.234408703710464, -31.187499997254655 ], [ -60.23927927933137, -31.187499997254655 ], [ -60.23397687392788, -31.179166663922061 ] ] ] ] } },
{ "type": "Feature", "properties": { "_uid_": 432306.0, "id": 13970093.0, "initialdat": "2012-06-15", "finaldate": "2012-06-15", "area_ha": 171.57291197787524 }, "geometry": { "type": "MultiPolygon", "coordinates": [ [ [ [ -60.472614072086813, -31.179166663922061 ], [ -60.467743925185609, -31.179166663922061 ], [ -60.475729232329591, -31.191666663920952 ], [ -60.480600022377324, -31.191666663920952 ], [ -60.483263114324487, -31.195833330587245 ], [ -60.488134118843654, -31.195833330587245 ], [ -60.485470812425042, -31.191666663920952 ], [ -60.490341602472753, -31.191666663920952 ], [ -60.485016223837313, -31.183333330588354 ], [ -60.480145862598583, -31.183333330588354 ], [ -60.475275501359825, -31.183333330588354 ], [ -60.472614072086813, -31.179166663922061 ] ] ] ] } },
{ "type": "Feature", "properties": { "_uid_": 432307.0, "id": 13970094.0, "initialdat": "2012-06-15", "finaldate": "2012-06-15", "area_ha": 42.89373426821232 }, "geometry": { "type": "MultiPolygon", "coordinates": [ [ [ [ -60.278243884298689, -31.187499997254655 ], [ -60.273373308677776, -31.187499997254655 ], [ -60.278680924519563, -31.195833330587245 ], [ -60.283551929038723, -31.195833330587245 ], [ -60.278243884298689, -31.187499997254655 ] ] ] ] } },
{ "type": "Feature", "properties": { "_uid_": 432308.0, "id": 13970095.0, "initialdat": "2012-06-23", "finaldate": "2012-06-23", "area_ha": 21.446857856464387 }, "geometry": { "type": "MultiPolygon", "coordinates": [ [ [ [ -60.263632157435957, -31.187499997254655 ], [ -60.25876158181503, -31.187499997254655 ], [ -60.261414470229973, -31.191666663920952 ], [ -60.266285260277698, -31.191666663920952 ], [ -60.263632157435957, -31.187499997254655 ] ] ] ] } },
{ "type": "Feature", "properties": { "_uid_": 432309.0, "id": 13970096.0, "initialdat": "2012-06-23", "finaldate": "2012-06-23", "area_ha": 42.893771175301069 }, "geometry": { "type": "MultiPolygon", "coordinates": [ [ [ [ -60.288422933557882, -31.195833330587245 ], [ -60.283551929038723, -31.195833330587245 ], [ -60.286206780253394, -31.199999997253546 ], [ -60.291077999288653, -31.199999997253546 ], [ -60.288422933557882, -31.195833330587245 ] ] ], [ [ [ -60.295510000564001, -31.191666663920952 ], [ -60.290639210516282, -31.191666663920952 ], [ -60.293293938077042, -31.195833330587245 ], [ -60.298164942596216, -31.195833330587245 ], [ -60.295510000564001, -31.191666663920952 ] ] ] ] } },
{ "type": "Feature", "properties": { "_uid_": 432310.0, "id": 13970097.0, "initialdat": "2012-06-15", "finaldate": "2012-06-15", "area_ha": 42.893808435046672 }, "geometry": { "type": "MultiPolygon", "coordinates": [ [ [ [ -60.293293938077042, -31.195833330587245 ], [ -60.288422933557882, -31.195833330587245 ], [ -60.291077999288653, -31.199999997253546 ], [ -60.295949218323912, -31.199999997253546 ], [ -60.293293938077042, -31.195833330587245 ] ] ], [ [ [ -60.291077999288653, -31.199999997253546 ], [ -60.286206780253394, -31.199999997253546 ], [ -60.288862184165957, -31.204166663919839 ], [ -60.293733617761966, -31.204166663919839 ], [ -60.291077999288653, -31.199999997253546 ] ] ] ] } },
{ "type": "Feature", "properties": { "_uid_": 432311.0, "id": 13970099.0, "initialdat": "2012-06-12", "finaldate": "2012-06-15", "area_ha": 171.5769358346939 }, "geometry": { "type": "MultiPolygon", "coordinates": [ [ [ [ -60.247673307064566, -31.208333330586139 ], [ -60.242801658863122, -31.208333330586139 ], [ -60.248110937639161, -31.21666666391873 ], [ -60.252983015185485, -31.21666666391873 ], [ -60.247673307064566, -31.208333330586139 ] ] ], [ [ [ -60.259633582589835, -31.204166663919839 ], [ -60.249890715397818, -31.204166663919839 ], [ -60.252544955265996, -31.208333330586139 ], [ -60.267159899870322, -31.208333330586139 ], [ -60.264505016185865, -31.204166663919839 ], [ -60.269376449781873, -31.204166663919839 ], [ -60.266721904112337, -31.199999997253546 ], [ -60.261850685077079, -31.199999997253546 ], [ -60.256979466041827, -31.199999997253546 ], [ -60.259633582589835, -31.204166663919839 ] ] ], [ [ [ -60.264943473380036, -31.21249999725244 ], [ -60.260071610528506, -31.21249999725244 ], [ -60.262727170278119, -31.21666666391873 ], [ -60.267599247824435, -31.21666666391873 ], [ -60.264943473380036, -31.21249999725244 ] ] ] ] } },
{ "type": "Feature", "properties": { "_uid_": 432312.0, "id": 13970102.0, "initialdat": "2012-06-15", "finaldate": "2012-06-15", "area_ha": 21.446969144690037 }, "geometry": { "type": "MultiPolygon", "coordinates": [ [ [ [ -60.274687199083104, -31.21249999725244 ], [ -60.269815336231574, -31.21249999725244 ], [ -60.272471325370759, -31.21666666391873 ], [ -60.277343402917076, -31.21666666391873 ], [ -60.274687199083104, -31.21249999725244 ] ] ] ] } },
{ "type": "Feature", "properties": { "_uid_": 432313.0, "id": 13970104.0, "initialdat": "2012-06-08", "finaldate": "2012-06-15", "area_ha": 321.70699737911224 }, "geometry": { "type": "MultiPolygon", "coordinates": [ [ [ [ -60.480224208320543, -31.229166663917624 ], [ -60.494842374017075, -31.229166663917624 ], [ -60.492175550990503, -31.224999997251331 ], [ -60.497047780536114, -31.224999997251331 ], [ -60.494381020249712, -31.22083333058503 ], [ -60.489508727963923, -31.22083333058503 ], [ -60.486842737408814, -31.21666666391873 ], [ -60.481970659862483, -31.21666666391873 ], [ -60.472226504769857, -31.21666666391873 ], [ -60.46735442722354, -31.21666666391873 ], [ -60.470019558820752, -31.22083333058503 ], [ -60.465147266534963, -31.22083333058503 ], [ -60.467812738116329, -31.224999997251331 ], [ -60.470478764522852, -31.229166663917624 ], [ -60.480224208320543, -31.229166663917624 ] ] ] ] } },
{ "type": "Feature", "properties": { "_uid_": 432315.0, "id": 13970107.0, "initialdat": "2012-06-23", "finaldate": "2012-06-23", "area_ha": 21.447043166673183 }, "geometry": { "type": "MultiPolygon", "coordinates": [ [ [ [ -60.295060776164419, -31.229166663917624 ], [ -60.290188054265577, -31.229166663917624 ], [ -60.292846685275798, -31.233333330583925 ], [ -60.297719622048234, -31.233333330583925 ], [ -60.295060776164419, -31.229166663917624 ] ] ] ] } },
{ "type": "Feature", "properties": { "_uid_": 432316.0, "id": 13970109.0, "initialdat": "2012-06-15", "finaldate": "2012-06-15", "area_ha": 64.340495129120356 }, "geometry": { "type": "MultiPolygon", "coordinates": [ [ [ [ -60.287100391783753, -31.262499997248007 ], [ -60.277351507503042, -31.262499997248007 ], [ -60.282675169809011, -31.270833330580601 ], [ -60.287550042457397, -31.270833330580601 ], [ -60.284887719092147, -31.266666663914307 ], [ -60.289762376464118, -31.266666663914307 ], [ -60.287100391783753, -31.262499997248007 ] ] ] ] } },
{ "type": "Feature", "properties": { "_uid_": 432317.0, "id": 13970111.0, "initialdat": "2012-06-15", "finaldate": "2012-06-15", "area_ha": 21.447247253966331 }, "geometry": { "type": "MultiPolygon", "coordinates": [ [ [ [ -60.304838183749524, -31.274999997246901 ], [ -60.29996309577993, -31.274999997246901 ], [ -60.30262695801494, -31.279166663913195 ], [ -60.30750226135055, -31.279166663913195 ], [ -60.304838183749524, -31.274999997246901 ] ] ] ] } },
{ "type": "Feature", "properties": { "_uid_": 487221.0, "id": 14077126.0, "initialdat": "2012-07-06", "finaldate": "2012-07-06", "area_ha": 21.443216397917272 }, "geometry": { "type": "MultiPolygon", "coordinates": [ [ [ [ -60.019492532022802, -30.362499997327749 ], [ -60.014663543968091, -30.362499997327749 ], [ -60.017220545453569, -30.366666663994049 ], [ -60.022049739253504, -30.366666663994049 ], [ -60.019492532022802, -30.362499997327749 ] ] ] ] } },
{ "type": "Feature", "properties": { "_uid_": 487223.0, "id": 14077128.0, "initialdat": "2012-07-02", "finaldate": "2012-07-03", "area_ha": 235.87464891018868 }, "geometry": { "type": "MultiPolygon", "coordinates": [ [ [ [ -59.993643785127901, -30.383333330659234 ], [ -59.988813767916298, -30.383333330659234 ], [ -59.991371799301, -30.387499997325534 ], [ -60.001032245645526, -30.387499997325534 ], [ -60.01069269199003, -30.387499997325534 ], [ -60.00813383676271, -30.383333330659234 ], [ -60.012963853974306, -30.383333330659234 ], [ -60.010405328365003, -30.37916666399294 ], [ -60.005575517070959, -30.37916666399294 ], [ -60.003017732819245, -30.374999997326643 ], [ -59.988528916560469, -30.374999997326643 ], [ -59.993643785127901, -30.383333330659234 ] ] ] ] } },
{ "type": "Feature", "properties": { "_uid_": 487228.0, "id": 14077135.0, "initialdat": "2012-07-09", "finaldate": "2012-07-09", "area_ha": 21.444735968136786 }, "geometry": { "type": "MultiPolygon", "coordinates": [ [ [ [ -60.199647935933264, -30.708333330630438 ], [ -60.194801723734251, -30.708333330630438 ], [ -60.197402019506015, -30.712499997296735 ], [ -60.202248441051758, -30.712499997296735 ], [ -60.199647935933264, -30.708333330630438 ] ] ] ] } },
{ "type": "Feature", "properties": { "_uid_": 487230.0, "id": 14077137.0, "initialdat": "2012-07-06", "finaldate": "2012-07-09", "area_ha": 64.336931482768065 }, "geometry": { "type": "MultiPolygon", "coordinates": [ [ [ [ -60.267202870760045, -30.916666663945314 ], [ -60.269827900853699, -30.920833330611615 ], [ -60.274684845643847, -30.920833330611615 ], [ -60.272059604007758, -30.916666663945314 ], [ -60.269434909765408, -30.912499997279014 ], [ -60.26457838801602, -30.912499997279014 ], [ -60.259721866266617, -30.912499997279014 ], [ -60.262346137512317, -30.916666663945314 ], [ -60.267202870760045, -30.916666663945314 ] ] ] ] } },
{ "type": "Feature", "properties": { "_uid_": 487231.0, "id": 14077138.0, "initialdat": "2012-07-07", "finaldate": "2012-07-11", "area_ha": 107.22829323458672 }, "geometry": { "type": "MultiPolygon", "coordinates": [ [ [ [ -60.131214339824005, -30.916666663945314 ], [ -60.121500873328564, -30.916666663945314 ], [ -60.126738787095078, -30.924999997277908 ], [ -60.136453099848495, -30.924999997277908 ], [ -60.133833719836254, -30.920833330611615 ], [ -60.138690391519575, -30.920833330611615 ], [ -60.136071073071719, -30.916666663945314 ], [ -60.131214339824005, -30.916666663945314 ] ] ] ] } },
{ "type": "Feature", "properties": { "_uid_": 487232.0, "id": 14077139.0, "initialdat": "2012-07-11", "finaldate": "2012-07-11", "area_ha": 21.445729763424396 }, "geometry": { "type": "MultiPolygon", "coordinates": [ [ [ [ -60.209700160674728, -30.933333330610505 ], [ -60.20484258099254, -30.933333330610505 ], [ -60.207466625693627, -30.937499997276799 ], [ -60.21232441709477, -30.937499997276799 ], [ -60.209700160674728, -30.933333330610505 ] ] ] ] } },
{ "type": "Feature", "properties": { "_uid_": 487233.0, "id": 14077140.0, "initialdat": "2012-07-12", "finaldate": "2012-07-12", "area_ha": 42.891533690416814 }, "geometry": { "type": "MultiPolygon", "coordinates": [ [ [ [ -60.205233214414612, -30.941666663943099 ], [ -60.195517208086116, -30.941666663943099 ], [ -60.19814171183306, -30.9458333306094 ], [ -60.207858141776072, -30.9458333306094 ], [ -60.205233214414612, -30.941666663943099 ] ] ] ] } },
{ "type": "Feature", "properties": { "_uid_": 487234.0, "id": 14077141.0, "initialdat": "2012-07-09", "finaldate": "2012-07-09", "area_ha": 21.446376498544215 }, "geometry": { "type": "MultiPolygon", "coordinates": [ [ [ [ -60.2580902424519, -31.079166663930916 ], [ -60.253225226285053, -31.079166663930916 ], [ -60.25586656230977, -31.083333330597213 ], [ -60.26073179174557, -31.083333330597213 ], [ -60.2580902424519, -31.079166663930916 ] ] ] ] } },
{ "type": "Feature", "properties": { "_uid_": 487235.0, "id": 14077142.0, "initialdat": "2012-07-04", "finaldate": "2012-07-09", "area_ha": 107.23218650556801 }, "geometry": { "type": "MultiPolygon", "coordinates": [ [ [ [ -60.311085629293039, -31.116666663927592 ], [ -60.306218692105375, -31.116666663927592 ], [ -60.308866266269384, -31.120833330593893 ], [ -60.313733417126173, -31.120833330593893 ], [ -60.318600567982948, -31.120833330593893 ], [ -60.315952566480696, -31.116666663927592 ], [ -60.320819503668361, -31.116666663927592 ], [ -60.325686440856003, -31.116666663927592 ], [ -60.323038563542845, -31.112499997261299 ], [ -60.318171839979819, -31.112499997261299 ], [ -60.308438392853766, -31.112499997261299 ], [ -60.311085629293039, -31.116666663927592 ] ] ] ] } },
{ "type": "Feature", "properties": { "_uid_": 487236.0, "id": 14077144.0, "initialdat": "2012-07-12", "finaldate": "2012-07-15", "area_ha": 557.60585750234122 }, "geometry": { "type": "MultiPolygon", "coordinates": [ [ [ [ -60.409300348357299, -31.133333330592784 ], [ -60.404432556226077, -31.133333330592784 ], [ -60.412395103742924, -31.145833330591678 ], [ -60.417263537549353, -31.145833330591678 ], [ -60.42700040516219, -31.145833330591678 ], [ -60.424345304570515, -31.141666663925378 ], [ -60.434081467866299, -31.141666663925378 ], [ -60.43142621593568, -31.137499997259084 ], [ -60.436294221914103, -31.137499997259084 ], [ -60.430984948933492, -31.129166663926483 ], [ -60.435852527262057, -31.129166663926483 ], [ -60.433198506143796, -31.12499999726019 ], [ -60.427892121796788, -31.116666663927592 ], [ -60.423025184609138, -31.116666663927592 ], [ -60.425677886832219, -31.120833330593893 ], [ -60.420810735975422, -31.120833330593893 ], [ -60.41594358511864, -31.120833330593893 ], [ -60.418596412432557, -31.12499999726019 ], [ -60.413729047862127, -31.12499999726019 ], [ -60.423681377906078, -31.140624759482943 ], [ -60.421690203978841, -31.137499997259084 ], [ -60.416382213947813, -31.129166663926483 ], [ -60.411514635619248, -31.129166663926483 ], [ -60.41416814048852, -31.133333330592784 ], [ -60.409300348357299, -31.133333330592784 ] ] ] ] } },
{ "type": "Feature", "properties": { "_uid_": 487237.0, "id": 14077149.0, "initialdat": "2012-07-06", "finaldate": "2012-07-10", "area_ha": 193.02375388016702 }, "geometry": { "type": "MultiPolygon", "coordinates": [ [ [ [ -60.256109245616265, -31.183333330588354 ], [ -60.251238884377521, -31.183333330588354 ], [ -60.253891006194117, -31.187499997254655 ], [ -60.244149854952298, -31.187499997254655 ], [ -60.246802100086818, -31.191666663920952 ], [ -60.261414470229973, -31.191666663920952 ], [ -60.258761857923119, -31.187499997254655 ], [ -60.263632157435957, -31.187499997254655 ], [ -60.268502733056863, -31.187499997254655 ], [ -60.273373308677776, -31.187499997254655 ], [ -60.268067902236297, -31.179166663922061 ], [ -60.258327608433895, -31.179166663922061 ], [ -60.260979606855017, -31.183333330588354 ], [ -60.256109245616265, -31.183333330588354 ] ] ] ] } },
{ "type": "Feature", "properties": { "_uid_": 487238.0, "id": 14077150.0, "initialdat": "2012-07-11", "finaldate": "2012-07-11", "area_ha": 21.446839378499984 }, "geometry": { "type": "MultiPolygon", "coordinates": [ [ [ [ -60.251238884377521, -31.183333330588354 ], [ -60.246368523138777, -31.183333330588354 ], [ -60.249020430573196, -31.187499997254655 ], [ -60.253891006194117, -31.187499997254655 ], [ -60.251238884377521, -31.183333330588354 ] ] ] ] } },
{ "type": "Feature", "properties": { "_uid_": 487239.0, "id": 14077152.0, "initialdat": "2012-07-13", "finaldate": "2012-07-13", "area_ha": 21.44693193494081 }, "geometry": { "type": "MultiPolygon", "coordinates": [ [ [ [ -60.464233793622576, -31.204166663919839 ], [ -60.459362360026567, -31.204166663919839 ], [ -60.462025827927931, -31.208333330586139 ], [ -60.466897476129368, -31.208333330586139 ], [ -60.464233793622576, -31.204166663919839 ] ] ] ] } },
{ "type": "Feature", "properties": { "_uid_": 487241.0, "id": 14077154.0, "initialdat": "2012-07-06", "finaldate": "2012-07-11", "area_ha": 171.57694005153178 }, "geometry": { "type": "MultiPolygon", "coordinates": [ [ [ [ -60.296400119335253, -31.254166663915417 ], [ -60.299061641823727, -31.25833333058171 ], [ -60.303935868777238, -31.25833333058171 ], [ -60.301274131146698, -31.254166663915417 ], [ -60.295952317291793, -31.245833330582816 ], [ -60.293292240864517, -31.241666663916515 ], [ -60.290632717968826, -31.237499997250218 ], [ -60.285759566278067, -31.237499997250218 ], [ -60.288418874210699, -31.241666663916515 ], [ -60.283545507556887, -31.241666663916515 ], [ -60.286205153968574, -31.245833330582816 ], [ -60.288865353923718, -31.249999997249109 ], [ -60.291526107523801, -31.254166663915417 ], [ -60.296400119335253, -31.254166663915417 ] ] ] ] } },
{ "type": "Feature", "properties": { "_uid_": 487242.0, "id": 14077155.0, "initialdat": "2012-07-08", "finaldate": "2012-07-08", "area_ha": 21.447191778552533 }, "geometry": { "type": "MultiPolygon", "coordinates": [ [ [ [ -60.311472602485544, -31.262499997248007 ], [ -60.306598160345182, -31.262499997248007 ], [ -60.309261005952017, -31.266666663914307 ], [ -60.314135663324009, -31.266666663914307 ], [ -60.311472602485544, -31.262499997248007 ] ] ] ] } },
{ "type": "Feature", "properties": { "_uid_": 487243.0, "id": 14077156.0, "initialdat": "2012-07-12", "finaldate": "2012-07-14", "area_ha": 64.341760780966283 }, "geometry": { "type": "MultiPolygon", "coordinates": [ [ [ [ -60.327003474693001, -31.279166663913195 ], [ -60.329668968293063, -31.283333330579492 ], [ -60.334544487039516, -31.283333330579492 ], [ -60.331878778028603, -31.279166663913195 ], [ -60.336754081364212, -31.279166663913195 ], [ -60.334088711567098, -31.274999997246901 ], [ -60.329213623597511, -31.274999997246901 ], [ -60.324338535627902, -31.274999997246901 ], [ -60.327003474693001, -31.279166663913195 ] ] ] ] } },
{ "type": "Feature", "properties": { "_uid_": 487246.0, "id": 14077159.0, "initialdat": "2012-07-09", "finaldate": "2012-07-09", "area_ha": 21.447470282149315 }, "geometry": { "type": "MultiPolygon", "coordinates": [ [ [ [ -60.341721400143435, -31.324999997242468 ], [ -60.336843724822103, -31.324999997242468 ], [ -60.339514461408839, -31.329166663908769 ], [ -60.344392352634522, -31.329166663908769 ], [ -60.341721400143435, -31.324999997242468 ] ] ] ] } },
{ "type": "Feature", "properties": { "_uid_": 487247.0, "id": 14077160.0, "initialdat": "2012-07-06", "finaldate": "2012-07-09", "area_ha": 171.57968027660846 }, "geometry": { "type": "MultiPolygon", "coordinates": [ [ [ [ -60.379005863601463, -31.337499997241363 ], [ -60.38167977950156, -31.341666663907663 ], [ -60.386558318709731, -31.341666663907663 ], [ -60.383884186770544, -31.337499997241363 ], [ -60.388762509939632, -31.337499997241363 ], [ -60.393640833108705, -31.337499997241363 ], [ -60.390967103387133, -31.333333330575062 ], [ -60.395844932497504, -31.333333330575062 ], [ -60.393171264891244, -31.329166663908769 ], [ -60.388293373665562, -31.329166663908769 ], [ -60.378537591214211, -31.329166663908769 ], [ -60.381210610972744, -31.333333330575062 ], [ -60.371454396622916, -31.333333330575062 ], [ -60.374127540432376, -31.337499997241363 ], [ -60.379005863601463, -31.337499997241363 ] ] ] ] } },
{ "type": "Feature", "properties": { "_uid_": 538670.0, "id": 14077143.0, "initialdat": "2012-07-18", "finaldate": "2012-07-18", "area_ha": 21.446543093144893 }, "geometry": { "type": "MultiPolygon", "coordinates": [ [ [ [ -60.301351754917718, -31.116666663927592 ], [ -60.296484817730068, -31.116666663927592 ], [ -60.299131964555812, -31.120833330593893 ], [ -60.303999115412608, -31.120833330593893 ], [ -60.301351754917718, -31.116666663927592 ] ] ] ] } },
{ "type": "Feature", "properties": { "_uid_": 538671.0, "id": 14077145.0, "initialdat": "2012-07-29", "finaldate": "2012-07-29", "area_ha": 21.446616937696938 }, "geometry": { "type": "MultiPolygon", "coordinates": [ [ [ [ -60.268134376551778, -31.133333330592784 ], [ -60.263266584420542, -31.133333330592784 ], [ -60.265914012669462, -31.137499997259084 ], [ -60.270782018647893, -31.137499997259084 ], [ -60.268134376551778, -31.133333330592784 ] ] ] ] } },
{ "type": "Feature", "properties": { "_uid_": 538672.0, "id": 14077146.0, "initialdat": "2012-07-27", "finaldate": "2012-07-30", "area_ha": 150.12665276825427 }, "geometry": { "type": "MultiPolygon", "coordinates": [ [ [ [ -60.278298432021579, -31.141666663925378 ], [ -60.268561992281271, -31.141666663925378 ], [ -60.263693772411131, -31.141666663925378 ], [ -60.268990958209159, -31.149999997257975 ], [ -60.2738596059964, -31.149999997257975 ], [ -60.28359690157091, -31.149999997257975 ], [ -60.278298432021579, -31.141666663925378 ] ] ], [ [ [ -60.268990958209159, -31.149999997257975 ], [ -60.266342089550264, -31.145833330591678 ], [ -60.261473655743842, -31.145833330591678 ], [ -60.264122310421911, -31.149999997257975 ], [ -60.268990958209159, -31.149999997257975 ] ] ] ] } },
{ "type": "Feature", "properties": { "_uid_": 538673.0, "id": 14077147.0, "initialdat": "2012-07-27", "finaldate": "2012-07-27", "area_ha": 21.446672651493554 }, "geometry": { "type": "MultiPolygon", "coordinates": [ [ [ [ -60.290684258582374, -31.145833330591678 ], [ -60.285815824775952, -31.145833330591678 ], [ -60.288465549358158, -31.149999997257975 ], [ -60.293334197145413, -31.149999997257975 ], [ -60.290684258582374, -31.145833330591678 ] ] ] ] } },
{ "type": "Feature", "properties": { "_uid_": 538675.0, "id": 14077151.0, "initialdat": "2012-07-18", "finaldate": "2012-07-19", "area_ha": 193.02347448244095 }, "geometry": { "type": "MultiPolygon", "coordinates": [ [ [ [ -60.465987652234148, -31.191666663920952 ], [ -60.456246072138718, -31.191666663920952 ], [ -60.451375282091, -31.191666663920952 ], [ -60.4540370872095, -31.195833330587245 ], [ -60.456699446487555, -31.199999997253546 ], [ -60.461570665522814, -31.199999997253546 ], [ -60.466897476129368, -31.208333330586139 ], [ -60.471769124330812, -31.208333330586139 ], [ -60.469105227218598, -31.204166663919839 ], [ -60.473976660814614, -31.204166663919839 ], [ -60.465987652234148, -31.191666663920952 ] ] ] ] } },
{ "type": "Feature", "properties": { "_uid_": 603322.0, "id": 14210076.0, "initialdat": "2012-08-05", "finaldate": "2012-08-12", "area_ha": 428.9090856060385 }, "geometry": { "type": "MultiPolygon", "coordinates": [ [ [ [ -60.325483669732634, -30.916666663945314 ], [ -60.320626936484906, -30.916666663945314 ], [ -60.325882198540022, -30.924999997277908 ], [ -60.316167885786612, -30.924999997277908 ], [ -60.318795915553537, -30.929166663944205 ], [ -60.313938547546137, -30.929166663944205 ], [ -60.324455301092321, -30.9458333306094 ], [ -60.334171731035347, -30.9458333306094 ], [ -60.328911410722348, -30.937499997276799 ], [ -60.333769202123491, -30.937499997276799 ], [ -60.331139926845893, -30.933333330610505 ], [ -60.335997232411827, -30.933333330610505 ], [ -60.333368019575673, -30.929166663944205 ], [ -60.338225387583073, -30.929166663944205 ], [ -60.332968183125686, -30.920833330611615 ], [ -60.330340402980362, -30.916666663945314 ], [ -60.327713170758066, -30.912499997279014 ], [ -60.322856649008678, -30.912499997279014 ], [ -60.325483669732634, -30.916666663945314 ] ] ] ] } },
{ "type": "Feature", "properties": { "_uid_": 603325.0, "id": 14210084.0, "initialdat": "2012-08-11", "finaldate": "2012-08-13", "area_ha": 150.12192727278472 }, "geometry": { "type": "MultiPolygon", "coordinates": [ [ [ [ -60.315544578448119, -30.962499997274591 ], [ -60.318176484060309, -30.966666663940885 ], [ -60.323035758730754, -30.966666663940885 ], [ -60.320403641090394, -30.962499997274591 ], [ -60.330121766374951, -30.962499997274591 ], [ -60.324858329140618, -30.95416666394199 ], [ -60.322227433403697, -30.949999997275697 ], [ -60.317369006580762, -30.949999997275697 ], [ -60.319999690422087, -30.95416666394199 ], [ -60.315141051703556, -30.95416666394199 ], [ -60.317772072114543, -30.958333330608291 ], [ -60.312913221456228, -30.958333330608291 ], [ -60.315544578448119, -30.962499997274591 ] ] ] ] } },
{ "type": "Feature", "properties": { "_uid_": 603327.0, "id": 14210089.0, "initialdat": "2012-08-09", "finaldate": "2012-08-13", "area_ha": 1136.6501547513246 }, "geometry": { "type": "MultiPolygon", "coordinates": [ [ [ [ -60.324404414687514, -31.091666663929807 ], [ -60.327050176079517, -31.095833330596108 ], [ -60.331916045588805, -31.095833330596108 ], [ -60.329270070794529, -31.091666663929807 ], [ -60.33413572690155, -31.091666663929807 ], [ -60.331490089851293, -31.087499997263507 ], [ -60.3363555326005, -31.087499997263507 ], [ -60.33371023328268, -31.083333330597213 ], [ -60.338575462718481, -31.083333330597213 ], [ -60.335930501121503, -31.079166663930916 ], [ -60.331065484954657, -31.079166663930916 ], [ -60.328421287516001, -31.074999997264616 ], [ -60.323556484573665, -31.074999997264616 ], [ -60.320913051104107, -31.070833330598322 ], [ -60.311183871579722, -31.070833330598322 ], [ -60.306319281817515, -31.070833330598322 ], [ -60.303677038399293, -31.066666663932022 ], [ -60.308541415025779, -31.066666663932022 ], [ -60.30589950892692, -31.062499997265729 ], [ -60.310763672462087, -31.062499997265729 ], [ -60.308122103671117, -31.058333330599432 ], [ -60.29839420269461, -31.058333330599432 ], [ -60.293530252206359, -31.058333330599432 ], [ -60.296171181856572, -31.062499997265729 ], [ -60.291307018321397, -31.062499997265729 ], [ -60.293948285146321, -31.066666663932022 ], [ -60.284219531893349, -31.066666663932022 ], [ -60.279355155266863, -31.066666663932022 ], [ -60.284638061035146, -31.074999997264616 ], [ -60.289502863977454, -31.074999997264616 ], [ -60.294367666919783, -31.074999997264616 ], [ -60.297010371786705, -31.079166663930916 ], [ -60.292145355619851, -31.079166663930916 ], [ -60.294788397796218, -31.083333330597213 ], [ -60.299653627232026, -31.083333330597213 ], [ -60.302297433356152, -31.087499997263507 ], [ -60.30758669804235, -31.095833330596108 ], [ -60.312452567551638, -31.095833330596108 ], [ -60.317318437060926, -31.095833330596108 ], [ -60.314673102473471, -31.091666663929807 ], [ -60.324404414687514, -31.091666663929807 ] ] ], [ [ [ -60.302297433356152, -31.087499997263507 ], [ -60.297431990606945, -31.087499997263507 ], [ -60.300076134152413, -31.091666663929807 ], [ -60.30272082853304, -31.095833330596108 ], [ -60.30758669804235, -31.095833330596108 ], [ -60.304941790259427, -31.091666663929807 ], [ -60.302297433356152, -31.087499997263507 ] ] ] ] } },
{ "type": "Feature", "properties": { "_uid_": 603329.0, "id": 14210093.0, "initialdat": "2012-08-10", "finaldate": "2012-08-15", "area_ha": 407.48654410632849 }, "geometry": { "type": "MultiPolygon", "coordinates": [ [ [ [ -60.24379541589564, -31.133333330592784 ], [ -60.246441988755791, -31.137499997259084 ], [ -60.249089112800689, -31.141666663925378 ], [ -60.258825552540976, -31.141666663925378 ], [ -60.268561992281271, -31.141666663925378 ], [ -60.263266584420542, -31.133333330592784 ], [ -60.268134376551778, -31.133333330592784 ], [ -60.265487285762426, -31.129166663926483 ], [ -60.262840746179222, -31.12499999726019 ], [ -60.257973381608792, -31.12499999726019 ], [ -60.255327606844745, -31.120833330593893 ], [ -60.24559330513118, -31.120833330593893 ], [ -60.248238652467968, -31.12499999726019 ], [ -60.243371287897553, -31.12499999726019 ], [ -60.246016972448182, -31.129166663926483 ], [ -60.241149394119624, -31.129166663926483 ], [ -60.24379541589564, -31.133333330592784 ] ] ] ] } },
{ "type": "Feature", "properties": { "_uid_": 603331.0, "id": 14210096.0, "initialdat": "2012-08-05", "finaldate": "2012-08-05", "area_ha": 42.893289705133441 }, "geometry": { "type": "MultiPolygon", "coordinates": [ [ [ [ -60.263693772411131, -31.141666663925378 ], [ -60.258825552540976, -31.141666663925378 ], [ -60.261473655743842, -31.145833330591678 ], [ -60.266342089550264, -31.145833330591678 ], [ -60.263693772411131, -31.141666663925378 ] ] ], [ [ [ -60.270782018647893, -31.137499997259084 ], [ -60.265914012669462, -31.137499997259084 ], [ -60.268561992281271, -31.141666663925378 ], [ -60.273430212151425, -31.141666663925378 ], [ -60.270782018647893, -31.137499997259084 ] ] ] ] } },
{ "type": "Feature", "properties": { "_uid_": 603332.0, "id": 14210097.0, "initialdat": "2012-08-09", "finaldate": "2012-08-10", "area_ha": 85.787357263314718 }, "geometry": { "type": "MultiPolygon", "coordinates": [ [ [ [ -60.299942496764984, -31.183333330588354 ], [ -60.290201774287482, -31.183333330588354 ], [ -60.280461051809993, -31.183333330588354 ], [ -60.283114459919609, -31.187499997254655 ], [ -60.292855611161436, -31.187499997254655 ], [ -60.302596762403269, -31.187499997254655 ], [ -60.299942496764984, -31.183333330588354 ] ] ] ] } },
{ "type": "Feature", "properties": { "_uid_": 603334.0, "id": 14210099.0, "initialdat": "2012-08-09", "finaldate": "2012-08-09", "area_ha": 42.893808425092701 }, "geometry": { "type": "MultiPolygon", "coordinates": [ [ [ [ -60.271593123147611, -31.199999997253546 ], [ -60.266721904112337, -31.199999997253546 ], [ -60.269376449781873, -31.204166663919839 ], [ -60.27424788337791, -31.204166663919839 ], [ -60.271593123147611, -31.199999997253546 ] ] ], [ [ [ -60.278680924519563, -31.195833330587245 ], [ -60.273809920000389, -31.195833330587245 ], [ -60.276464342182869, -31.199999997253546 ], [ -60.281335561218135, -31.199999997253546 ], [ -60.278680924519563, -31.195833330587245 ] ] ] ] } },
{ "type": "Feature", "properties": { "_uid_": 603335.0, "id": 14210101.0, "initialdat": "2012-08-02", "finaldate": "2012-08-06", "area_ha": 85.787654018473631 }, "geometry": { "type": "MultiPolygon", "coordinates": [ [ [ [ -60.254762148993827, -31.204166663919839 ], [ -60.257416603467448, -31.208333330586139 ], [ -60.262288251668878, -31.208333330586139 ], [ -60.259633582589835, -31.204166663919839 ], [ -60.264505016185865, -31.204166663919839 ], [ -60.261850685077079, -31.199999997253546 ], [ -60.259196906442902, -31.195833330587245 ], [ -60.254325901923728, -31.195833330587245 ], [ -60.256979466041827, -31.199999997253546 ], [ -60.252108247006568, -31.199999997253546 ], [ -60.254762148993827, -31.204166663919839 ] ] ] ] } },
{ "type": "Feature", "properties": { "_uid_": 603336.0, "id": 14210103.0, "initialdat": "2012-08-09", "finaldate": "2012-08-10", "area_ha": 171.57733390245437 }, "geometry": { "type": "MultiPolygon", "coordinates": [ [ [ [ -60.314551663759801, -31.229166663917624 ], [ -60.317211369137993, -31.233333330583925 ], [ -60.322084305910444, -31.233333330583925 ], [ -60.331830179455331, -31.233333330583925 ], [ -60.326510033087352, -31.224999997251331 ], [ -60.321637526017369, -31.224999997251331 ], [ -60.316765018947414, -31.224999997251331 ], [ -60.314106205675394, -31.22083333058503 ], [ -60.309233913389605, -31.22083333058503 ], [ -60.311892511877438, -31.224999997251331 ], [ -60.307020004807484, -31.224999997251331 ], [ -60.309678941860952, -31.229166663917624 ], [ -60.314551663759801, -31.229166663917624 ] ] ] ] } },
{ "type": "Feature", "properties": { "_uid_": 670130.0, "id": 14210073.0, "initialdat": "2012-08-22", "finaldate": "2012-08-27", "area_ha": 600.47639634790426 }, "geometry": { "type": "MultiPolygon", "coordinates": [ [ [ [ -60.322856649008678, -30.912499997279014 ], [ -60.327713170758066, -30.912499997279014 ], [ -60.325086486359481, -30.90833333061272 ], [ -60.329942796654635, -30.90833333061272 ], [ -60.327316448570251, -30.904166663946423 ], [ -60.324690648154991, -30.89999999728013 ], [ -60.322065395309572, -30.895833330613829 ], [ -60.326921071506582, -30.895833330613829 ], [ -60.324296154853855, -30.891666663947529 ], [ -60.329151619772965, -30.891666663947529 ], [ -60.321279520341257, -30.879166663948638 ], [ -60.311569857641793, -30.879166663948638 ], [ -60.314192921200032, -30.883333330614935 ], [ -60.309337878704554, -30.883333330614935 ], [ -60.311961278246038, -30.887499997281235 ], [ -60.30710602456076, -30.887499997281235 ], [ -60.302250770875496, -30.887499997281235 ], [ -60.30487429517742, -30.891666663947529 ], [ -60.310122985598035, -30.89999999728013 ], [ -60.305267098079057, -30.89999999728013 ], [ -60.310517555473986, -30.90833333061272 ], [ -60.3131436055099, -30.912499997279014 ], [ -60.318000127259282, -30.912499997279014 ], [ -60.322856649008678, -30.912499997279014 ] ] ] ] } },
{ "type": "Feature", "properties": { "_uid_": 670133.0, "id": 14210078.0, "initialdat": "2012-08-26", "finaldate": "2012-08-26", "area_ha": 21.445729912590981 }, "geometry": { "type": "MultiPolygon", "coordinates": [ [ [ [ -60.272848696543278, -30.933333330610505 ], [ -60.267991116861083, -30.933333330610505 ], [ -60.270617913908559, -30.937499997276799 ], [ -60.275475705309702, -30.937499997276799 ], [ -60.272848696543278, -30.933333330610505 ] ] ] ] } },
{ "type": "Feature", "properties": { "_uid_": 670134.0, "id": 14210079.0, "initialdat": "2012-08-22", "finaldate": "2012-08-26", "area_ha": 814.93953940877918 }, "geometry": { "type": "MultiPolygon", "coordinates": [ [ [ [ -60.116323010114726, -30.962499997274591 ], [ -60.118946222572141, -30.966666663940885 ], [ -60.128664771913037, -30.966666663940885 ], [ -60.133524046583489, -30.966666663940885 ], [ -60.130900198041559, -30.962499997274591 ], [ -60.135759260683834, -30.962499997274591 ], [ -60.133135747098763, -30.958333330608291 ], [ -60.142853448415373, -30.958333330608291 ], [ -60.140230331273784, -30.95416666394199 ], [ -60.149947335273467, -30.95416666394199 ], [ -60.144701347146452, -30.9458333306094 ], [ -60.139843132174938, -30.9458333306094 ], [ -60.130126702231919, -30.9458333306094 ], [ -60.125268487260406, -30.9458333306094 ], [ -60.12264716062235, -30.941666663943099 ], [ -60.120026380472936, -30.937499997276799 ], [ -60.115168589071793, -30.937499997276799 ], [ -60.1125485670308, -30.933333330610505 ], [ -60.107690987348612, -30.933333330610505 ], [ -60.102833407666424, -30.933333330610505 ], [ -60.105453006269492, -30.937499997276799 ], [ -60.110310797670643, -30.937499997276799 ], [ -60.118173506840463, -30.949999997275697 ], [ -60.112931154293847, -30.941666663943099 ], [ -60.108073151129602, -30.941666663943099 ], [ -60.110693842345896, -30.9458333306094 ], [ -60.105835627374368, -30.9458333306094 ], [ -60.111078225525219, -30.95416666394199 ], [ -60.106219586806702, -30.95416666394199 ], [ -60.111463947472451, -30.962499997274591 ], [ -60.116323010114726, -30.962499997274591 ] ] ] ] } },
{ "type": "Feature", "properties": { "_uid_": 670135.0, "id": 14210081.0, "initialdat": "2012-08-18", "finaldate": "2012-08-18", "area_ha": 21.445748397314549 }, "geometry": { "type": "MultiPolygon", "coordinates": [ [ [ [ -60.110310797670643, -30.937499997276799 ], [ -60.105453006269492, -30.937499997276799 ], [ -60.108073151129602, -30.941666663943099 ], [ -60.112931154293847, -30.941666663943099 ], [ -60.110310797670643, -30.937499997276799 ] ] ] ] } },
{ "type": "Feature", "properties": { "_uid_": 670136.0, "id": 14210083.0, "initialdat": "2012-08-22", "finaldate": "2012-08-27", "area_ha": 493.24988368182181 }, "geometry": { "type": "MultiPolygon", "coordinates": [ [ [ [ -60.314129225030136, -30.983333330606076 ], [ -60.311495760554905, -30.979166663939775 ], [ -60.306635849534707, -30.979166663939775 ], [ -60.309269101804908, -30.983333330606076 ], [ -60.314129225030136, -30.983333330606076 ] ] ], [ [ [ -60.314129225030136, -30.983333330606076 ], [ -60.318989348255379, -30.983333330606076 ], [ -60.313722543825513, -30.974999997273482 ], [ -60.318582242684904, -30.974999997273482 ], [ -60.315949451649658, -30.970833330607185 ], [ -60.320808938392474, -30.970833330607185 ], [ -60.315544578448119, -30.962499997274591 ], [ -60.312913221456228, -30.958333330608291 ], [ -60.317772072114543, -30.958333330608291 ], [ -60.315141051703556, -30.95416666394199 ], [ -60.310282412985025, -30.95416666394199 ], [ -60.305423774266494, -30.95416666394199 ], [ -60.308054370797926, -30.958333330608291 ], [ -60.303195520139617, -30.958333330608291 ], [ -60.308457934719435, -30.966666663940885 ], [ -60.305826453163569, -30.962499997274591 ], [ -60.300967390521286, -30.962499997274591 ], [ -60.296108327879011, -30.962499997274591 ], [ -60.298739385378539, -30.966666663940885 ], [ -60.293880110708088, -30.966666663940885 ], [ -60.296511504678406, -30.970833330607185 ], [ -60.299143447247317, -30.974999997273482 ], [ -60.304003146106723, -30.974999997273482 ], [ -60.308862844966107, -30.974999997273482 ], [ -60.303598660048976, -30.966666663940885 ], [ -60.314129225030136, -30.983333330606076 ] ] ], [ [ [ -60.305423774266494, -30.95416666394199 ], [ -60.300164226234763, -30.9458333306094 ], [ -60.295306011263264, -30.9458333306094 ], [ -60.300565135547963, -30.95416666394199 ], [ -60.305423774266494, -30.95416666394199 ] ] ], [ [ [ -60.300565135547963, -30.95416666394199 ], [ -60.29793529928903, -30.949999997275697 ], [ -60.293076872466088, -30.949999997275697 ], [ -60.295706496829432, -30.95416666394199 ], [ -60.300565135547963, -30.95416666394199 ] ] ] ] } },
{ "type": "Feature", "properties": { "_uid_": 670140.0, "id": 14210090.0, "initialdat": "2012-08-18", "finaldate": "2012-08-18", "area_ha": 42.892808452606197 }, "geometry": { "type": "MultiPolygon", "coordinates": [ [ [ [ -60.338575462718481, -31.083333330597213 ], [ -60.33371023328268, -31.083333330597213 ], [ -60.3363555326005, -31.087499997263507 ], [ -60.341220975349692, -31.087499997263507 ], [ -60.338575462718481, -31.083333330597213 ] ] ], [ [ [ -60.3363555326005, -31.087499997263507 ], [ -60.331490089851293, -31.087499997263507 ], [ -60.33413572690155, -31.091666663929807 ], [ -60.339001383008586, -31.091666663929807 ], [ -60.3363555326005, -31.087499997263507 ] ] ] ] } },
{ "type": "Feature", "properties": { "_uid_": 670141.0, "id": 14210092.0, "initialdat": "2012-08-18", "finaldate": "2012-08-20", "area_ha": 42.892863812780384 }, "geometry": { "type": "MultiPolygon", "coordinates": [ [ [ [ -60.324404414687514, -31.091666663929807 ], [ -60.319538758580492, -31.091666663929807 ], [ -60.314673102473471, -31.091666663929807 ], [ -60.317318437060926, -31.095833330596108 ], [ -60.322184306570215, -31.095833330596108 ], [ -60.327050176079517, -31.095833330596108 ], [ -60.324404414687514, -31.091666663929807 ] ] ] ] } },
{ "type": "Feature", "properties": { "_uid_": 670142.0, "id": 14210095.0, "initialdat": "2012-08-16", "finaldate": "2012-08-24", "area_ha": 214.46845842562917 }, "geometry": { "type": "MultiPolygon", "coordinates": [ [ [ [ -60.35397389806586, -31.145833330591678 ], [ -60.356626618379643, -31.149999997257975 ], [ -60.361495266166891, -31.149999997257975 ], [ -60.358842331872282, -31.145833330591678 ], [ -60.373447633291555, -31.145833330591678 ], [ -60.368142138216264, -31.137499997259084 ], [ -60.363274408364639, -31.137499997259084 ], [ -60.360622427045051, -31.133333330592784 ], [ -60.350886842782593, -31.133333330592784 ], [ -60.356189949943932, -31.141666663925378 ], [ -60.351321730073792, -31.141666663925378 ], [ -60.35397389806586, -31.145833330591678 ] ] ] ] } },
{ "type": "Feature", "properties": { "_uid_": 670143.0, "id": 14210100.0, "initialdat": "2012-08-16", "finaldate": "2012-08-16", "area_ha": 21.446894913363462 }, "geometry": { "type": "MultiPolygon", "coordinates": [ [ [ [ -60.273809920000389, -31.195833330587245 ], [ -60.268938915481229, -31.195833330587245 ], [ -60.271593123147611, -31.199999997253546 ], [ -60.276464342182869, -31.199999997253546 ], [ -60.273809920000389, -31.195833330587245 ] ] ] ] } },
{ "type": "Feature", "properties": { "_uid_": 670144.0, "id": 14210102.0, "initialdat": "2012-08-23", "finaldate": "2012-08-24", "area_ha": 85.786870133852958 }, "geometry": { "type": "MultiPolygon", "coordinates": [ [ [ [ -60.355296643658185, -31.21666666391873 ], [ -60.345552488565545, -31.21666666391873 ], [ -60.350872568437168, -31.224999997251331 ], [ -60.355745075507137, -31.224999997251331 ], [ -60.353084543961735, -31.22083333058503 ], [ -60.357956836247538, -31.22083333058503 ], [ -60.362829128533328, -31.22083333058503 ], [ -60.360168721204502, -31.21666666391873 ], [ -60.355296643658185, -31.21666666391873 ] ] ] ] } },
{ "type": "Feature", "properties": { "_uid_": 670145.0, "id": 14210104.0, "initialdat": "2012-08-22", "finaldate": "2012-08-24", "area_ha": 85.788284321796894 }, "geometry": { "type": "MultiPolygon", "coordinates": [ [ [ [ -60.358856841639501, -31.237499997250218 ], [ -60.361519374017938, -31.241666663916515 ], [ -60.366392740671763, -31.241666663916515 ], [ -60.371266107325582, -31.241666663916515 ], [ -60.368603145021041, -31.237499997250218 ], [ -60.36594073686242, -31.233333330583925 ], [ -60.361067800089977, -31.233333330583925 ], [ -60.356194863317526, -31.233333330583925 ], [ -60.358856841639501, -31.237499997250218 ] ] ] ] } },
{ "type": "Feature", "properties": { "_uid_": 735977.0, "id": 14358358.0, "initialdat": "2012-09-02", "finaldate": "2012-09-02", "area_ha": 42.891441343724729 }, "geometry": { "type": "MultiPolygon", "coordinates": [ [ [ [ -60.270222235479672, -30.929166663944205 ], [ -60.2653648674723, -30.929166663944205 ], [ -60.267991116861083, -30.933333330610505 ], [ -60.272848696543278, -30.933333330610505 ], [ -60.270222235479672, -30.929166663944205 ] ] ], [ [ [ -60.267991116861083, -30.933333330610505 ], [ -60.263133537178881, -30.933333330610505 ], [ -60.265760122507402, -30.937499997276799 ], [ -60.270617913908559, -30.937499997276799 ], [ -60.267991116861083, -30.933333330610505 ] ] ] ] } },
{ "type": "Feature", "properties": { "_uid_": 735978.0, "id": 14358359.0, "initialdat": "2012-09-02", "finaldate": "2012-09-03", "area_ha": 42.891662817323208 }, "geometry": { "type": "MultiPolygon", "coordinates": [ [ [ [ -60.256837387081184, -30.95416666394199 ], [ -60.251978748362646, -30.95416666394199 ], [ -60.254607013556523, -30.958333330608291 ], [ -60.259465864214825, -30.958333330608291 ], [ -60.256837387081184, -30.95416666394199 ] ] ], [ [ [ -60.254607013556523, -30.958333330608291 ], [ -60.2497481628982, -30.958333330608291 ], [ -60.2523767640985, -30.962499997274591 ], [ -60.257235826740789, -30.962499997274591 ], [ -60.254607013556523, -30.958333330608291 ] ] ] ] } },
{ "type": "Feature", "properties": { "_uid_": 735981.0, "id": 14358373.0, "initialdat": "2012-09-13", "finaldate": "2012-09-13", "area_ha": 21.4474332346797 }, "geometry": { "type": "MultiPolygon", "coordinates": [ [ [ [ -60.355890136210974, -31.316666663909871 ], [ -60.351012892563595, -31.316666663909871 ], [ -60.35368338155881, -31.320833330576171 ], [ -60.358560841020733, -31.320833330576171 ], [ -60.355890136210974, -31.316666663909871 ] ] ] ] } },
{ "type": "Feature", "properties": { "_uid_": 787430.0, "id": 14358357.0, "initialdat": "2012-09-20", "finaldate": "2012-09-26", "area_ha": 85.782477150928969 }, "geometry": { "type": "MultiPolygon", "coordinates": [ [ [ [ -60.10431317028619, -30.912499997279014 ], [ -60.101696212782002, -30.90833333061272 ], [ -60.096839902486856, -30.90833333061272 ], [ -60.099456648536808, -30.912499997279014 ], [ -60.102073940337704, -30.916666663945314 ], [ -60.106930673585417, -30.916666663945314 ], [ -60.10431317028619, -30.912499997279014 ] ] ], [ [ [ -60.10431317028619, -30.912499997279014 ], [ -60.109169692035579, -30.912499997279014 ], [ -60.103935899858904, -30.904166663946423 ], [ -60.099079800973882, -30.904166663946423 ], [ -60.10431317028619, -30.912499997279014 ] ] ] ] } },
{ "type": "Feature", "properties": { "_uid_": 787431.0, "id": 14358362.0, "initialdat": "2012-09-21", "finaldate": "2012-09-21", "area_ha": 42.891718190193174 }, "geometry": { "type": "MultiPolygon", "coordinates": [ [ [ [ -60.296108327879011, -30.962499997274591 ], [ -60.286390202594454, -30.962499997274591 ], [ -60.28902083603765, -30.966666663940885 ], [ -60.298739385378539, -30.966666663940885 ], [ -60.296108327879011, -30.962499997274591 ] ] ] ] } },
{ "type": "Feature", "properties": { "_uid_": 787432.0, "id": 14358363.0, "initialdat": "2012-09-25", "finaldate": "2012-09-25", "area_ha": 42.891902793812754 }, "geometry": { "type": "MultiPolygon", "coordinates": [ [ [ [ -60.144024912146897, -30.983333330606076 ], [ -60.134304665696426, -30.983333330606076 ], [ -60.136930825934819, -30.987499997272369 ], [ -60.146651496883834, -30.987499997272369 ], [ -60.144024912146897, -30.983333330606076 ] ] ] ] } },
{ "type": "Feature", "properties": { "_uid_": 787434.0, "id": 14358365.0, "initialdat": "2012-09-21", "finaldate": "2012-09-24", "area_ha": 235.91175286798477 }, "geometry": { "type": "MultiPolygon", "coordinates": [ [ [ [ -60.307076713601568, -31.133333330592784 ], [ -60.309726066475235, -31.137499997259084 ], [ -60.319462078432068, -31.137499997259084 ], [ -60.316812297864026, -31.133333330592784 ], [ -60.321680089995247, -31.133333330592784 ], [ -60.326547882126469, -31.133333330592784 ], [ -60.321249121024216, -31.12499999726019 ], [ -60.316381756453801, -31.12499999726019 ], [ -60.301779662742547, -31.12499999726019 ], [ -60.304427912390913, -31.129166663926483 ], [ -60.299560334062356, -31.129166663926483 ], [ -60.30220892147036, -31.133333330592784 ], [ -60.307076713601568, -31.133333330592784 ] ] ] ] } },
{ "type": "Feature", "properties": { "_uid_": 787436.0, "id": 14358367.0, "initialdat": "2012-09-21", "finaldate": "2012-09-21", "area_ha": 64.34187655062675 }, "geometry": { "type": "MultiPolygon", "coordinates": [ [ [ [ -60.315434094464969, -31.199999997253546 ], [ -60.31056287542971, -31.199999997253546 ], [ -60.313219352146049, -31.204166663919839 ], [ -60.308347918550012, -31.204166663919839 ], [ -60.311004733683269, -31.208333330586139 ], [ -60.320748030086158, -31.208333330586139 ], [ -60.315434094464969, -31.199999997253546 ] ] ] ] } },
{ "type": "Feature", "properties": { "_uid_": 787437.0, "id": 14358368.0, "initialdat": "2012-09-20", "finaldate": "2012-09-27", "area_ha": 514.7305385905147 }, "geometry": { "type": "MultiPolygon", "coordinates": [ [ [ [ -60.312338432365557, -31.233333330583925 ], [ -60.302592558820685, -31.233333330583925 ], [ -60.305252173041126, -31.237499997250218 ], [ -60.314998476422645, -31.237499997250218 ], [ -60.312338432365557, -31.233333330583925 ] ] ], [ [ [ -60.305252173041126, -31.237499997250218 ], [ -60.300379021350366, -31.237499997250218 ], [ -60.2955058696596, -31.237499997250218 ], [ -60.290188054265577, -31.229166663917624 ], [ -60.28752997652763, -31.224999997251331 ], [ -60.282657469457661, -31.224999997251331 ], [ -60.285315332366721, -31.229166663917624 ], [ -60.275569888569031, -31.229166663917624 ], [ -60.278227874958461, -31.233333330583925 ], [ -60.268482001413588, -31.233333330583925 ], [ -60.271140111205789, -31.237499997250218 ], [ -60.273798774249258, -31.241666663916515 ], [ -60.268925407595454, -31.241666663916515 ], [ -60.271584408983742, -31.245833330582816 ], [ -60.274243963781274, -31.249999997249109 ], [ -60.279117760495417, -31.249999997249109 ], [ -60.283991557209575, -31.249999997249109 ], [ -60.281331849056322, -31.245833330582816 ], [ -60.286205153968574, -31.245833330582816 ], [ -60.283545507556887, -31.241666663916515 ], [ -60.293292240864517, -31.241666663916515 ], [ -60.298165607518349, -31.241666663916515 ], [ -60.300825898953406, -31.245833330582816 ], [ -60.305699480615012, -31.245833330582816 ], [ -60.303038974172146, -31.241666663916515 ], [ -60.307912340825965, -31.241666663916515 ], [ -60.305252173041126, -31.237499997250218 ] ] ] ] } },
{ "type": "Feature", "properties": { "_uid_": 787438.0, "id": 14358370.0, "initialdat": "2012-09-22", "finaldate": "2012-09-22", "area_ha": 64.342188323533534 }, "geometry": { "type": "MultiPolygon", "coordinates": [ [ [ [ -60.370057641590378, -31.308333330577277 ], [ -60.355427205131434, -31.308333330577277 ], [ -60.358097014775275, -31.312499997243577 ], [ -60.372728098408494, -31.312499997243577 ], [ -60.370057641590378, -31.308333330577277 ] ] ] ] } },
{ "type": "Feature", "properties": { "_uid_": 787439.0, "id": 14358371.0, "initialdat": "2012-09-20", "finaldate": "2012-09-24", "area_ha": 128.684475048244 }, "geometry": { "type": "MultiPolygon", "coordinates": [ [ [ [ -60.326626674326683, -31.316666663909871 ], [ -60.321749430679297, -31.316666663909871 ], [ -60.319081069293446, -31.312499997243577 ], [ -60.32395781963109, -31.312499997243577 ], [ -60.321289520060581, -31.308333330577277 ], [ -60.316412707907595, -31.308333330577277 ], [ -60.311535895754616, -31.308333330577277 ], [ -60.316872187031919, -31.316666663909871 ], [ -60.319541165325425, -31.320833330576171 ], [ -60.324418624787334, -31.320833330576171 ], [ -60.329296084249258, -31.320833330576171 ], [ -60.326626674326683, -31.316666663909871 ] ] ], [ [ [ -60.316872187031919, -31.316666663909871 ], [ -60.314203763875618, -31.312499997243577 ], [ -60.309326735997864, -31.312499997243577 ], [ -60.311994943384526, -31.316666663909871 ], [ -60.316872187031919, -31.316666663909871 ] ] ] ] } },
{ "type": "Feature", "properties": { "_uid_": 787440.0, "id": 14358372.0, "initialdat": "2012-09-21", "finaldate": "2012-09-21", "area_ha": 42.8948848251462 }, "geometry": { "type": "MultiPolygon", "coordinates": [ [ [ [ -60.35368338155881, -31.320833330576171 ], [ -60.348805922096901, -31.320833330576171 ], [ -60.351476750786127, -31.324999997242468 ], [ -60.356354426107458, -31.324999997242468 ], [ -60.35368338155881, -31.320833330576171 ] ] ], [ [ [ -60.360767379858359, -31.316666663909871 ], [ -60.355890136210974, -31.316666663909871 ], [ -60.358560841020733, -31.320833330576171 ], [ -60.363438300482642, -31.320833330576171 ], [ -60.360767379858359, -31.316666663909871 ] ] ] ] } },
{ "type": "Feature", "properties": { "_uid_": 787441.0, "id": 14358374.0, "initialdat": "2012-09-22", "finaldate": "2012-09-22", "area_ha": 42.895052194941051 }, "geometry": { "type": "MultiPolygon", "coordinates": [ [ [ [ -60.359492570925134, -31.337499997241363 ], [ -60.349735924586959, -31.337499997241363 ], [ -60.352408544252476, -31.341666663907663 ], [ -60.36216562266884, -31.341666663907663 ], [ -60.359492570925134, -31.337499997241363 ] ] ] ] } },
{ "type": "Feature", "properties": { "_uid_": 872282.0, "id": 14459518.0, "initialdat": "2012-10-30", "finaldate": "2012-10-30", "area_ha": 42.89425344837904 }, "geometry": { "type": "MultiPolygon", "coordinates": [ [ [ [ -60.320320225599843, -31.245833330582816 ], [ -60.31544664393823, -31.245833330582816 ], [ -60.318108134208643, -31.249999997249109 ], [ -60.322981930922801, -31.249999997249109 ], [ -60.320320225599843, -31.245833330582816 ] ] ], [ [ [ -60.318108134208643, -31.249999997249109 ], [ -60.313234337494499, -31.249999997249109 ], [ -60.315896166581062, -31.254166663915417 ], [ -60.320770178392507, -31.254166663915417 ], [ -60.318108134208643, -31.249999997249109 ] ] ] ] } },
{ "type": "Feature", "properties": { "_uid_": 872283.0, "id": 14459519.0, "initialdat": "2012-10-25", "finaldate": "2012-10-30", "area_ha": 85.788822590255734 }, "geometry": { "type": "MultiPolygon", "coordinates": [ [ [ [ -60.304386348580046, -31.266666663914307 ], [ -60.299511691208068, -31.266666663914307 ], [ -60.294637033836096, -31.266666663914307 ], [ -60.29729978775417, -31.270833330580601 ], [ -60.302174660402564, -31.270833330580601 ], [ -60.30704953305095, -31.270833330580601 ], [ -60.31192440569933, -31.270833330580601 ], [ -60.309261005952017, -31.266666663914307 ], [ -60.306598160345182, -31.262499997248007 ], [ -60.301723718204826, -31.262499997248007 ], [ -60.304386348580046, -31.266666663914307 ] ] ] ] } },
{ "type": "Feature", "properties": { "_uid_": 872284.0, "id": 14459520.0, "initialdat": "2012-10-23", "finaldate": "2012-10-29", "area_ha": 321.71189424431321 }, "geometry": { "type": "MultiPolygon", "coordinates": [ [ [ [ -60.343928462634985, -31.320833330576171 ], [ -60.339051003173076, -31.320833330576171 ], [ -60.344392352634522, -31.329166663908769 ], [ -60.34927024386019, -31.329166663908769 ], [ -60.346599353247584, -31.324999997242468 ], [ -60.351476750786127, -31.324999997242468 ], [ -60.348805922096901, -31.320833330576171 ], [ -60.343928462634985, -31.320833330576171 ] ] ], [ [ [ -60.339051003173076, -31.320833330576171 ], [ -60.334173543711167, -31.320833330576171 ], [ -60.331503917974061, -31.316666663909871 ], [ -60.321749430679297, -31.316666663909871 ], [ -60.324418624787334, -31.320833330576171 ], [ -60.319541165325425, -31.320833330576171 ], [ -60.322210698858086, -31.324999997242468 ], [ -60.31733302353674, -31.324999997242468 ], [ -60.320002896506161, -31.329166663908769 ], [ -60.315125005280485, -31.329166663908769 ], [ -60.317795217698823, -31.333333330575062 ], [ -60.322673324873762, -31.333333330575062 ], [ -60.327551432048672, -31.333333330575062 ], [ -60.324880787731843, -31.329166663908769 ], [ -60.329758678957511, -31.329166663908769 ], [ -60.339514461408839, -31.329166663908769 ], [ -60.336843724822103, -31.324999997242468 ], [ -60.341721400143435, -31.324999997242468 ], [ -60.339051003173076, -31.320833330576171 ] ] ] ] } },
{ "type": "Feature", "properties": { "_uid_": 872287.0, "id": 14459522.0, "initialdat": "2012-10-26", "finaldate": "2012-10-31", "area_ha": 214.47368360432387 }, "geometry": { "type": "MultiPolygon", "coordinates": [ [ [ [ -60.386088718147668, -31.333333330575062 ], [ -60.371454396622916, -31.333333330575062 ], [ -60.376801240293368, -31.341666663907663 ], [ -60.386558318709731, -31.341666663907663 ], [ -60.383884186770544, -31.337499997241363 ], [ -60.388762509939632, -31.337499997241363 ], [ -60.386088718147668, -31.333333330575062 ] ] ], [ [ [ -60.376801240293368, -31.341666663907663 ], [ -60.374127540432376, -31.337499997241363 ], [ -60.369249217263302, -31.337499997241363 ], [ -60.364370894094215, -31.337499997241363 ], [ -60.367044161877018, -31.341666663907663 ], [ -60.36216562266884, -31.341666663907663 ], [ -60.357287083460655, -31.341666663907663 ], [ -60.359960475139189, -31.345833330573956 ], [ -60.364839230431414, -31.345833330573956 ], [ -60.374596741015836, -31.345833330573956 ], [ -60.37192270108519, -31.341666663907663 ], [ -60.376801240293368, -31.341666663907663 ] ] ] ] } }
]
}
