{
"type": "FeatureCollection",
"name": "2013",
"crs": { "type": "name", "properties": { "name": "urn:ogc:def:crs:OGC:1.3:CRS84" } },
"features": [
{ "type": "Feature", "properties": { "_uid_": 476619.0, "id": 15263090.0, "initialdat": "2013-07-11", "finaldate": "2013-07-11", "area_ha": 21.445527001011371 }, "geometry": { "type": "MultiPolygon", "coordinates": [ [ [ [ -60.05948808661212, -30.887499997281235 ], [ -60.054632832926863, -30.887499997281235 ], [ -60.057245584302905, -30.891666663947529 ], [ -60.062101049222001, -30.891666663947529 ], [ -60.05948808661212, -30.887499997281235 ] ] ] ] } },
{ "type": "Feature", "properties": { "_uid_": 527323.0, "id": 15263078.0, "initialdat": "2013-07-24", "finaldate": "2013-07-24", "area_ha": 21.443125406289106 }, "geometry": { "type": "MultiPolygon", "coordinates": [ [ [ [ -59.992230643139273, -30.341666663996264 ], [ -59.987402683164767, -30.341666663996264 ], [ -59.989956392862467, -30.345833330662565 ], [ -59.994784558366938, -30.345833330662565 ], [ -59.992230643139273, -30.341666663996264 ] ] ] ] } },
{ "type": "Feature", "properties": { "_uid_": 527324.0, "id": 15263079.0, "initialdat": "2013-07-28", "finaldate": "2013-07-28", "area_ha": 21.443161631441114 }, "geometry": { "type": "MultiPolygon", "coordinates": [ [ [ [ -59.987682266202441, -30.349999997328858 ], [ -59.982853895124983, -30.349999997328858 ], [ -59.985408263125386, -30.354166663995155 ], [ -59.990236839818884, -30.354166663995155 ], [ -59.987682266202441, -30.349999997328858 ] ] ] ] } },
{ "type": "Feature", "properties": { "_uid_": 527325.0, "id": 15263080.0, "initialdat": "2013-07-22", "finaldate": "2013-07-22", "area_ha": 21.443180043220519 }, "geometry": { "type": "MultiPolygon", "coordinates": [ [ [ [ -59.980579686431902, -30.354166663995155 ], [ -59.975751109738404, -30.354166663995155 ], [ -59.978305601244934, -30.358333330661456 ], [ -59.983134383597523, -30.358333330661456 ], [ -59.980579686431902, -30.354166663995155 ] ] ] ] } },
{ "type": "Feature", "properties": { "_uid_": 527326.0, "id": 15263081.0, "initialdat": "2013-07-18", "finaldate": "2013-07-20", "area_ha": 64.330254320085047 }, "geometry": { "type": "MultiPolygon", "coordinates": [ [ [ [ -59.959551284042938, -30.374999997326643 ], [ -59.954721678623351, -30.374999997326643 ], [ -59.957277404130508, -30.37916666399294 ], [ -59.966937026718604, -30.37916666399294 ], [ -59.964380889462525, -30.374999997326643 ], [ -59.961825287206253, -30.370833330660343 ], [ -59.956995887618042, -30.370833330660343 ], [ -59.959551284042938, -30.374999997326643 ] ] ] ] } },
{ "type": "Feature", "properties": { "_uid_": 527327.0, "id": 15263082.0, "initialdat": "2013-07-25", "finaldate": "2013-07-25", "area_ha": 42.886578950107101 }, "geometry": { "type": "MultiPolygon", "coordinates": [ [ [ [ -59.966937026718604, -30.37916666399294 ], [ -59.957277404130508, -30.37916666399294 ], [ -59.959833664646709, -30.383333330659234 ], [ -59.969493699069915, -30.383333330659234 ], [ -59.966937026718604, -30.37916666399294 ] ] ] ] } },
{ "type": "Feature", "properties": { "_uid_": 527329.0, "id": 15263087.0, "initialdat": "2013-07-20", "finaldate": "2013-07-20", "area_ha": 21.445250772666931 }, "geometry": { "type": "MultiPolygon", "coordinates": [ [ [ [ -60.093140341604183, -30.824999997286767 ], [ -60.088288251144611, -30.824999997286767 ], [ -60.090895998081841, -30.829166663953067 ], [ -60.095748299115286, -30.829166663953067 ], [ -60.093140341604183, -30.824999997286767 ] ] ] ] } },
{ "type": "Feature", "properties": { "_uid_": 527330.0, "id": 15263088.0, "initialdat": "2013-07-24", "finaldate": "2013-07-25", "area_ha": 64.335807450497157 }, "geometry": { "type": "MultiPolygon", "coordinates": [ [ [ [ -60.088288251144611, -30.824999997286767 ], [ -60.083436160685046, -30.824999997286767 ], [ -60.086043697048396, -30.829166663953067 ], [ -60.090895998081841, -30.829166663953067 ], [ -60.088288251144611, -30.824999997286767 ] ] ], [ [ [ -60.086043697048396, -30.829166663953067 ], [ -60.081191396014937, -30.829166663953067 ], [ -60.083799265889525, -30.833333330619368 ], [ -60.088651777540804, -30.833333330619368 ], [ -60.086043697048396, -30.829166663953067 ] ] ], [ [ [ -60.083799265889525, -30.833333330619368 ], [ -60.07894675423826, -30.833333330619368 ], [ -60.081554957634623, -30.837499997285661 ], [ -60.086407679947662, -30.837499997285661 ], [ -60.083799265889525, -30.833333330619368 ] ] ] ] } },
{ "type": "Feature", "properties": { "_uid_": 584444.0, "id": 15380569.0, "initialdat": "2013-08-05", "finaldate": "2013-08-06", "area_ha": 42.886268808305267 }, "geometry": { "type": "MultiPolygon", "coordinates": [ [ [ [ -60.026026362960863, -30.341666663996264 ], [ -60.02119840298635, -30.341666663996264 ], [ -60.023753551393746, -30.345833330662565 ], [ -60.028581716898202, -30.345833330662565 ], [ -60.026026362960863, -30.341666663996264 ] ] ], [ [ [ -60.023753551393746, -30.345833330662565 ], [ -60.018925385889276, -30.345833330662565 ], [ -60.021480863744657, -30.349999997328858 ], [ -60.026309234822115, -30.349999997328858 ], [ -60.023753551393746, -30.345833330662565 ] ] ] ] } },
{ "type": "Feature", "properties": { "_uid_": 584461.0, "id": 15380615.0, "initialdat": "2013-08-01", "finaldate": "2013-08-03", "area_ha": 171.56191067360641 }, "geometry": { "type": "MultiPolygon", "coordinates": [ [ [ [ -60.209964568822571, -30.833333330619368 ], [ -60.205112057171291, -30.833333330619368 ], [ -60.200259545520026, -30.833333330619368 ], [ -60.202873015460682, -30.837499997285661 ], [ -60.207725737773721, -30.837499997285661 ], [ -60.21257846008676, -30.837499997285661 ], [ -60.209964568822571, -30.833333330619368 ] ] ], [ [ [ -60.202873015460682, -30.837499997285661 ], [ -60.198020293147643, -30.837499997285661 ], [ -60.200634097719572, -30.841666663951958 ], [ -60.195781164700804, -30.841666663951958 ], [ -60.201009988575201, -30.849999997284552 ], [ -60.205863343137345, -30.849999997284552 ], [ -60.210716697699468, -30.849999997284552 ], [ -60.208101591451708, -30.845833330618259 ], [ -60.212954735220173, -30.845833330618259 ], [ -60.210339963757129, -30.841666663951958 ], [ -60.205487030738347, -30.841666663951958 ], [ -60.202873015460682, -30.837499997285661 ] ] ] ] } },
{ "type": "Feature", "properties": { "_uid_": 584462.0, "id": 15380618.0, "initialdat": "2013-08-01", "finaldate": "2013-08-06", "area_ha": 150.11843109951019 }, "geometry": { "type": "MultiPolygon", "coordinates": [ [ [ [ -60.165547505127563, -30.870833330616037 ], [ -60.162932201889731, -30.866666663949744 ], [ -60.160317444152199, -30.862499997283447 ], [ -60.155463456945135, -30.862499997283447 ], [ -60.158078003713022, -30.866666663949744 ], [ -60.153223805536321, -30.866666663949744 ], [ -60.148369607359612, -30.866666663949744 ], [ -60.150984277556482, -30.870833330616037 ], [ -60.155838686746847, -30.870833330616037 ], [ -60.165547505127563, -30.870833330616037 ] ] ], [ [ [ -60.165547505127563, -30.870833330616037 ], [ -60.170401914317914, -30.870833330616037 ], [ -60.167786672838588, -30.866666663949744 ], [ -60.172640598243127, -30.866666663949744 ], [ -60.170025418566318, -30.862499997283447 ], [ -60.165171431359255, -30.862499997283447 ], [ -60.160317444152199, -30.862499997283447 ], [ -60.165547505127563, -30.870833330616037 ] ] ] ] } },
{ "type": "Feature", "properties": { "_uid_": 584463.0, "id": 15380619.0, "initialdat": "2013-08-01", "finaldate": "2013-08-01", "area_ha": 21.445434945631028 }, "geometry": { "type": "MultiPolygon", "coordinates": [ [ [ [ -60.330165981035087, -30.866666663949744 ], [ -60.327974939897572, -30.866666663949744 ], [ -60.329811768182026, -30.869585068624232 ], [ -60.330165981035087, -30.866666663949744 ] ] ] ] } },
{ "type": "Feature", "properties": { "_uid_": 584464.0, "id": 15380620.0, "initialdat": "2013-08-03", "finaldate": "2013-08-05", "area_ha": 64.336297291517255 }, "geometry": { "type": "MultiPolygon", "coordinates": [ [ [ [ -60.313412345367468, -30.866666663949744 ], [ -60.308558147190766, -30.866666663949744 ], [ -60.313801961405481, -30.874999997282345 ], [ -60.318656581653507, -30.874999997282345 ], [ -60.316034463510483, -30.870833330616037 ], [ -60.320888599218947, -30.870833330616037 ], [ -60.318266543544162, -30.866666663949744 ], [ -60.313412345367468, -30.866666663949744 ] ] ] ] } },
{ "type": "Feature", "properties": { "_uid_": 584467.0, "id": 15380624.0, "initialdat": "2013-08-06", "finaldate": "2013-08-06", "area_ha": 21.445600814306736 }, "geometry": { "type": "MultiPolygon", "coordinates": [ [ [ [ -60.103935899858904, -30.904166663946423 ], [ -60.099079800973882, -30.904166663946423 ], [ -60.101696212782002, -30.90833333061272 ], [ -60.10655252307717, -30.90833333061272 ], [ -60.103935899858904, -30.904166663946423 ] ] ] ] } },
{ "type": "Feature", "properties": { "_uid_": 648735.0, "id": 15380585.0, "initialdat": "2013-08-16", "finaldate": "2013-08-18", "area_ha": 107.22220981426238 }, "geometry": { "type": "MultiPolygon", "coordinates": [ [ [ [ -60.117362103694866, -30.529166663979652 ], [ -60.112524852157705, -30.529166663979652 ], [ -60.117681954921331, -30.537499997312242 ], [ -60.115103133976973, -30.533333330645945 ], [ -60.110265674965618, -30.533333330645945 ], [ -60.112844288392409, -30.537499997312242 ], [ -60.115423440997539, -30.541666663978543 ], [ -60.125099189177341, -30.541666663978543 ], [ -60.117362103694866, -30.529166663979652 ] ] ] ] } },
{ "type": "Feature", "properties": { "_uid_": 648736.0, "id": 15380586.0, "initialdat": "2013-08-26", "finaldate": "2013-08-26", "area_ha": 21.443947245168687 }, "geometry": { "type": "MultiPolygon", "coordinates": [ [ [ [ -60.112524852157705, -30.529166663979652 ], [ -60.107687600620544, -30.529166663979652 ], [ -60.110265674965618, -30.533333330645945 ], [ -60.115103133976973, -30.533333330645945 ], [ -60.112524852157705, -30.529166663979652 ] ] ] ] } },
{ "type": "Feature", "properties": { "_uid_": 648748.0, "id": 15380607.0, "initialdat": "2013-08-13", "finaldate": "2013-08-18", "area_ha": 214.44562406551839 }, "geometry": { "type": "MultiPolygon", "coordinates": [ [ [ [ -60.22127825984311, -30.704166663964145 ], [ -60.226123991182753, -30.704166663964145 ], [ -60.223523316394591, -30.699999997297844 ], [ -60.218323595896123, -30.69166666396525 ], [ -60.208632845397879, -30.69166666396525 ], [ -60.216431985390777, -30.704166663964145 ], [ -60.213831729121246, -30.699999997297844 ], [ -60.208985935484577, -30.699999997297844 ], [ -60.204140141847908, -30.699999997297844 ], [ -60.206739979598808, -30.704166663964145 ], [ -60.211585982494782, -30.704166663964145 ], [ -60.214186572530281, -30.708333330630438 ], [ -60.223878996928299, -30.708333330630438 ], [ -60.22127825984311, -30.704166663964145 ] ] ] ] } },
{ "type": "Feature", "properties": { "_uid_": 648754.0, "id": 15380616.0, "initialdat": "2013-08-15", "finaldate": "2013-08-18", "area_ha": 107.22548905415535 }, "geometry": { "type": "MultiPolygon", "coordinates": [ [ [ [ -60.086772997240047, -30.845833330618259 ], [ -60.091626141008497, -30.845833330618259 ], [ -60.089016638287816, -30.841666663951958 ], [ -60.086407679947662, -30.837499997285661 ], [ -60.076702235321569, -30.837499997285661 ], [ -60.081919853471568, -30.845833330618259 ], [ -60.086772997240047, -30.845833330618259 ] ] ], [ [ [ -60.081919853471568, -30.845833330618259 ], [ -60.079310772250267, -30.841666663951958 ], [ -60.074457839231506, -30.841666663951958 ], [ -60.077066709703097, -30.845833330618259 ], [ -60.081919853471568, -30.845833330618259 ] ] ] ] } },
{ "type": "Feature", "properties": { "_uid_": 648755.0, "id": 15380623.0, "initialdat": "2013-08-20", "finaldate": "2013-08-23", "area_ha": 857.80636170797345 }, "geometry": { "type": "MultiPolygon", "coordinates": [ [ [ [ -60.334539835562637, -30.903937419246667 ], [ -60.334572458874895, -30.903370550342704 ], [ -60.333262067108784, -30.890862798738535 ], [ -60.333156954911388, -30.89047526864692 ], [ -60.3318214427239, -30.887499997281235 ], [ -60.331382292987108, -30.887499997281235 ], [ -60.32652703930183, -30.887499997281235 ], [ -60.32167178561658, -30.887499997281235 ], [ -60.292540263504968, -30.887499997281235 ], [ -60.300411210560085, -30.89999999728013 ], [ -60.2955553230411, -30.89999999728013 ], [ -60.298179855260074, -30.904166663946423 ], [ -60.293323756375038, -30.904166663946423 ], [ -60.295948624588497, -30.90833333061272 ], [ -60.300804934883672, -30.90833333061272 ], [ -60.315373865769146, -30.90833333061272 ], [ -60.312748425683587, -30.904166663946423 ], [ -60.317604250800187, -30.904166663946423 ], [ -60.327316448570251, -30.904166663946423 ], [ -60.332172547455279, -30.904166663946423 ], [ -60.334470500108871, -30.904166663946423 ], [ -60.334539835562637, -30.903937419246667 ] ] ] ] } },
{ "type": "Feature", "properties": { "_uid_": 648756.0, "id": 15380627.0, "initialdat": "2013-08-20", "finaldate": "2013-08-29", "area_ha": 278.79715602858067 }, "geometry": { "type": "MultiPolygon", "coordinates": [ [ [ [ -60.342302073360173, -31.012499997270154 ], [ -60.337440463460595, -31.012499997270154 ], [ -60.340078535180517, -31.016666663936455 ], [ -60.344940357639231, -31.016666663936455 ], [ -60.342302073360173, -31.012499997270154 ] ] ], [ [ [ -60.342302073360173, -31.012499997270154 ], [ -60.347579191792299, -31.020833330602752 ], [ -60.352441226854495, -31.020833330602752 ], [ -60.357303261916691, -31.020833330602752 ], [ -60.354664002556703, -31.016666663936455 ], [ -60.359525825015446, -31.016666663936455 ], [ -60.3568869030589, -31.012499997270154 ], [ -60.354248531009219, -31.008333330603861 ], [ -60.359109928393927, -31.008333330603861 ], [ -60.356471893680499, -31.004166663937561 ], [ -60.351610708766373, -31.004166663937561 ], [ -60.341888338938112, -31.004166663937561 ], [ -60.337027154023986, -31.004166663937561 ], [ -60.342302073360173, -31.012499997270154 ] ] ] ] } },
{ "type": "Feature", "properties": { "_uid_": 648758.0, "id": 15380631.0, "initialdat": "2013-08-29", "finaldate": "2013-09-03", "area_ha": 814.96518383057116 }, "geometry": { "type": "MultiPolygon", "coordinates": [ [ [ [ -60.395558496408114, -31.057846230258338 ], [ -60.392467538799146, -31.049999997266838 ], [ -60.390384058381549, -31.049999997266838 ], [ -60.387740307738341, -31.045833330600537 ], [ -60.382876996124594, -31.045833330600537 ], [ -60.385520533854006, -31.049999997266838 ], [ -60.375793484798912, -31.049999997266838 ], [ -60.366066711081452, -31.049999997266838 ], [ -60.3634237496696, -31.045833330600537 ], [ -60.373150372897094, -31.045833330600537 ], [ -60.367865800984404, -31.037499997267943 ], [ -60.363002915065195, -31.037499997267943 ], [ -60.365644712914701, -31.041666663934237 ], [ -60.355918515426104, -31.041666663934237 ], [ -60.358560438055868, -31.045833330600537 ], [ -60.348833814828367, -31.045833330600537 ], [ -60.354118460036176, -31.054166663933131 ], [ -60.356761608553619, -31.058333330599432 ], [ -60.35940530781383, -31.062499997265729 ], [ -60.364269471349004, -31.062499997265729 ], [ -60.388590289024862, -31.062499997265729 ], [ -60.393454452560036, -31.062499997265729 ], [ -60.390809261971377, -31.058333330599432 ], [ -60.395587242204996, -31.058333330599432 ], [ -60.395558496408114, -31.057846230258338 ] ] ] ] } },
{ "type": "Feature", "properties": { "_uid_": 648759.0, "id": 15380633.0, "initialdat": "2013-08-24", "finaldate": "2013-08-24", "area_ha": 21.446283898711204 }, "geometry": { "type": "MultiPolygon", "coordinates": [ [ [ [ -60.356761608553619, -31.058333330599432 ], [ -60.351897658065354, -31.058333330599432 ], [ -60.354541144278642, -31.062499997265729 ], [ -60.35940530781383, -31.062499997265729 ], [ -60.356761608553619, -31.058333330599432 ] ] ] ] } },
{ "type": "Feature", "properties": { "_uid_": 648760.0, "id": 15380634.0, "initialdat": "2013-08-23", "finaldate": "2013-08-23", "area_ha": 21.446617097568513 }, "geometry": { "type": "MultiPolygon", "coordinates": [ [ [ [ -60.404432556226077, -31.133333330592784 ], [ -60.399564764094841, -31.133333330592784 ], [ -60.402218180065169, -31.137499997259084 ], [ -60.407086186043593, -31.137499997259084 ], [ -60.404432556226077, -31.133333330592784 ] ] ] ] } },
{ "type": "Feature", "properties": { "_uid_": 648761.0, "id": 15380635.0, "initialdat": "2013-08-20", "finaldate": "2013-08-23", "area_ha": 64.339888215315341 }, "geometry": { "type": "MultiPolygon", "coordinates": [ [ [ [ -60.394696971963619, -31.133333330592784 ], [ -60.389829179832397, -31.133333330592784 ], [ -60.392482168108337, -31.137499997259084 ], [ -60.39735017408676, -31.137499997259084 ], [ -60.394696971963619, -31.133333330592784 ] ] ], [ [ [ -60.392482168108337, -31.137499997259084 ], [ -60.382746156151498, -31.137499997259084 ], [ -60.385399269164822, -31.141666663925378 ], [ -60.395135708905116, -31.141666663925378 ], [ -60.392482168108337, -31.137499997259084 ] ] ] ] } },
{ "type": "Feature", "properties": { "_uid_": 648762.0, "id": 15380636.0, "initialdat": "2013-08-29", "finaldate": "2013-08-29", "area_ha": 21.446635355281831 }, "geometry": { "type": "MultiPolygon", "coordinates": [ [ [ [ -60.402218180065169, -31.137499997259084 ], [ -60.39735017408676, -31.137499997259084 ], [ -60.40000392877527, -31.141666663925378 ], [ -60.40487214864541, -31.141666663925378 ], [ -60.402218180065169, -31.137499997259084 ] ] ] ] } },
{ "type": "Feature", "properties": { "_uid_": 648763.0, "id": 15380637.0, "initialdat": "2013-08-17", "finaldate": "2013-08-17", "area_ha": 42.894346487474436 }, "geometry": { "type": "MultiPolygon", "coordinates": [ [ [ [ -60.328307003544843, -31.25833333058171 ], [ -60.3185585496378, -31.25833333058171 ], [ -60.321221486766255, -31.262499997248007 ], [ -60.330970371046966, -31.262499997248007 ], [ -60.328307003544843, -31.25833333058171 ] ] ] ] } },
{ "type": "Feature", "properties": { "_uid_": 648765.0, "id": 15380639.0, "initialdat": "2013-08-26", "finaldate": "2013-08-29", "area_ha": 278.81850460848807 }, "geometry": { "type": "MultiPolygon", "coordinates": [ [ [ [ -60.394584052397555, -31.354166663906554 ], [ -60.389704864802432, -31.354166663906554 ], [ -60.392381006110362, -31.358333330572847 ], [ -60.397260409924392, -31.358333330572847 ], [ -60.394584052397555, -31.354166663906554 ] ] ], [ [ [ -60.394584052397555, -31.354166663906554 ], [ -60.399463239992691, -31.354166663906554 ], [ -60.404342427587821, -31.354166663906554 ], [ -60.398990517476904, -31.345833330573956 ], [ -60.403869272769128, -31.345833330573956 ], [ -60.398519156277807, -31.337499997241363 ], [ -60.393640833108705, -31.337499997241363 ], [ -60.396315397126088, -31.341666663907663 ], [ -60.39143685791791, -31.341666663907663 ], [ -60.394111762184693, -31.345833330573956 ], [ -60.389233006892482, -31.345833330573956 ], [ -60.384354251600271, -31.345833330573956 ], [ -60.374596741015836, -31.345833330573956 ], [ -60.379946489612173, -31.354166663906554 ], [ -60.384825677207296, -31.354166663906554 ], [ -60.389704864802432, -31.354166663906554 ], [ -60.387029279999815, -31.349999997240253 ], [ -60.391908251421015, -31.349999997240253 ], [ -60.394584052397555, -31.354166663906554 ] ] ] ] } },
{ "type": "Feature", "properties": { "_uid_": 719331.0, "id": 15529401.0, "initialdat": "2013-09-01", "finaldate": "2013-09-05", "area_ha": 428.90463527842758 }, "geometry": { "type": "MultiPolygon", "coordinates": [ [ [ [ -60.191679665786182, -30.858333330617153 ], [ -60.196533442067597, -30.858333330617153 ], [ -60.193918087981274, -30.854166663950853 ], [ -60.198771653381051, -30.854166663950853 ], [ -60.196156634013064, -30.849999997284552 ], [ -60.201009988575201, -30.849999997284552 ], [ -60.198395303914772, -30.845833330618259 ], [ -60.193542160146301, -30.845833330618259 ], [ -60.190928231682022, -30.841666663951958 ], [ -60.186075298663269, -30.841666663951958 ], [ -60.183462126208518, -30.837499997285661 ], [ -60.178609403895479, -30.837499997285661 ], [ -60.181222365644501, -30.841666663951958 ], [ -60.176369432625719, -30.841666663951958 ], [ -60.1789827288409, -30.845833330618259 ], [ -60.174129585072436, -30.845833330618259 ], [ -60.176743215764525, -30.849999997284552 ], [ -60.181972113223317, -30.858333330617153 ], [ -60.184587380187494, -30.862499997283447 ], [ -60.187203192773218, -30.866666663949744 ], [ -60.192057390949927, -30.866666663949744 ], [ -60.189441367394551, -30.862499997283447 ], [ -60.194295354601628, -30.862499997283447 ], [ -60.191679665786182, -30.858333330617153 ] ] ], [ [ [ -60.176743215764525, -30.849999997284552 ], [ -60.171889861202388, -30.849999997284552 ], [ -60.174503826382143, -30.854166663950853 ], [ -60.17935739178192, -30.854166663950853 ], [ -60.176743215764525, -30.849999997284552 ] ] ] ] } },
{ "type": "Feature", "properties": { "_uid_": 719332.0, "id": 15529402.0, "initialdat": "2013-09-09", "finaldate": "2013-09-09", "area_ha": 21.445324293375016 }, "geometry": { "type": "MultiPolygon", "coordinates": [ [ [ [ -60.176369432625719, -30.841666663951958 ], [ -60.171516499606938, -30.841666663951958 ], [ -60.174129585072436, -30.845833330618259 ], [ -60.1789827288409, -30.845833330618259 ], [ -60.176369432625719, -30.841666663951958 ] ] ] ] } },
{ "type": "Feature", "properties": { "_uid_": 719334.0, "id": 15529418.0, "initialdat": "2013-09-08", "finaldate": "2013-09-08", "area_ha": 85.785542907428749 }, "geometry": { "type": "MultiPolygon", "coordinates": [ [ [ [ -60.287280339453005, -31.079166663930916 ], [ -60.277550307119306, -31.079166663930916 ], [ -60.282835662359375, -31.087499997263507 ], [ -60.292566547857753, -31.087499997263507 ], [ -60.287280339453005, -31.079166663930916 ] ] ] ] } },
{ "type": "Feature", "properties": { "_uid_": 771036.0, "id": 15529399.0, "initialdat": "2013-09-10", "finaldate": "2013-09-15", "area_ha": 621.9087751514196 }, "geometry": { "type": "MultiPolygon", "coordinates": [ [ [ [ -60.259250516357319, -30.849999997284552 ], [ -60.264103597882965, -30.849999997284552 ], [ -60.261486172904839, -30.845833330618259 ], [ -60.26633931667331, -30.845833330618259 ], [ -60.263722226963623, -30.841666663951958 ], [ -60.268575159982376, -30.841666663951958 ], [ -60.265958405530242, -30.837499997285661 ], [ -60.270811127843281, -30.837499997285661 ], [ -60.27566385015632, -30.837499997285661 ], [ -60.273047220289087, -30.833333330619368 ], [ -60.277899731940366, -30.833333330619368 ], [ -60.282752243591631, -30.833333330619368 ], [ -60.280135738386342, -30.829166663953067 ], [ -60.274904365537196, -30.820833330620474 ], [ -60.279756245466821, -30.820833330620474 ], [ -60.277141167139519, -30.816666663954177 ], [ -60.262586158808709, -30.816666663954177 ], [ -60.265200605677961, -30.820833330620474 ], [ -60.260348725748322, -30.820833330620474 ], [ -60.262963507689058, -30.824999997286767 ], [ -60.253259326769935, -30.824999997286767 ], [ -60.258489685335284, -30.833333330619368 ], [ -60.253637173684005, -30.833333330619368 ], [ -60.256252960904163, -30.837499997285661 ], [ -60.25140023859111, -30.837499997285661 ], [ -60.254016360926073, -30.841666663951958 ], [ -60.249163427907298, -30.841666663951958 ], [ -60.257014438178487, -30.854166663950853 ], [ -60.261868003578265, -30.854166663950853 ], [ -60.259250516357319, -30.849999997284552 ] ] ] ] } },
{ "type": "Feature", "properties": { "_uid_": 771038.0, "id": 15529404.0, "initialdat": "2013-09-11", "finaldate": "2013-09-21", "area_ha": 1158.0741218351006 }, "geometry": { "type": "MultiPolygon", "coordinates": [ [ [ [ -60.134599754676387, -30.937499997276799 ], [ -60.129742236514112, -30.937499997276799 ], [ -60.127121306077385, -30.933333330610505 ], [ -60.117406146713009, -30.933333330610505 ], [ -60.1125485670308, -30.933333330610505 ], [ -60.107690987348612, -30.933333330610505 ], [ -60.110310797670643, -30.937499997276799 ], [ -60.105453006269492, -30.937499997276799 ], [ -60.108073151129602, -30.941666663943099 ], [ -60.103215147965336, -30.941666663943099 ], [ -60.108456653194587, -30.949999997275697 ], [ -60.103598226371659, -30.949999997275697 ], [ -60.108841493807205, -30.958333330608291 ], [ -60.113700344465506, -30.958333330608291 ], [ -60.112389302611547, -30.956249808101418 ], [ -60.116323010114726, -30.962499997274591 ], [ -60.126041135399284, -30.962499997274591 ], [ -60.130900198041559, -30.962499997274591 ], [ -60.135759260683834, -30.962499997274591 ], [ -60.133135747098763, -30.958333330608291 ], [ -60.137994597757064, -30.958333330608291 ], [ -60.142853448415373, -30.958333330608291 ], [ -60.147712299073689, -30.958333330608291 ], [ -60.14508869655495, -30.95416666394199 ], [ -60.149947335273467, -30.95416666394199 ], [ -60.159664612710543, -30.95416666394199 ], [ -60.164523251429074, -30.95416666394199 ], [ -60.159275992060977, -30.9458333306094 ], [ -60.154417777089478, -30.9458333306094 ], [ -60.144702440675502, -30.9458333306094 ], [ -60.13945754607753, -30.937499997276799 ], [ -60.134599754676387, -30.937499997276799 ] ] ] ] } },
{ "type": "Feature", "properties": { "_uid_": 771040.0, "id": 15529407.0, "initialdat": "2013-09-07", "finaldate": "2013-09-15", "area_ha": 364.5788009259939 }, "geometry": { "type": "MultiPolygon", "coordinates": [ [ [ [ -60.284161561367206, -30.966666663940885 ], [ -60.274443012026332, -30.966666663940885 ], [ -60.279704651809737, -30.974999997273482 ], [ -60.284564350669129, -30.974999997273482 ], [ -60.289424049528527, -30.974999997273482 ], [ -60.294283748387919, -30.974999997273482 ], [ -60.29165201793559, -30.970833330607185 ], [ -60.28902083603765, -30.966666663940885 ], [ -60.284161561367206, -30.966666663940885 ] ] ], [ [ [ -60.279704651809737, -30.974999997273482 ], [ -60.277073557707155, -30.970833330607185 ], [ -60.274443012026332, -30.966666663940885 ], [ -60.271813014667622, -30.962499997274591 ], [ -60.262094889383064, -30.962499997274591 ], [ -60.259465864214825, -30.958333330608291 ], [ -60.254607013556523, -30.958333330608291 ], [ -60.257235826740789, -30.962499997274591 ], [ -60.2523767640985, -30.962499997274591 ], [ -60.255005913344547, -30.966666663940885 ], [ -60.257635610735903, -30.970833330607185 ], [ -60.26249509747872, -30.970833330607185 ], [ -60.267354584221536, -30.970833330607185 ], [ -60.269985254090948, -30.974999997273482 ], [ -60.279704651809737, -30.974999997273482 ] ] ] ] } },
{ "type": "Feature", "properties": { "_uid_": 771046.0, "id": 15529413.0, "initialdat": "2013-09-16", "finaldate": "2013-09-22", "area_ha": 193.0145716663599 }, "geometry": { "type": "MultiPolygon", "coordinates": [ [ [ [ -60.315769422886845, -31.016666663936455 ], [ -60.313132413962734, -31.012499997270154 ], [ -60.310495954546838, -31.008333330603861 ], [ -60.305634557162129, -31.008333330603861 ], [ -60.308270804063163, -31.012499997270154 ], [ -60.303409194163585, -31.012499997270154 ], [ -60.30868291129476, -31.020833330602752 ], [ -60.313544946356956, -31.020833330602752 ], [ -60.310907875210063, -31.016666663936455 ], [ -60.315769422886845, -31.016666663936455 ] ] ], [ [ [ -60.315769422886845, -31.016666663936455 ], [ -60.320631245345574, -31.016666663936455 ], [ -60.31799429863856, -31.012499997270154 ], [ -60.322855633761876, -31.012499997270154 ], [ -60.320218749316254, -31.008333330603861 ], [ -60.317582414367457, -31.004166663937561 ], [ -60.312721229453331, -31.004166663937561 ], [ -60.307860044539204, -31.004166663937561 ], [ -60.310495954546838, -31.008333330603861 ], [ -60.315769422886845, -31.016666663936455 ] ] ] ] } },
{ "type": "Feature", "properties": { "_uid_": 771047.0, "id": 15529414.0, "initialdat": "2013-09-19", "finaldate": "2013-09-22", "area_ha": 128.67580100057125 }, "geometry": { "type": "MultiPolygon", "coordinates": [ [ [ [ -60.286188967623296, -31.008333330603861 ], [ -60.281327570238581, -31.008333330603861 ], [ -60.276466172853873, -31.008333330603861 ], [ -60.281736665675716, -31.016666663936455 ], [ -60.286598488134445, -31.016666663936455 ], [ -60.291460310593187, -31.016666663936455 ], [ -60.296322133051916, -31.016666663936455 ], [ -60.29368597436445, -31.012499997270154 ], [ -60.291050365008005, -31.008333330603861 ], [ -60.286188967623296, -31.008333330603861 ] ] ] ] } },
{ "type": "Feature", "properties": { "_uid_": 812141.0, "id": 15624435.0, "initialdat": "2013-10-07", "finaldate": "2013-10-14", "area_ha": 193.01287456268071 }, "geometry": { "type": "MultiPolygon", "coordinates": [ [ [ [ -60.209040743307767, -30.970833330607185 ], [ -60.204181256564951, -30.970833330607185 ], [ -60.206809168918788, -30.974999997273482 ], [ -60.216528566637578, -30.974999997273482 ], [ -60.221388265496977, -30.974999997273482 ], [ -60.2187597167934, -30.970833330607185 ], [ -60.223619203536202, -30.970833330607185 ], [ -60.220990990651451, -30.966666663940885 ], [ -60.216131989876835, -30.966666663940885 ], [ -60.213504262960278, -30.962499997274591 ], [ -60.20864520031801, -30.962499997274591 ], [ -60.198927075033446, -30.962499997274591 ], [ -60.201553891969681, -30.966666663940885 ], [ -60.206413166640125, -30.966666663940885 ], [ -60.209040743307767, -30.970833330607185 ] ] ] ] } },
{ "type": "Feature", "properties": { "_uid_": 812142.0, "id": 15624436.0, "initialdat": "2013-10-02", "finaldate": "2013-10-02", "area_ha": 21.446006745755671 }, "geometry": { "type": "MultiPolygon", "coordinates": [ [ [ [ -60.322032912772293, -30.995833330604967 ], [ -60.317172152666515, -30.995833330604967 ], [ -60.319807601303403, -30.99999999727126 ], [ -60.324668573791222, -30.99999999727126 ], [ -60.322032912772293, -30.995833330604967 ] ] ] ] } },
{ "type": "Feature", "properties": { "_uid_": 812143.0, "id": 15624438.0, "initialdat": "2013-10-02", "finaldate": "2013-10-04", "area_ha": 64.340062578141684 }, "geometry": { "type": "MultiPolygon", "coordinates": [ [ [ [ -60.331820216128762, -31.187499997254655 ], [ -60.334476320945754, -31.191666663920952 ], [ -60.339347110993472, -31.191666663920952 ], [ -60.336690791749675, -31.187499997254655 ], [ -60.341561367370595, -31.187499997254655 ], [ -60.338905386674938, -31.183333330588354 ], [ -60.329164664197449, -31.183333330588354 ], [ -60.331820216128762, -31.187499997254655 ] ] ] ] } },
{ "type": "Feature", "properties": { "_uid_": 847658.0, "id": 15624430.0, "initialdat": "2013-10-28", "finaldate": "2013-10-28", "area_ha": 85.779324249219897 }, "geometry": { "type": "MultiPolygon", "coordinates": [ [ [ [ -60.204985581470353, -30.662499997301168 ], [ -60.200141669202146, -30.662499997301168 ], [ -60.202737459982878, -30.666666663967465 ], [ -60.207581581117424, -30.666666663967465 ], [ -60.204985581470353, -30.662499997301168 ] ] ], [ [ [ -60.202737459982878, -30.666666663967465 ], [ -60.197893338848331, -30.666666663967465 ], [ -60.200489462995819, -30.670833330633766 ], [ -60.195645132951313, -30.670833330633766 ], [ -60.198241590475881, -30.674999997300059 ], [ -60.207930668472102, -30.674999997300059 ], [ -60.202737459982878, -30.666666663967465 ] ] ] ] } },
{ "type": "Feature", "properties": { "_uid_": 847661.0, "id": 15624437.0, "initialdat": "2013-10-18", "finaldate": "2013-10-18", "area_ha": 64.341208626651763 }, "geometry": { "type": "MultiPolygon", "coordinates": [ [ [ [ -60.254385014847415, -31.149999997257975 ], [ -60.249516367060167, -31.149999997257975 ], [ -60.252164931237999, -31.154166663924268 ], [ -60.247296069425367, -31.154166663924268 ], [ -60.249944971076253, -31.158333330590569 ], [ -60.259683122841444, -31.158333330590569 ], [ -60.254385014847415, -31.149999997257975 ] ] ] ] } },
{ "type": "Feature", "properties": { "_uid_": 1006819.0, "id": 15795816.0, "initialdat": "2013-12-15", "finaldate": "2013-12-19", "area_ha": 128.67437484787703 }, "geometry": { "type": "MultiPolygon", "coordinates": [ [ [ [ -60.28846765749001, -30.904166663946423 ], [ -60.283611558604974, -30.904166663946423 ], [ -60.286236003998162, -30.90833333061272 ], [ -60.291092314293337, -30.90833333061272 ], [ -60.28846765749001, -30.904166663946423 ] ] ], [ [ [ -60.286236003998162, -30.90833333061272 ], [ -60.281379693703009, -30.90833333061272 ], [ -60.276523383407849, -30.90833333061272 ], [ -60.279147953264172, -30.912499997279014 ], [ -60.274291431514797, -30.912499997279014 ], [ -60.276916337255479, -30.916666663945314 ], [ -60.279541790434003, -30.920833330611615 ], [ -60.284398735224144, -30.920833330611615 ], [ -60.281773070503192, -30.916666663945314 ], [ -60.286629803750905, -30.916666663945314 ], [ -60.284004748726957, -30.912499997279014 ], [ -60.288860996762949, -30.912499997279014 ], [ -60.286236003998162, -30.90833333061272 ] ] ] ] } },
{ "type": "Feature", "properties": { "_uid_": 1006820.0, "id": 15795817.0, "initialdat": "2013-12-19", "finaldate": "2013-12-19", "area_ha": 150.11699711833 }, "geometry": { "type": "MultiPolygon", "coordinates": [ [ [ [ -60.291882103903085, -30.924999997277908 ], [ -60.282167791149668, -30.924999997277908 ], [ -60.290049079513146, -30.937499997276799 ], [ -60.294906870914289, -30.937499997276799 ], [ -60.299764662315447, -30.937499997276799 ], [ -60.297136594954253, -30.933333330610505 ], [ -60.301994174636448, -30.933333330610505 ], [ -60.299366443523986, -30.929166663944205 ], [ -60.294509075516608, -30.929166663944205 ], [ -60.291882103903085, -30.924999997277908 ] ] ] ] } },
{ "type": "Feature", "properties": { "_uid_": 1006821.0, "id": 15795818.0, "initialdat": "2013-12-19", "finaldate": "2013-12-19", "area_ha": 21.446228468620777 }, "geometry": { "type": "MultiPolygon", "coordinates": [ [ [ [ -60.324517256759641, -31.045833330600537 ], [ -60.31965394514588, -31.045833330600537 ], [ -60.32229471499592, -31.049999997266838 ], [ -60.327158239523463, -31.049999997266838 ], [ -60.324517256759641, -31.045833330600537 ] ] ] ] } }
]
}
