{
"type": "FeatureCollection",
"name": "2014",
"crs": { "type": "name", "properties": { "name": "urn:ogc:def:crs:OGC:1.3:CRS84" } },
"features": [
{ "type": "Feature", "properties": { "_uid_": 2936.0, "id": 15905110.0, "initialdat": "2014-01-01", "finaldate": "2014-01-01", "area_ha": 150.10669497441057 }, "geometry": { "type": "MultiPolygon", "coordinates": [ [ [ [ -60.087680722461066, -30.574999997308922 ], [ -60.082841186320394, -30.574999997308922 ], [ -60.08542290841487, -30.579166663975219 ], [ -60.080583164322348, -30.579166663975219 ], [ -60.088330944887318, -30.591666663974113 ], [ -60.093171313096207, -30.591666663974113 ], [ -60.090587971705858, -30.587499997307813 ], [ -60.095428131832456, -30.587499997307813 ], [ -60.092845122265537, -30.583333330641519 ], [ -60.097685074353365, -30.583333330641519 ], [ -60.095102396599891, -30.579166663975219 ], [ -60.090262652507377, -30.579166663975219 ], [ -60.087680722461066, -30.574999997308922 ] ] ] ] } },
{ "type": "Feature", "properties": { "_uid_": 278486.0, "id": 16163457.0, "initialdat": "2014-04-16", "finaldate": "2014-04-24", "area_ha": 493.19016767677067 }, "geometry": { "type": "MultiPolygon", "coordinates": [ [ [ [ -60.040510242884395, -30.341666663996264 ], [ -60.037954807454916, -30.337499997329964 ], [ -60.035399907027831, -30.333333330663667 ], [ -60.032845541507825, -30.329166663997366 ], [ -60.030291710799595, -30.324999997331073 ], [ -60.0254645725147, -30.324999997331073 ], [ -60.028018197865038, -30.329166663997366 ], [ -60.018363510579462, -30.329166663997366 ], [ -60.020917259896791, -30.333333330663667 ], [ -60.016089710853116, -30.333333330663667 ], [ -60.01864378950458, -30.337499997329964 ], [ -60.023471543992152, -30.337499997329964 ], [ -60.028299298479752, -30.337499997329964 ], [ -60.025744808940466, -30.333333330663667 ], [ -60.030854322935369, -30.341666663996264 ], [ -60.026026362960863, -30.341666663996264 ], [ -60.028581716898202, -30.345833330662565 ], [ -60.038238047907143, -30.345833330662565 ], [ -60.04306621341162, -30.345833330662565 ], [ -60.040510242884395, -30.341666663996264 ] ] ], [ [ [ -60.040510242884395, -30.341666663996264 ], [ -60.05016616283342, -30.341666663996264 ], [ -60.047610316430088, -30.337499997329964 ], [ -60.052438070917667, -30.337499997329964 ], [ -60.049882554158863, -30.333333330663667 ], [ -60.054710103202538, -30.333333330663667 ], [ -60.052154916078955, -30.329166663997366 ], [ -60.047327572436174, -30.329166663997366 ], [ -60.042500228793386, -30.329166663997366 ], [ -60.037673152577987, -30.329166663997366 ], [ -60.035118849084483, -30.324999997331073 ], [ -60.030291710799595, -30.324999997331073 ], [ -60.035399907027831, -30.333333330663667 ], [ -60.040510242884395, -30.341666663996264 ] ] ] ] } },
{ "type": "Feature", "properties": { "_uid_": 487929.0, "id": 16385736.0, "initialdat": "2014-07-19", "finaldate": "2014-07-20", "area_ha": 42.888481110310558 }, "geometry": { "type": "MultiPolygon", "coordinates": [ [ [ [ -60.08123346544177, -30.59583333064041 ], [ -60.076392889107126, -30.59583333064041 ], [ -60.071552312772489, -30.59583333064041 ], [ -60.074135693331819, -30.599999997306703 ], [ -60.078976477835731, -30.599999997306703 ], [ -60.083817262339622, -30.599999997306703 ], [ -60.08123346544177, -30.59583333064041 ] ] ] ] } },
{ "type": "Feature", "properties": { "_uid_": 731848.0, "id": 16644947.0, "initialdat": "2014-09-19", "finaldate": "2014-09-20", "area_ha": 42.888426028573512 }, "geometry": { "type": "MultiPolygon", "coordinates": [ [ [ [ -60.068969472051791, -30.591666663974113 ], [ -60.071552312772489, -30.59583333064041 ], [ -60.076392889107126, -30.59583333064041 ], [ -60.073809840260679, -30.591666663974113 ], [ -60.07122733119941, -30.587499997307813 ], [ -60.066387171072805, -30.587499997307813 ], [ -60.068969472051791, -30.591666663974113 ] ] ] ] } },
{ "type": "Feature", "properties": { "_uid_": 894385.0, "id": 16884441.0, "initialdat": "2014-11-01", "finaldate": "2014-11-05", "area_ha": 85.782273863172534 }, "geometry": { "type": "MultiPolygon", "coordinates": [ [ [ [ -60.31497887311702, -30.89999999728013 ], [ -60.317604250800187, -30.904166663946423 ], [ -60.32246034968523, -30.904166663946423 ], [ -60.31983476063602, -30.89999999728013 ], [ -60.317209719112569, -30.895833330613829 ], [ -60.312354042915551, -30.895833330613829 ], [ -60.307498366718534, -30.895833330613829 ], [ -60.310122985598035, -30.89999999728013 ], [ -60.31497887311702, -30.89999999728013 ] ] ], [ [ [ -60.326921071506582, -30.895833330613829 ], [ -60.322065395309572, -30.895833330613829 ], [ -60.324690648154991, -30.89999999728013 ], [ -60.32954653567397, -30.89999999728013 ], [ -60.326921071506582, -30.895833330613829 ] ] ] ] } },
{ "type": "Feature", "properties": { "_uid_": 894386.0, "id": 16884442.0, "initialdat": "2014-11-01", "finaldate": "2014-11-07", "area_ha": 193.01598233027457 }, "geometry": { "type": "MultiPolygon", "coordinates": [ [ [ [ -60.366066435743818, -31.049999997266838 ], [ -60.368709672493296, -31.054166663933131 ], [ -60.373573409979009, -31.054166663933131 ], [ -60.378437147464716, -31.054166663933131 ], [ -60.375793484798912, -31.049999997266838 ], [ -60.38065700932647, -31.049999997266838 ], [ -60.378013684510854, -31.045833330600537 ], [ -60.375370910403333, -31.041666663934237 ], [ -60.380234009147628, -31.041666663934237 ], [ -60.377591572822837, -31.037499997267943 ], [ -60.372728686903628, -31.037499997267943 ], [ -60.367865800984404, -31.037499997267943 ], [ -60.37050781165901, -31.041666663934237 ], [ -60.365644712914701, -31.041666663934237 ], [ -60.368287061283354, -31.045833330600537 ], [ -60.3634237496696, -31.045833330600537 ], [ -60.366066435743818, -31.049999997266838 ] ] ] ] } },
{ "type": "Feature", "properties": { "_uid_": 929857.0, "id": 16884440.0, "initialdat": "2014-11-14", "finaldate": "2014-11-17", "area_ha": 235.90509142951964 }, "geometry": { "type": "MultiPolygon", "coordinates": [ [ [ [ -60.333262067108784, -30.890862798738535 ], [ -60.333156954911388, -30.89047526864692 ], [ -60.332910034648911, -30.88992517648494 ], [ -60.331382292987108, -30.887499997281235 ], [ -60.32652703930183, -30.887499997281235 ], [ -60.323903006190989, -30.883333330614935 ], [ -60.31904796369551, -30.883333330614935 ], [ -60.32167178561658, -30.887499997281235 ], [ -60.311961278246038, -30.887499997281235 ], [ -60.30710602456076, -30.887499997281235 ], [ -60.309729760096523, -30.891666663947529 ], [ -60.30487429517742, -30.891666663947529 ], [ -60.307498366718534, -30.895833330613829 ], [ -60.326921071506582, -30.895833330613829 ], [ -60.331776747703586, -30.895833330613829 ], [ -60.329151619772965, -30.891666663947529 ], [ -60.333346285150867, -30.891666663947529 ], [ -60.333262067108784, -30.890862798738535 ] ] ] ] } }
]
}
