{
"type": "FeatureCollection",
"name": "2015",
"crs": { "type": "name", "properties": { "name": "urn:ogc:def:crs:OGC:1.3:CRS84" } },
"features": [
{ "type": "Feature", "properties": { "_uid_": 109001.0, "id": 17316798.0, "initialdat": "2015-04-01", "finaldate": "2015-04-07", "area_ha": 321.67511148591041 }, "geometry": { "type": "MultiPolygon", "coordinates": [ [ [ [ -60.160046768840509, -30.745833330627121 ], [ -60.157444642316804, -30.741666663960821 ], [ -60.154843058999916, -30.737499997294528 ], [ -60.152242018791895, -30.733333330628227 ], [ -60.147394549856521, -30.733333330628227 ], [ -60.149995380455373, -30.737499997294528 ], [ -60.145147701910844, -30.737499997294528 ], [ -60.147748865921841, -30.741666663960821 ], [ -60.150350573052123, -30.745833330627121 ], [ -60.160046768840509, -30.745833330627121 ] ] ], [ [ [ -60.160046768840509, -30.745833330627121 ], [ -60.164894866734699, -30.745833330627121 ], [ -60.162292802139575, -30.741666663960821 ], [ -60.167140418711739, -30.741666663960821 ], [ -60.16453841608898, -30.737499997294528 ], [ -60.169386094633523, -30.737499997294528 ], [ -60.161582716855484, -30.724999997295637 ], [ -60.15673566700719, -30.724999997295637 ], [ -60.159336040334665, -30.72916666396193 ], [ -60.154488780964719, -30.72916666396193 ], [ -60.149641521594774, -30.72916666396193 ], [ -60.154843058999916, -30.737499997294528 ], [ -60.160046768840509, -30.745833330627121 ] ] ] ] } },
{ "type": "Feature", "properties": { "_uid_": 151129.0, "id": 17316799.0, "initialdat": "2015-04-20", "finaldate": "2015-04-20", "area_ha": 21.444809314000608 }, "geometry": { "type": "MultiPolygon", "coordinates": [ [ [ [ -60.15673566700719, -30.724999997295637 ], [ -60.151888617158896, -30.724999997295637 ], [ -60.154488780964719, -30.72916666396193 ], [ -60.159336040334665, -30.72916666396193 ], [ -60.15673566700719, -30.724999997295637 ] ] ] ] } },
{ "type": "Feature", "properties": { "_uid_": 151134.0, "id": 17316808.0, "initialdat": "2015-04-20", "finaldate": "2015-04-20", "area_ha": 21.446209984970093 }, "geometry": { "type": "MultiPolygon", "coordinates": [ [ [ [ -60.326739922960272, -31.041666663934237 ], [ -60.321876824215963, -31.041666663934237 ], [ -60.324517256759641, -31.045833330600537 ], [ -60.329380568373381, -31.045833330600537 ], [ -60.326739922960272, -31.041666663934237 ] ] ] ] } },
{ "type": "Feature", "properties": { "_uid_": 183210.0, "id": 17392164.0, "initialdat": "2015-05-01", "finaldate": "2015-05-01", "area_ha": 42.889508534741402 }, "geometry": { "type": "MultiPolygon", "coordinates": [ [ [ [ -60.124705696319886, -30.712499997296735 ], [ -60.115012853228407, -30.712499997296735 ], [ -60.117610132408657, -30.716666663963036 ], [ -60.127303394281043, -30.716666663963036 ], [ -60.124705696319886, -30.712499997296735 ] ] ] ] } },
{ "type": "Feature", "properties": { "_uid_": 205040.0, "id": 17392163.0, "initialdat": "2015-05-17", "finaldate": "2015-05-20", "area_ha": 85.773663675689718 }, "geometry": { "type": "MultiPolygon", "coordinates": [ [ [ [ -60.076863371942899, -30.345833330662565 ], [ -60.072035206438414, -30.345833330662565 ], [ -60.074592945596699, -30.349999997328858 ], [ -60.06976457451924, -30.349999997328858 ], [ -60.072322643608281, -30.354166663995155 ], [ -60.081979796995263, -30.354166663995155 ], [ -60.079421584469081, -30.349999997328858 ], [ -60.084249687751615, -30.349999997328858 ], [ -60.081691537447355, -30.345833330662565 ], [ -60.076863371942899, -30.345833330662565 ] ] ] ] } },
{ "type": "Feature", "properties": { "_uid_": 205041.0, "id": 17392165.0, "initialdat": "2015-05-17", "finaldate": "2015-05-20", "area_ha": 85.77971525751353 }, "geometry": { "type": "MultiPolygon", "coordinates": [ [ [ [ -60.03919119900722, -30.754166663959712 ], [ -60.034342681588235, -30.754166663959712 ], [ -60.036940772962346, -30.758333330626012 ], [ -60.041789500209418, -30.758333330626012 ], [ -60.046638227456484, -30.758333330626012 ], [ -60.044039716426198, -30.754166663959712 ], [ -60.048888233845169, -30.754166663959712 ], [ -60.0462900554366, -30.749999997293415 ], [ -60.041441747801933, -30.749999997293415 ], [ -60.036593440167238, -30.749999997293415 ], [ -60.03919119900722, -30.754166663959712 ] ] ] ] } },
{ "type": "Feature", "properties": { "_uid_": 272440.0, "id": 17458548.0, "initialdat": "2015-06-27", "finaldate": "2015-06-27", "area_ha": 21.445564005541801 }, "geometry": { "type": "MultiPolygon", "coordinates": [ [ [ [ -60.127838347429162, -30.895833330613829 ], [ -60.122982671232158, -30.895833330613829 ], [ -60.125599259876765, -30.89999999728013 ], [ -60.13045514739575, -30.89999999728013 ], [ -60.127838347429162, -30.895833330613829 ] ] ] ] } },
{ "type": "Feature", "properties": { "_uid_": 322560.0, "id": 17551984.0, "initialdat": "2015-07-08", "finaldate": "2015-07-08", "area_ha": 42.889122980809219 }, "geometry": { "type": "MultiPolygon", "coordinates": [ [ [ [ -60.217269823386523, -30.666666663967465 ], [ -60.212425702251977, -30.666666663967465 ], [ -60.217619746468351, -30.674999997300059 ], [ -60.222464285466465, -30.674999997300059 ], [ -60.217269823386523, -30.666666663967465 ] ] ] ] } },
{ "type": "Feature", "properties": { "_uid_": 322561.0, "id": 17551987.0, "initialdat": "2015-07-13", "finaldate": "2015-07-13", "area_ha": 21.444588860011098 }, "geometry": { "type": "MultiPolygon", "coordinates": [ [ [ [ -60.217619746468351, -30.674999997300059 ], [ -60.212775207470216, -30.674999997300059 ], [ -60.215372834371244, -30.67916666396636 ], [ -60.220217582366637, -30.67916666396636 ], [ -60.217619746468351, -30.674999997300059 ] ] ] ] } },
{ "type": "Feature", "properties": { "_uid_": 322562.0, "id": 17551988.0, "initialdat": "2015-07-08", "finaldate": "2015-07-08", "area_ha": 21.44460746474266 }, "geometry": { "type": "MultiPolygon", "coordinates": [ [ [ [ -60.220217582366637, -30.67916666396636 ], [ -60.215372834371244, -30.67916666396636 ], [ -60.217971003885609, -30.68333333063266 ], [ -60.222815960921906, -30.68333333063266 ], [ -60.220217582366637, -30.67916666396636 ] ] ] ] } },
{ "type": "Feature", "properties": { "_uid_": 322563.0, "id": 17551990.0, "initialdat": "2015-07-07", "finaldate": "2015-07-07", "area_ha": 21.444662386429311 }, "geometry": { "type": "MultiPolygon", "coordinates": [ [ [ [ -60.208632845397879, -30.69166666396525 ], [ -60.203787470148761, -30.69166666396525 ], [ -60.206386431401839, -30.695833330631551 ], [ -60.211232015822894, -30.695833330631551 ], [ -60.208632845397879, -30.69166666396525 ] ] ] ] } },
{ "type": "Feature", "properties": { "_uid_": 322569.0, "id": 17551997.0, "initialdat": "2015-07-13", "finaldate": "2015-07-13", "area_ha": 21.444791037189962 }, "geometry": { "type": "MultiPolygon", "coordinates": [ [ [ [ -60.183216878804529, -30.720833330629336 ], [ -60.178370038434146, -30.720833330629336 ], [ -60.180970916248647, -30.724999997295637 ], [ -60.185817966096941, -30.724999997295637 ], [ -60.183216878804529, -30.720833330629336 ] ] ] ] } },
{ "type": "Feature", "properties": { "_uid_": 322570.0, "id": 17551998.0, "initialdat": "2015-07-13", "finaldate": "2015-07-13", "area_ha": 21.444791008388997 }, "geometry": { "type": "MultiPolygon", "coordinates": [ [ [ [ -60.154135836582277, -30.720833330629336 ], [ -60.149288996211894, -30.720833330629336 ], [ -60.151888617158896, -30.724999997295637 ], [ -60.15673566700719, -30.724999997295637 ], [ -60.154135836582277, -30.720833330629336 ] ] ] ] } },
{ "type": "Feature", "properties": { "_uid_": 322584.0, "id": 17552014.0, "initialdat": "2015-07-07", "finaldate": "2015-07-13", "area_ha": 257.34721807554962 }, "geometry": { "type": "MultiPolygon", "coordinates": [ [ [ [ -60.135311034914729, -30.89999999728013 ], [ -60.13045514739575, -30.89999999728013 ], [ -60.133072493169081, -30.904166663946423 ], [ -60.128216394284046, -30.904166663946423 ], [ -60.130834074552979, -30.90833333061272 ], [ -60.145403005438475, -30.90833333061272 ], [ -60.142784690939138, -30.904166663946423 ], [ -60.1401669224337, -30.89999999728013 ], [ -60.13754969982319, -30.895833330613829 ], [ -60.132694023626179, -30.895833330613829 ], [ -60.135311034914729, -30.89999999728013 ] ] ], [ [ [ -60.132694023626179, -30.895833330613829 ], [ -60.130077558089525, -30.891666663947529 ], [ -60.134933023008628, -30.891666663947529 ], [ -60.132316891891129, -30.887499997281235 ], [ -60.117751130835337, -30.887499997281235 ], [ -60.120366628251297, -30.891666663947529 ], [ -60.115511163332208, -30.891666663947529 ], [ -60.118126995035155, -30.895833330613829 ], [ -60.122982671232158, -30.895833330613829 ], [ -60.132694023626179, -30.895833330613829 ] ] ] ] } },
{ "type": "Feature", "properties": { "_uid_": 322585.0, "id": 17552015.0, "initialdat": "2015-07-02", "finaldate": "2015-07-02", "area_ha": 42.891146777725218 }, "geometry": { "type": "MultiPolygon", "coordinates": [ [ [ [ -60.132694023626179, -30.895833330613829 ], [ -60.127838347429162, -30.895833330613829 ], [ -60.13045514739575, -30.89999999728013 ], [ -60.135311034914729, -30.89999999728013 ], [ -60.132694023626179, -30.895833330613829 ] ] ], [ [ [ -60.13045514739575, -30.89999999728013 ], [ -60.125599259876765, -30.89999999728013 ], [ -60.128216394284046, -30.904166663946423 ], [ -60.133072493169081, -30.904166663946423 ], [ -60.13045514739575, -30.89999999728013 ] ] ] ] } },
{ "type": "Feature", "properties": { "_uid_": 322594.0, "id": 17552029.0, "initialdat": "2015-07-01", "finaldate": "2015-07-01", "area_ha": 42.892253858137131 }, "geometry": { "type": "MultiPolygon", "coordinates": [ [ [ [ -60.282147107979917, -31.024999997269052 ], [ -60.277284860269958, -31.024999997269052 ], [ -60.279921604089857, -31.029166663935346 ], [ -60.284784064491902, -31.029166663935346 ], [ -60.282147107979917, -31.024999997269052 ] ] ], [ [ [ -60.289234771045983, -31.020833330602752 ], [ -60.284372735983787, -31.020833330602752 ], [ -60.287009355689875, -31.024999997269052 ], [ -60.291871603399841, -31.024999997269052 ], [ -60.289234771045983, -31.020833330602752 ] ] ] ] } },
{ "type": "Feature", "properties": { "_uid_": 322595.0, "id": 17552030.0, "initialdat": "2015-07-02", "finaldate": "2015-07-02", "area_ha": 21.446136068403721 }, "geometry": { "type": "MultiPolygon", "coordinates": [ [ [ [ -60.262698117140069, -31.024999997269052 ], [ -60.257835869430096, -31.024999997269052 ], [ -60.26047176248165, -31.029166663935346 ], [ -60.265334222883709, -31.029166663935346 ], [ -60.262698117140069, -31.024999997269052 ] ] ] ] } },
{ "type": "Feature", "properties": { "_uid_": 322596.0, "id": 17552031.0, "initialdat": "2015-07-01", "finaldate": "2015-07-01", "area_ha": 21.446191463685036 }, "geometry": { "type": "MultiPolygon", "coordinates": [ [ [ [ -60.285196740357755, -31.037499997267943 ], [ -60.280333854438545, -31.037499997267943 ], [ -60.282972034261519, -31.041666663934237 ], [ -60.287835133005828, -31.041666663934237 ], [ -60.285196740357755, -31.037499997267943 ] ] ] ] } },
{ "type": "Feature", "properties": { "_uid_": 322597.0, "id": 17552032.0, "initialdat": "2015-07-02", "finaldate": "2015-07-02", "area_ha": 21.44624702217579 }, "geometry": { "type": "MultiPolygon", "coordinates": [ [ [ [ -60.283386518775565, -31.049999997266838 ], [ -60.278522994248021, -31.049999997266838 ], [ -60.281162397750521, -31.054166663933131 ], [ -60.28602613523622, -31.054166663933131 ], [ -60.283386518775565, -31.049999997266838 ] ] ] ] } },
{ "type": "Feature", "properties": { "_uid_": 322598.0, "id": 17552033.0, "initialdat": "2015-07-13", "finaldate": "2015-07-13", "area_ha": 21.446302541065215 }, "geometry": { "type": "MultiPolygon", "coordinates": [ [ [ [ -60.26698620064554, -31.062499997265729 ], [ -60.262122037110366, -31.062499997265729 ], [ -60.264762025387405, -31.066666663932022 ], [ -60.269626402013891, -31.066666663932022 ], [ -60.26698620064554, -31.062499997265729 ] ] ] ] } },
{ "type": "Feature", "properties": { "_uid_": 322600.0, "id": 17552045.0, "initialdat": "2015-07-13", "finaldate": "2015-07-13", "area_ha": 42.894829220271113 }, "geometry": { "type": "MultiPolygon", "coordinates": [ [ [ [ -60.338588903264302, -31.312499997243577 ], [ -60.32883484750883, -31.312499997243577 ], [ -60.331503917974061, -31.316666663909871 ], [ -60.341258405268825, -31.316666663909871 ], [ -60.338588903264302, -31.312499997243577 ] ] ] ] } },
{ "type": "Feature", "properties": { "_uid_": 322601.0, "id": 17552047.0, "initialdat": "2015-07-01", "finaldate": "2015-07-02", "area_ha": 193.0288684310913 }, "geometry": { "type": "MultiPolygon", "coordinates": [ [ [ [ -60.363903917537201, -31.329166663908769 ], [ -60.359026026311533, -31.329166663908769 ], [ -60.361698182273095, -31.333333330575062 ], [ -60.351941967923246, -31.333333330575062 ], [ -60.354614247756047, -31.337499997241363 ], [ -60.359492570925134, -31.337499997241363 ], [ -60.374127540432376, -31.337499997241363 ], [ -60.371454396622916, -31.333333330575062 ], [ -60.376332503797833, -31.333333330575062 ], [ -60.370987452071482, -31.324999997242468 ], [ -60.366109776750136, -31.324999997242468 ], [ -60.361232101428804, -31.324999997242468 ], [ -60.366576289448005, -31.333333330575062 ], [ -60.363903917537201, -31.329166663908769 ] ] ] ] } },
{ "type": "Feature", "properties": { "_uid_": 382237.0, "id": 17551983.0, "initialdat": "2015-07-04", "finaldate": "2015-07-24", "area_ha": 1672.6837048752784 }, "geometry": { "type": "MultiPolygon", "coordinates": [ [ [ [ -60.189602760937902, -30.699999997297844 ], [ -60.187004093717647, -30.695833330631551 ], [ -60.191849678138702, -30.695833330631551 ], [ -60.189251615701835, -30.69166666396525 ], [ -60.194096719650531, -30.69166666396525 ], [ -60.191498719385827, -30.68749999729895 ], [ -60.196343885506693, -30.68749999729895 ], [ -60.201189051627559, -30.68749999729895 ], [ -60.198591175740454, -30.68333333063266 ], [ -60.193746489950541, -30.68333333063266 ], [ -60.191149094394383, -30.67916666396636 ], [ -60.195993842389761, -30.67916666396636 ], [ -60.200838590385132, -30.67916666396636 ], [ -60.215372834371244, -30.67916666396636 ], [ -60.212775207470216, -30.674999997300059 ], [ -60.217619746468351, -30.674999997300059 ], [ -60.215022453129357, -30.670833330633766 ], [ -60.205333793040332, -30.670833330633766 ], [ -60.200489462995819, -30.670833330633766 ], [ -60.203086129473995, -30.674999997300059 ], [ -60.198241590475881, -30.674999997300059 ], [ -60.193397051477753, -30.674999997300059 ], [ -60.1908008029068, -30.670833330633766 ], [ -60.185956472862301, -30.670833330633766 ], [ -60.180766020129298, -30.662499997301168 ], [ -60.171078195592877, -30.662499997301168 ], [ -60.173672733175614, -30.666666663967465 ], [ -60.178516854310161, -30.666666663967465 ], [ -60.181112142817774, -30.670833330633766 ], [ -60.171423482728748, -30.670833330633766 ], [ -60.166579152684243, -30.670833330633766 ], [ -60.171770102412864, -30.67916666396636 ], [ -60.16208060642213, -30.67916666396636 ], [ -60.164676476486441, -30.68333333063266 ], [ -60.159831519450151, -30.68333333063266 ], [ -60.154986562413853, -30.68333333063266 ], [ -60.152391110431381, -30.67916666396636 ], [ -60.147546362436003, -30.67916666396636 ], [ -60.150141605377577, -30.68333333063266 ], [ -60.145296648341272, -30.68333333063266 ], [ -60.147892224298005, -30.68749999729895 ], [ -60.143047058177139, -30.68749999729895 ], [ -60.148239418349242, -30.695833330631551 ], [ -60.143393833928187, -30.695833330631551 ], [ -60.145990618207854, -30.699999997297844 ], [ -60.150836411844537, -30.699999997297844 ], [ -60.155682205481199, -30.699999997297844 ], [ -60.158279950638928, -30.704166663964145 ], [ -60.163125953534923, -30.704166663964145 ], [ -60.172817959326899, -30.704166663964145 ], [ -60.175416874938215, -30.708333330630438 ], [ -60.180263087137227, -30.708333330630438 ], [ -60.17766396222288, -30.704166663964145 ], [ -60.182509965118868, -30.704166663964145 ], [ -60.179911173664557, -30.699999997297844 ], [ -60.189602760937902, -30.699999997297844 ] ], [ [ -60.164676476486441, -30.68333333063266 ], [ -60.169521433522718, -30.68333333063266 ], [ -60.174366390559008, -30.68333333063266 ], [ -60.176963221023207, -30.68749999729895 ], [ -60.172118054902356, -30.68749999729895 ], [ -60.17471521865405, -30.69166666396525 ], [ -60.169869843404939, -30.69166666396525 ], [ -60.16727288878149, -30.68749999729895 ], [ -60.164676476486441, -30.68333333063266 ] ], [ [ -60.169869843404939, -30.69166666396525 ], [ -60.175065380027888, -30.699999997297844 ], [ -60.170219586391219, -30.699999997297844 ], [ -60.167621756033448, -30.695833330631551 ], [ -60.162776171612393, -30.695833330631551 ], [ -60.160179364076072, -30.69166666396525 ], [ -60.165024468155821, -30.69166666396525 ], [ -60.169869843404939, -30.69166666396525 ] ] ], [ [ [ -60.216787705688979, -30.712499997296735 ], [ -60.211941284143236, -30.712499997296735 ], [ -60.214542751132548, -30.716666663963036 ], [ -60.219389382068748, -30.716666663963036 ], [ -60.216787705688979, -30.712499997296735 ] ] ], [ [ [ -60.214542751132548, -30.716666663963036 ], [ -60.209696120196355, -30.716666663963036 ], [ -60.212297921026774, -30.720833330629336 ], [ -60.217144761397158, -30.720833330629336 ], [ -60.214542751132548, -30.716666663963036 ] ] ], [ [ [ -60.209696120196355, -30.716666663963036 ], [ -60.207094862597494, -30.712499997296735 ], [ -60.204494148132262, -30.708333330630438 ], [ -60.201893976702813, -30.704166663964145 ], [ -60.197047973806839, -30.704166663964145 ], [ -60.199647935933264, -30.708333330630438 ], [ -60.194801723734251, -30.708333330630438 ], [ -60.189955511535231, -30.708333330630438 ], [ -60.192555597960272, -30.712499997296735 ], [ -60.197402019506015, -30.712499997296735 ], [ -60.202248441051758, -30.712499997296735 ], [ -60.20484948926017, -30.716666663963036 ], [ -60.209696120196355, -30.716666663963036 ] ] ], [ [ [ -60.207094862597494, -30.712499997296735 ], [ -60.211941284143236, -30.712499997296735 ], [ -60.206739979598808, -30.704166663964145 ], [ -60.201893976702813, -30.704166663964145 ], [ -60.207094862597494, -30.712499997296735 ] ] ], [ [ [ -60.206739979598808, -30.704166663964145 ], [ -60.211585982494782, -30.704166663964145 ], [ -60.208985935484577, -30.699999997297844 ], [ -60.204140141847908, -30.699999997297844 ], [ -60.206739979598808, -30.704166663964145 ] ] ], [ [ [ -60.211585982494782, -30.704166663964145 ], [ -60.214186572530281, -30.708333330630438 ], [ -60.219032784729293, -30.708333330630438 ], [ -60.216431985390777, -30.704166663964145 ], [ -60.211585982494782, -30.704166663964145 ] ] ], [ [ [ -60.197047973806839, -30.704166663964145 ], [ -60.194448554574585, -30.699999997297844 ], [ -60.189602760937902, -30.699999997297844 ], [ -60.192201970910837, -30.704166663964145 ], [ -60.197047973806839, -30.704166663964145 ] ] ] ] } },
{ "type": "Feature", "properties": { "_uid_": 382239.0, "id": 17551989.0, "initialdat": "2015-07-24", "finaldate": "2015-07-26", "area_ha": 128.66790084779262 }, "geometry": { "type": "MultiPolygon", "coordinates": [ [ [ [ -60.211232015822894, -30.695833330631551 ], [ -60.206386431401839, -30.695833330631551 ], [ -60.208985935484577, -30.699999997297844 ], [ -60.213831729121246, -30.699999997297844 ], [ -60.211232015822894, -30.695833330631551 ] ] ], [ [ [ -60.211232015822894, -30.695833330631551 ], [ -60.216077600243942, -30.695833330631551 ], [ -60.213478220646991, -30.69166666396525 ], [ -60.218323595896123, -30.69166666396525 ], [ -60.215724549990149, -30.68749999729895 ], [ -60.210879383869283, -30.68749999729895 ], [ -60.208281089813028, -30.68333333063266 ], [ -60.203436132776737, -30.68333333063266 ], [ -60.206034217748417, -30.68749999729895 ], [ -60.201189051627559, -30.68749999729895 ], [ -60.203787470148761, -30.69166666396525 ], [ -60.208632845397879, -30.69166666396525 ], [ -60.211232015822894, -30.695833330631551 ] ] ] ] } },
{ "type": "Feature", "properties": { "_uid_": 382246.0, "id": 17552037.0, "initialdat": "2015-07-15", "finaldate": "2015-07-20", "area_ha": 150.12420222773551 }, "geometry": { "type": "MultiPolygon", "coordinates": [ [ [ [ -60.392955567057712, -31.099999997262408 ], [ -60.383223401145671, -31.099999997262408 ], [ -60.388522377416734, -31.108333330594999 ], [ -60.393388887399595, -31.108333330594999 ], [ -60.390738909804334, -31.104166663928705 ], [ -60.395605206251552, -31.104166663928705 ], [ -60.392955567057712, -31.099999997262408 ] ] ], [ [ [ -60.383223401145671, -31.099999997262408 ], [ -60.378357318189636, -31.099999997262408 ], [ -60.373491235233615, -31.099999997262408 ], [ -60.376140020462685, -31.104166663928705 ], [ -60.38100631690989, -31.104166663928705 ], [ -60.385872613357115, -31.104166663928705 ], [ -60.383223401145671, -31.099999997262408 ] ] ], [ [ [ -60.373491235233615, -31.099999997262408 ], [ -60.370843001663161, -31.095833330596108 ], [ -60.365977132153859, -31.095833330596108 ], [ -60.368625152277595, -31.099999997262408 ], [ -60.373491235233615, -31.099999997262408 ] ] ], [ [ [ -60.371273724015467, -31.104166663928705 ], [ -60.366407427568255, -31.104166663928705 ], [ -60.369056337485205, -31.108333330594999 ], [ -60.37392284746808, -31.108333330594999 ], [ -60.371273724015467, -31.104166663928705 ] ] ] ] } },
{ "type": "Feature", "properties": { "_uid_": 382247.0, "id": 17552039.0, "initialdat": "2015-07-20", "finaldate": "2015-07-20", "area_ha": 21.446524420404433 }, "geometry": { "type": "MultiPolygon", "coordinates": [ [ [ [ -60.400906140551236, -31.112499997261299 ], [ -60.396039416988209, -31.112499997261299 ], [ -60.398690498670852, -31.116666663927592 ], [ -60.403557435858509, -31.116666663927592 ], [ -60.400906140551236, -31.112499997261299 ] ] ] ] } },
{ "type": "Feature", "properties": { "_uid_": 382251.0, "id": 17552043.0, "initialdat": "2015-07-13", "finaldate": "2015-07-22", "area_ha": 1222.5003201168179 }, "geometry": { "type": "MultiPolygon", "coordinates": [ [ [ [ -60.365644623505737, -31.316666663909871 ], [ -60.370521867153116, -31.316666663909871 ], [ -60.375399110800501, -31.316666663909871 ], [ -60.372728098408494, -31.312499997243577 ], [ -60.377605126286234, -31.312499997243577 ], [ -60.380276354447879, -31.316666663909871 ], [ -60.385153598095272, -31.316666663909871 ], [ -60.382482154163981, -31.312499997243577 ], [ -60.379811265896329, -31.308333330577277 ], [ -60.374934453743343, -31.308333330577277 ], [ -60.372264336717251, -31.30416666391098 ], [ -60.362511143771073, -31.30416666391098 ], [ -60.365180829437385, -31.308333330577277 ], [ -60.355427205131434, -31.308333330577277 ], [ -60.350550392978455, -31.308333330577277 ], [ -60.355890136210974, -31.316666663909871 ], [ -60.360767379858359, -31.316666663909871 ], [ -60.365644623505737, -31.316666663909871 ] ] ], [ [ [ -60.355890136210974, -31.316666663909871 ], [ -60.353219986897535, -31.312499997243577 ], [ -60.348342959019796, -31.312499997243577 ], [ -60.351012892563595, -31.316666663909871 ], [ -60.355890136210974, -31.316666663909871 ] ] ], [ [ [ -60.381210610972744, -31.333333330575062 ], [ -60.376332503797833, -31.333333330575062 ], [ -60.371454396622916, -31.333333330575062 ], [ -60.374127540432376, -31.337499997241363 ], [ -60.379005863601463, -31.337499997241363 ], [ -60.383884186770544, -31.337499997241363 ], [ -60.381210610972744, -31.333333330575062 ] ] ], [ [ [ -60.405601146847332, -31.333333330575062 ], [ -60.410479254022256, -31.333333330575062 ], [ -60.407805216671555, -31.329166663908769 ], [ -60.412682829793923, -31.329166663908769 ], [ -60.410008854642193, -31.324999997242468 ], [ -60.414886529963525, -31.324999997242468 ], [ -60.41221289510176, -31.320833330576171 ], [ -60.417090354563683, -31.320833330576171 ], [ -60.41441705997957, -31.316666663909871 ], [ -60.419294303626948, -31.316666663909871 ], [ -60.416621627297076, -31.312499997243577 ], [ -60.421498377185912, -31.312499997243577 ], [ -60.418825763120175, -31.308333330577277 ], [ -60.416153704975073, -31.30416666391098 ], [ -60.413482202648581, -31.299999997244687 ], [ -60.408605821810525, -31.299999997244687 ], [ -60.411277108501984, -31.30416666391098 ], [ -60.406400512028895, -31.30416666391098 ], [ -60.401523915555792, -31.30416666391098 ], [ -60.396647319082703, -31.30416666391098 ], [ -60.401990265674939, -31.312499997243577 ], [ -60.399318514508252, -31.308333330577277 ], [ -60.394441702355273, -31.308333330577277 ], [ -60.397113237797207, -31.312499997243577 ], [ -60.392236209919467, -31.312499997243577 ], [ -60.394908085390036, -31.316666663909871 ], [ -60.39003084174265, -31.316666663909871 ], [ -60.395375828678169, -31.324999997242468 ], [ -60.392703057254117, -31.320833330576171 ], [ -60.387825597792208, -31.320833330576171 ], [ -60.390498153356837, -31.324999997242468 ], [ -60.385620478035491, -31.324999997242468 ], [ -60.388293373665562, -31.329166663908769 ], [ -60.383415482439894, -31.329166663908769 ], [ -60.388762509939632, -31.337499997241363 ], [ -60.393640833108705, -31.337499997241363 ], [ -60.398519156277807, -31.337499997241363 ], [ -60.401193936334273, -31.341666663907663 ], [ -60.406072475542452, -31.341666663907663 ], [ -60.410951014750637, -31.341666663907663 ], [ -60.405601146847332, -31.333333330575062 ] ] ] ] } },
{ "type": "Feature", "properties": { "_uid_": 382252.0, "id": 17552046.0, "initialdat": "2015-07-13", "finaldate": "2015-07-19", "area_ha": 214.47472907960417 }, "geometry": { "type": "MultiPolygon", "coordinates": [ [ [ [ -60.356354426107458, -31.324999997242468 ], [ -60.346599075464781, -31.324999997242468 ], [ -60.34927024386019, -31.329166663908769 ], [ -60.344392352634522, -31.329166663908769 ], [ -60.349735924586959, -31.337499997241363 ], [ -60.354614247756047, -31.337499997241363 ], [ -60.351941967923246, -31.333333330575062 ], [ -60.361698182273095, -31.333333330575062 ], [ -60.35902630419028, -31.329166663908769 ], [ -60.363903917537201, -31.329166663908769 ], [ -60.361232101428804, -31.324999997242468 ], [ -60.370987452071482, -31.324999997242468 ], [ -60.368315759944551, -31.320833330576171 ], [ -60.358560841020733, -31.320833330576171 ], [ -60.35368338155881, -31.320833330576171 ], [ -60.356354426107458, -31.324999997242468 ] ] ] ] } },
{ "type": "Feature", "properties": { "_uid_": 382253.0, "id": 17552048.0, "initialdat": "2015-07-26", "finaldate": "2015-07-26", "area_ha": 42.89501508513689 }, "geometry": { "type": "MultiPolygon", "coordinates": [ [ [ [ -60.439747897071754, -31.333333330575062 ], [ -60.429991682721926, -31.333333330575062 ], [ -60.432667418461385, -31.337499997241363 ], [ -60.44242406479956, -31.337499997241363 ], [ -60.439747897071754, -31.333333330575062 ] ] ] ] } },
{ "type": "Feature", "properties": { "_uid_": 513861.0, "id": 17693122.0, "initialdat": "2015-08-26", "finaldate": "2015-08-29", "area_ha": 536.11078816504482 }, "geometry": { "type": "MultiPolygon", "coordinates": [ [ [ [ -60.181808387144081, -30.68749999729895 ], [ -60.184405969152287, -30.69166666396525 ], [ -60.194096719650531, -30.69166666396525 ], [ -60.191498719385827, -30.68749999729895 ], [ -60.196343885506693, -30.68749999729895 ], [ -60.193746218704177, -30.68333333063266 ], [ -60.198591175740454, -30.68333333063266 ], [ -60.193397051477753, -30.674999997300059 ], [ -60.188552512479639, -30.674999997300059 ], [ -60.183707973481518, -30.674999997300059 ], [ -60.175922107861084, -30.662499997301168 ], [ -60.171078195592877, -30.662499997301168 ], [ -60.168484199927491, -30.658333330634875 ], [ -60.158796793036458, -30.658333330634875 ], [ -60.169174356487154, -30.674999997300059 ], [ -60.174018895485283, -30.674999997300059 ], [ -60.171423482728748, -30.670833330633766 ], [ -60.176614850408242, -30.67916666396636 ], [ -60.179211347595299, -30.68333333063266 ], [ -60.174366390559008, -30.68333333063266 ], [ -60.176963221023207, -30.68749999729895 ], [ -60.181808387144081, -30.68749999729895 ] ] ] ] } },
{ "type": "Feature", "properties": { "_uid_": 513875.0, "id": 17693106.0, "initialdat": "2015-08-27", "finaldate": "2015-08-29", "area_ha": 64.328537490081786 }, "geometry": { "type": "MultiPolygon", "coordinates": [ [ [ [ -60.03373331984011, -30.283333330668096 ], [ -60.031184136468688, -30.279166664001803 ], [ -60.026359254284444, -30.279166664001803 ], [ -60.028908232770526, -30.283333330668096 ], [ -60.03373331984011, -30.283333330668096 ] ] ], [ [ [ -60.03373331984011, -30.283333330668096 ], [ -60.038558406909722, -30.283333330668096 ], [ -60.03346016436717, -30.274999997335502 ], [ -60.028635487025326, -30.274999997335502 ], [ -60.03373331984011, -30.283333330668096 ] ] ] ] } },
{ "type": "Feature", "properties": { "_uid_": 513888.0, "id": 17693119.0, "initialdat": "2015-08-31", "finaldate": "2015-08-31", "area_ha": 21.444368897902965 }, "geometry": { "type": "MultiPolygon", "coordinates": [ [ [ [ -60.191330041834206, -30.624999997304489 ], [ -60.186488007400769, -30.624999997304489 ], [ -60.189079339027323, -30.629166663970789 ], [ -60.193921581934745, -30.629166663970789 ], [ -60.191330041834206, -30.624999997304489 ] ] ] ] } },
{ "type": "Feature", "properties": { "_uid_": 513889.0, "id": 17693120.0, "initialdat": "2015-08-31", "finaldate": "2015-08-31", "area_ha": 21.444460649394991 }, "geometry": { "type": "MultiPolygon", "coordinates": [ [ [ [ -60.19460700413385, -30.64583333063598 ], [ -60.189763926894791, -30.64583333063598 ], [ -60.192357549544369, -30.649999997302281 ], [ -60.1972008354753, -30.649999997302281 ], [ -60.19460700413385, -30.64583333063598 ] ] ] ] } },
{ "type": "Feature", "properties": { "_uid_": 513890.0, "id": 17693121.0, "initialdat": "2015-08-31", "finaldate": "2015-08-31", "area_ha": 21.444497291588782 }, "geometry": { "type": "MultiPolygon", "coordinates": [ [ [ [ -60.190108219414014, -30.654166663968574 ], [ -60.185264724747597, -30.654166663968574 ], [ -60.187859013709506, -30.658333330634875 ], [ -60.192702717155001, -30.658333330634875 ], [ -60.190108219414014, -30.654166663968574 ] ] ] ] } },
{ "type": "Feature", "properties": { "_uid_": 513893.0, "id": 17693124.0, "initialdat": "2015-08-29", "finaldate": "2015-08-29", "area_ha": 21.444717349040509 }, "geometry": { "type": "MultiPolygon", "coordinates": [ [ [ [ -60.197047973806839, -30.704166663964145 ], [ -60.192201970910837, -30.704166663964145 ], [ -60.194801723734251, -30.708333330630438 ], [ -60.199647935933264, -30.708333330630438 ], [ -60.197047973806839, -30.704166663964145 ] ] ] ] } },
{ "type": "Feature", "properties": { "_uid_": 513908.0, "id": 17693141.0, "initialdat": "2015-08-27", "finaldate": "2015-08-27", "area_ha": 21.447470176410675 }, "geometry": { "type": "MultiPolygon", "coordinates": [ [ [ [ -60.346599075464781, -31.324999997242468 ], [ -60.341721400143435, -31.324999997242468 ], [ -60.344392352634522, -31.329166663908769 ], [ -60.34927024386019, -31.329166663908769 ], [ -60.346599075464781, -31.324999997242468 ] ] ] ] } },
{ "type": "Feature", "properties": { "_uid_": 513909.0, "id": 17693142.0, "initialdat": "2015-08-25", "finaldate": "2015-08-28", "area_ha": 557.63731309747698 }, "geometry": { "type": "MultiPolygon", "coordinates": [ [ [ [ -60.369249217263302, -31.337499997241363 ], [ -60.364370894094215, -31.337499997241363 ], [ -60.367044161877018, -31.341666663907663 ], [ -60.37192270108519, -31.341666663907663 ], [ -60.369249217263302, -31.337499997241363 ] ] ], [ [ [ -60.367044161877018, -31.341666663907663 ], [ -60.36216562266884, -31.341666663907663 ], [ -60.36751339431504, -31.349999997240253 ], [ -60.372392365736232, -31.349999997240253 ], [ -60.367044161877018, -31.341666663907663 ] ] ], [ [ [ -60.36751339431504, -31.349999997240253 ], [ -60.364839230431414, -31.345833330573956 ], [ -60.36216562266884, -31.341666663907663 ], [ -60.352408544252476, -31.341666663907663 ], [ -60.342651465836113, -31.341666663907663 ], [ -60.345324209262543, -31.345833330573956 ], [ -60.340445453970332, -31.345833330573956 ], [ -60.343118537209058, -31.349999997240253 ], [ -60.338239565787866, -31.349999997240253 ], [ -60.343586967970069, -31.358333330572847 ], [ -60.346261503246929, -31.362499997239148 ], [ -60.360900363480631, -31.362499997239148 ], [ -60.358225179412152, -31.358333330572847 ], [ -60.363104583226182, -31.358333330572847 ], [ -60.367983987040212, -31.358333330572847 ], [ -60.365308926826771, -31.354166663906554 ], [ -60.370188114421907, -31.354166663906554 ], [ -60.36751339431504, -31.349999997240253 ] ] ] ] } },
{ "type": "Feature", "properties": { "_uid_": 582457.0, "id": 17844743.0, "initialdat": "2015-09-02", "finaldate": "2015-09-02", "area_ha": 21.445785239756109 }, "geometry": { "type": "MultiPolygon", "coordinates": [ [ [ [ -60.271014936405713, -30.9458333306094 ], [ -60.266156721434207, -30.9458333306094 ], [ -60.268784738351421, -30.949999997275697 ], [ -60.273643165174356, -30.949999997275697 ], [ -60.271014936405713, -30.9458333306094 ] ] ] ] } },
{ "type": "Feature", "properties": { "_uid_": 582458.0, "id": 17844744.0, "initialdat": "2015-09-01", "finaldate": "2015-09-03", "area_ha": 214.46121073889734 }, "geometry": { "type": "MultiPolygon", "coordinates": [ [ [ [ -60.215736208290025, -30.958333330608291 ], [ -60.206018506973408, -30.958333330608291 ], [ -60.20864520031801, -30.962499997274591 ], [ -60.203786137675735, -30.962499997274591 ], [ -60.209040743307767, -30.970833330607185 ], [ -60.223619203536202, -30.970833330607185 ], [ -60.220991538454143, -30.966666663940885 ], [ -60.22585026532191, -30.966666663940885 ], [ -60.220595058948341, -30.958333330608291 ], [ -60.215736208290025, -30.958333330608291 ] ] ] ] } },
{ "type": "Feature", "properties": { "_uid_": 654428.0, "id": 17844738.0, "initialdat": "2015-09-15", "finaldate": "2015-09-16", "area_ha": 150.10652524948119 }, "geometry": { "type": "MultiPolygon", "coordinates": [ [ [ [ -60.107687600620544, -30.529166663979652 ], [ -60.117362103694866, -30.529166663979652 ], [ -60.114784153473224, -30.524999997313351 ], [ -60.112206742226796, -30.520833330647058 ], [ -60.097696232070128, -30.520833330647058 ], [ -60.100273021154202, -30.524999997313351 ], [ -60.095435977047863, -30.524999997313351 ], [ -60.098013097546222, -30.529166663979652 ], [ -60.107687600620544, -30.529166663979652 ] ] ] ] } },
{ "type": "Feature", "properties": { "_uid_": 654429.0, "id": 17844739.0, "initialdat": "2015-09-15", "finaldate": "2015-09-15", "area_ha": 21.443929089665414 }, "geometry": { "type": "MultiPolygon", "coordinates": [ [ [ [ -60.080924844728827, -30.524999997313351 ], [ -60.076087800622481, -30.524999997313351 ], [ -60.078664091397563, -30.529166663979652 ], [ -60.083501342934738, -30.529166663979652 ], [ -60.080924844728827, -30.524999997313351 ] ] ] ] } },
{ "type": "Feature", "properties": { "_uid_": 654432.0, "id": 17844747.0, "initialdat": "2015-09-15", "finaldate": "2015-09-17", "area_ha": 64.33988806939125 }, "geometry": { "type": "MultiPolygon", "coordinates": [ [ [ [ -60.307076713601568, -31.133333330592784 ], [ -60.30220892147036, -31.133333330592784 ], [ -60.304858060496819, -31.137499997259084 ], [ -60.309726066475235, -31.137499997259084 ], [ -60.307076713601568, -31.133333330592784 ] ] ], [ [ [ -60.304858060496819, -31.137499997259084 ], [ -60.299990054518396, -31.137499997259084 ], [ -60.295122048539973, -31.137499997259084 ], [ -60.29777131150216, -31.141666663925378 ], [ -60.302639531372314, -31.141666663925378 ], [ -60.307507751242468, -31.141666663925378 ], [ -60.304858060496819, -31.137499997259084 ] ] ] ] } },
{ "type": "Feature", "properties": { "_uid_": 711986.0, "id": 17979626.0, "initialdat": "2015-10-13", "finaldate": "2015-10-14", "area_ha": 150.10847476501465 }, "geometry": { "type": "MultiPolygon", "coordinates": [ [ [ [ -60.070260344532834, -30.562499997310027 ], [ -60.07509925707874, -30.562499997310027 ], [ -60.072519692689433, -30.558333330643727 ], [ -60.06994066748446, -30.554166663977433 ], [ -60.055425176384738, -30.554166663977433 ], [ -60.058003578385872, -30.558333330643727 ], [ -60.053164873618037, -30.558333330643727 ], [ -60.055743606895177, -30.562499997310027 ], [ -60.070260344532834, -30.562499997310027 ] ] ] ] } },
{ "type": "Feature", "properties": { "_uid_": 711987.0, "id": 17979627.0, "initialdat": "2015-10-05", "finaldate": "2015-10-05", "area_ha": 107.22635215812922 }, "geometry": { "type": "MultiPolygon", "coordinates": [ [ [ [ -60.220106583886995, -30.733333330628227 ], [ -60.215259114951635, -30.733333330628227 ], [ -60.217862880078883, -30.737499997294528 ], [ -60.208167522989804, -30.737499997294528 ], [ -60.210771412489002, -30.741666663960821 ], [ -60.225315077081433, -30.741666663960821 ], [ -60.220106583886995, -30.733333330628227 ] ] ], [ [ [ -60.210771412489002, -30.741666663960821 ], [ -60.205923524291535, -30.741666663960821 ], [ -60.208527747782384, -30.745833330627121 ], [ -60.213375845676573, -30.745833330627121 ], [ -60.210771412489002, -30.741666663960821 ] ] ] ] } },
{ "type": "Feature", "properties": { "_uid_": 760011.0, "id": 17979628.0, "initialdat": "2015-10-16", "finaldate": "2015-10-16", "area_ha": 42.889765774679184 }, "geometry": { "type": "MultiPolygon", "coordinates": [ [ [ [ -60.220467188883966, -30.741666663960821 ], [ -60.210771412489002, -30.741666663960821 ], [ -60.213375845676573, -30.745833330627121 ], [ -60.22307204146496, -30.745833330627121 ], [ -60.220467188883966, -30.741666663960821 ] ] ] ] } },
{ "type": "Feature", "properties": { "_uid_": 940583.0, "id": 18197100.0, "initialdat": "2015-12-25", "finaldate": "2015-12-26", "area_ha": 42.886068248248101 }, "geometry": { "type": "MultiPolygon", "coordinates": [ [ [ [ -59.940853621347848, -30.320833330664772 ], [ -59.936026688377844, -30.320833330664772 ], [ -59.931199755407839, -30.320833330664772 ], [ -59.933748945101705, -30.324999997331073 ], [ -59.938576083386607, -30.324999997331073 ], [ -59.943403221671502, -30.324999997331073 ], [ -59.940853621347848, -30.320833330664772 ] ] ] ] } }
]
}
