{
"type": "FeatureCollection",
"name": "2016",
"crs": { "type": "name", "properties": { "name": "urn:ogc:def:crs:OGC:1.3:CRS84" } },
"features": [
{ "type": "Feature", "properties": { "_uid_": 83085.0, "id": 18290258.0, "initialdat": "2016-01-10", "finaldate": "2016-01-17", "area_ha": 407.47227185330394 }, "geometry": { "type": "MultiPolygon", "coordinates": [ [ [ [ -60.367290947152554, -30.988303529405446 ], [ -60.365772391246509, -30.974999997273482 ], [ -60.362319532419477, -30.974999997273482 ], [ -60.364954781777115, -30.979166663939775 ], [ -60.360094870756917, -30.979166663939775 ], [ -60.365366593236658, -30.987499997272369 ], [ -60.368003278719272, -30.99166666393867 ], [ -60.370455892744737, -30.99166666393867 ], [ -60.367290947152554, -30.988303529405446 ] ] ] ] } },
{ "type": "Feature", "properties": { "_uid_": 83099.0, "id": 18290257.0, "initialdat": "2016-01-29", "finaldate": "2016-01-29", "area_ha": 21.445250743258001 }, "geometry": { "type": "MultiPolygon", "coordinates": [ [ [ [ -60.26781559814863, -30.824999997286767 ], [ -60.262963507689058, -30.824999997286767 ], [ -60.265578835285986, -30.829166663953067 ], [ -60.270431136319445, -30.829166663953067 ], [ -60.26781559814863, -30.824999997286767 ] ] ] ] } },
{ "type": "Feature", "properties": { "_uid_": 83100.0, "id": 18290259.0, "initialdat": "2016-01-16", "finaldate": "2016-01-21", "area_ha": 193.0146802753687 }, "geometry": { "type": "MultiPolygon", "coordinates": [ [ [ [ -60.362583430924737, -31.029166663935346 ], [ -60.365224340773032, -31.033333330601646 ], [ -60.370087013911515, -31.033333330601646 ], [ -60.374949687049977, -31.033333330601646 ], [ -60.37230835172884, -31.029166663935346 ], [ -60.377170812130892, -31.029166663935346 ], [ -60.37452981446922, -31.024999997269052 ], [ -60.371889367103272, -31.020833330602752 ], [ -60.376751402165468, -31.020833330602752 ], [ -60.374111292391646, -31.016666663936455 ], [ -60.364387647474175, -31.016666663936455 ], [ -60.367027332041076, -31.020833330602752 ], [ -60.362165296978887, -31.020833330602752 ], [ -60.364805319049303, -31.024999997269052 ], [ -60.359943071339323, -31.024999997269052 ], [ -60.362583430924737, -31.029166663935346 ] ] ] ] } },
{ "type": "Feature", "properties": { "_uid_": 214028.0, "id": 18517976.0, "initialdat": "2016-03-04", "finaldate": "2016-03-10", "area_ha": 235.89042938419581 }, "geometry": { "type": "MultiPolygon", "coordinates": [ [ [ [ -60.049074745474456, -30.699999997297844 ], [ -60.039383158201119, -30.699999997297844 ], [ -60.044569145564999, -30.708333330630438 ], [ -60.049415357763998, -30.708333330630438 ], [ -60.046821884031225, -30.704166663964145 ], [ -60.051667886927206, -30.704166663964145 ], [ -60.049074745474456, -30.699999997297844 ] ] ], [ [ [ -60.044569145564999, -30.708333330630438 ], [ -60.041975881135237, -30.704166663964145 ], [ -60.032283875343268, -30.704166663964145 ], [ -60.034876721166981, -30.708333330630438 ], [ -60.040064037429545, -30.716666663963036 ], [ -60.044910668365738, -30.716666663963036 ], [ -60.042316800865869, -30.712499997296735 ], [ -60.047162951588035, -30.712499997296735 ], [ -60.044569145564999, -30.708333330630438 ] ] ], [ [ [ -60.040064037429545, -30.716666663963036 ], [ -60.037470108496557, -30.712499997296735 ], [ -60.034876721166981, -30.708333330630438 ], [ -60.030030508967982, -30.708333330630438 ], [ -60.032623686950814, -30.712499997296735 ], [ -60.027777265405057, -30.712499997296735 ], [ -60.030370775557145, -30.716666663963036 ], [ -60.035217406493359, -30.716666663963036 ], [ -60.040064037429545, -30.716666663963036 ] ] ] ] } },
{ "type": "Feature", "properties": { "_uid_": 494694.0, "id": 18826901.0, "initialdat": "2016-07-13", "finaldate": "2016-07-13", "area_ha": 42.89323412874937 }, "geometry": { "type": "MultiPolygon", "coordinates": [ [ [ [ -60.375225803438717, -31.133333330592784 ], [ -60.365490219176287, -31.133333330592784 ], [ -60.368142138216264, -31.137499997259084 ], [ -60.377878150173089, -31.137499997259084 ], [ -60.375225803438717, -31.133333330592784 ] ] ] ] } },
{ "type": "Feature", "properties": { "_uid_": 494695.0, "id": 18826902.0, "initialdat": "2016-07-10", "finaldate": "2016-07-10", "area_ha": 42.893308135306832 }, "geometry": { "type": "MultiPolygon", "coordinates": [ [ [ [ -60.409740368515564, -31.141666663925378 ], [ -60.40000392877527, -31.141666663925378 ], [ -60.40265823613008, -31.145833330591678 ], [ -60.412395103742924, -31.145833330591678 ], [ -60.409740368515564, -31.141666663925378 ] ] ] ] } },
{ "type": "Feature", "properties": { "_uid_": 610948.0, "id": 18962420.0, "initialdat": "2016-08-02", "finaldate": "2016-08-02", "area_ha": 42.89314140521288 }, "geometry": { "type": "MultiPolygon", "coordinates": [ [ [ [ -60.401342132548294, -31.120833330593893 ], [ -60.396474981691505, -31.120833330593893 ], [ -60.399126954150887, -31.12499999726019 ], [ -60.403994318721296, -31.12499999726019 ], [ -60.401342132548294, -31.120833330593893 ] ] ], [ [ [ -60.399126954150887, -31.12499999726019 ], [ -60.394259589580457, -31.12499999726019 ], [ -60.396911900633569, -31.129166663926483 ], [ -60.401779478962126, -31.129166663926483 ], [ -60.399126954150887, -31.12499999726019 ] ] ] ] } },
{ "type": "Feature", "properties": { "_uid_": 677202.0, "id": 18962421.0, "initialdat": "2016-08-20", "finaldate": "2016-08-20", "area_ha": 42.896056775879863 }, "geometry": { "type": "MultiPolygon", "coordinates": [ [ [ [ -60.456281290135038, -31.449999997231394 ], [ -60.446512946090728, -31.449999997231394 ], [ -60.449201698063192, -31.454166663897688 ], [ -60.45897047661817, -31.454166663897688 ], [ -60.456281290135038, -31.449999997231394 ] ] ] ] } },
{ "type": "Feature", "properties": { "_uid_": 741211.0, "id": 19102142.0, "initialdat": "2016-09-08", "finaldate": "2016-09-08", "area_ha": 21.445692870485782 }, "geometry": { "type": "MultiPolygon", "coordinates": [ [ [ [ -60.121881630718377, -30.924999997277908 ], [ -60.117024474341669, -30.924999997277908 ], [ -60.119643827250762, -30.929166663944205 ], [ -60.124501195258141, -30.929166663944205 ], [ -60.121881630718377, -30.924999997277908 ] ] ] ] } },
{ "type": "Feature", "properties": { "_uid_": 885086.0, "id": 19207876.0, "initialdat": "2016-10-30", "finaldate": "2016-11-01", "area_ha": 150.10016145815851 }, "geometry": { "type": "MultiPolygon", "coordinates": [ [ [ [ -60.031457745236729, -30.287499997334397 ], [ -60.026632453238875, -30.287499997334397 ], [ -60.029182294809026, -30.291666664000694 ], [ -60.03400779177808, -30.291666664000694 ], [ -60.031457745236729, -30.287499997334397 ] ] ], [ [ [ -60.031457745236729, -30.287499997334397 ], [ -60.03628303723459, -30.287499997334397 ], [ -60.03373331984011, -30.283333330668096 ], [ -60.038558406909722, -30.283333330668096 ], [ -60.03346016436717, -30.274999997335502 ], [ -60.023810809683496, -30.274999997335502 ], [ -60.026359254284444, -30.279166664001803 ], [ -60.02153437210017, -30.279166664001803 ], [ -60.024083145700914, -30.283333330668096 ], [ -60.028908232770526, -30.283333330668096 ], [ -60.031457745236729, -30.287499997334397 ] ] ] ] } },
{ "type": "Feature", "properties": { "_uid_": 885087.0, "id": 19207879.0, "initialdat": "2016-10-30", "finaldate": "2016-10-31", "area_ha": 85.772557826483251 }, "geometry": { "type": "MultiPolygon", "coordinates": [ [ [ [ -60.056700012627907, -30.320833330664772 ], [ -60.051873079657916, -30.320833330664772 ], [ -60.054427402224071, -30.324999997331073 ], [ -60.064081678793862, -30.324999997331073 ], [ -60.061526945597919, -30.320833330664772 ], [ -60.066353878567909, -30.320833330664772 ], [ -60.063799475022293, -30.316666663998479 ], [ -60.058972747324191, -30.316666663998479 ], [ -60.054146019626081, -30.316666663998479 ], [ -60.056700012627907, -30.320833330664772 ] ] ] ] } },
{ "type": "Feature", "properties": { "_uid_": 885089.0, "id": 19207881.0, "initialdat": "2016-10-29", "finaldate": "2016-11-03", "area_ha": 150.10238566591741 }, "geometry": { "type": "MultiPolygon", "coordinates": [ [ [ [ -60.026026362960863, -30.341666663996264 ], [ -60.028581716898202, -30.345833330662565 ], [ -60.038238047907143, -30.345833330662565 ], [ -60.035682282909875, -30.341666663996264 ], [ -60.040510242884395, -30.341666663996264 ], [ -60.035399907027831, -30.333333330663667 ], [ -60.025744808940466, -30.333333330663667 ], [ -60.028299298479752, -30.337499997329964 ], [ -60.023471543992152, -30.337499997329964 ], [ -60.026026362960863, -30.341666663996264 ] ] ] ] } },
{ "type": "Feature", "properties": { "_uid_": 885090.0, "id": 19207882.0, "initialdat": "2016-10-28", "finaldate": "2016-10-31", "area_ha": 85.772428366613383 }, "geometry": { "type": "MultiPolygon", "coordinates": [ [ [ [ -59.996779514678408, -30.333333330663667 ], [ -59.991951965634719, -30.333333330663667 ], [ -59.994505017066651, -30.337499997329964 ], [ -59.999332771554236, -30.337499997329964 ], [ -59.996779514678408, -30.333333330663667 ] ] ], [ [ [ -59.994505017066651, -30.337499997329964 ], [ -59.989677262579065, -30.337499997329964 ], [ -59.984849508091486, -30.337499997329964 ], [ -59.987402683164767, -30.341666663996264 ], [ -59.989956392862467, -30.345833330662565 ], [ -59.994784558366938, -30.345833330662565 ], [ -59.992230643139273, -30.341666663996264 ], [ -59.997058603113778, -30.341666663996264 ], [ -59.994505017066651, -30.337499997329964 ] ] ] ] } },
{ "type": "Feature", "properties": { "_uid_": 885093.0, "id": 19207885.0, "initialdat": "2016-10-30", "finaldate": "2016-10-30", "area_ha": 42.886433054792882 }, "geometry": { "type": "MultiPolygon", "coordinates": [ [ [ [ -60.053295448405891, -30.362499997327749 ], [ -60.043637472296439, -30.362499997327749 ], [ -60.046195708253194, -30.366666663994049 ], [ -60.055854095853064, -30.366666663994049 ], [ -60.053295448405891, -30.362499997327749 ] ] ] ] } },
{ "type": "Feature", "properties": { "_uid_": 966335.0, "id": 19309123.0, "initialdat": "2016-11-18", "finaldate": "2016-11-18", "area_ha": 21.446802236270905 }, "geometry": { "type": "MultiPolygon", "coordinates": [ [ [ [ -60.367684612062035, -31.17499999725576 ], [ -60.362814679453763, -31.17499999725576 ], [ -60.365470840260343, -31.179166663922061 ], [ -60.370340987161562, -31.179166663922061 ], [ -60.367684612062035, -31.17499999725576 ] ] ] ] } }
]
}
