{
"type": "FeatureCollection",
"name": "2017",
"crs": { "type": "name", "properties": { "name": "urn:ogc:def:crs:OGC:1.3:CRS84" } },
"features": [
{ "type": "Feature", "properties": { "_uid_": 10932.0, "id": 19951242.0, "initialdat": "2017-07-18", "finaldate": "2017-07-18", "area_ha": 21.445342899119854 }, "geometry": { "type": "MultiPolygon", "coordinates": [ [ [ [ -60.013975840713044, -30.845833330618259 ], [ -60.009122696944566, -30.845833330618259 ], [ -60.011729160651939, -30.849999997284552 ], [ -60.016582515214075, -30.849999997284552 ], [ -60.013975840713044, -30.845833330618259 ] ] ] ] } },
{ "type": "Feature", "properties": { "_uid_": 303324.0, "id": 20322328.0, "initialdat": "2017-10-12", "finaldate": "2017-10-12", "area_ha": 21.44341722444296 }, "geometry": { "type": "MultiPolygon", "coordinates": [ [ [ [ -60.091132555220106, -30.408333330657019 ], [ -60.086301301597693, -30.408333330657019 ], [ -60.088866052899505, -30.412499997323319 ], [ -60.093697512741358, -30.412499997323319 ], [ -60.091132555220106, -30.408333330657019 ] ] ] ] } },
{ "type": "Feature", "properties": { "_uid_": 468590.0, "id": 20508056.0, "initialdat": "2017-12-01", "finaldate": "2017-12-05", "area_ha": 85.783888613104821 }, "geometry": { "type": "MultiPolygon", "coordinates": [ [ [ [ -60.357303261916691, -31.020833330602752 ], [ -60.362165296978887, -31.020833330602752 ], [ -60.359525825015446, -31.016666663936455 ], [ -60.364387647474175, -31.016666663936455 ], [ -60.361748512958471, -31.012499997270154 ], [ -60.352025293159308, -31.012499997270154 ], [ -60.354664002556703, -31.016666663936455 ], [ -60.349802180097974, -31.016666663936455 ], [ -60.352441226854495, -31.020833330602752 ], [ -60.357303261916691, -31.020833330602752 ] ] ] ] } },
{ "type": "Feature", "properties": { "_uid_": 468591.0, "id": 20508057.0, "initialdat": "2017-12-03", "finaldate": "2017-12-03", "area_ha": 42.892346149873731 }, "geometry": { "type": "MultiPolygon", "coordinates": [ [ [ [ -60.345773648219186, -31.033333330601646 ], [ -60.336048301942242, -31.033333330601646 ], [ -60.33868848546912, -31.037499997267943 ], [ -60.348414257307546, -31.037499997267943 ], [ -60.345773648219186, -31.033333330601646 ] ] ] ] } },
{ "type": "Feature", "properties": { "_uid_": 519515.0, "id": 20508052.0, "initialdat": "2017-12-23", "finaldate": "2017-12-27", "area_ha": 42.891054120635985 }, "geometry": { "type": "MultiPolygon", "coordinates": [ [ [ [ -60.064343340297391, -30.887499997281235 ], [ -60.05948808661212, -30.887499997281235 ], [ -60.054632832926863, -30.887499997281235 ], [ -60.057245584302905, -30.891666663947529 ], [ -60.062101049222001, -30.891666663947529 ], [ -60.066956514141118, -30.891666663947529 ], [ -60.064343340297391, -30.887499997281235 ] ] ] ] } },
{ "type": "Feature", "properties": { "_uid_": 749818.0, "id": 19651105.0, "initialdat": "2017-03-24", "finaldate": "2017-03-24", "area_ha": 85.778466090881821 }, "geometry": { "type": "MultiPolygon", "coordinates": [ [ [ [ -60.181459598403634, -30.67916666396636 ], [ -60.171770102412864, -30.67916666396636 ], [ -60.174366390559008, -30.68333333063266 ], [ -60.169521433522718, -30.68333333063266 ], [ -60.172118054902356, -30.68749999729895 ], [ -60.181808387144081, -30.68749999729895 ], [ -60.179211347595299, -30.68333333063266 ], [ -60.184056304631596, -30.68333333063266 ], [ -60.181459598403634, -30.67916666396636 ] ] ] ] } },
{ "type": "Feature", "properties": { "_uid_": 978530.0, "id": 19951243.0, "initialdat": "2017-07-09", "finaldate": "2017-07-09", "area_ha": 21.445361274874209 }, "geometry": { "type": "MultiPolygon", "coordinates": [ [ [ [ -60.011729160651939, -30.849999997284552 ], [ -60.006875806089809, -30.849999997284552 ], [ -60.009482602789454, -30.854166663950853 ], [ -60.014336168189239, -30.854166663950853 ], [ -60.011729160651939, -30.849999997284552 ] ] ] ] } },
{ "type": "Feature", "properties": { "_uid_": 978531.0, "id": 19951244.0, "initialdat": "2017-07-04", "finaldate": "2017-07-04", "area_ha": 21.445361183524131 }, "geometry": { "type": "MultiPolygon", "coordinates": [ [ [ [ -60.006875806089809, -30.849999997284552 ], [ -60.002022451527665, -30.849999997284552 ], [ -60.004629037389677, -30.854166663950853 ], [ -60.009482602789454, -30.854166663950853 ], [ -60.006875806089809, -30.849999997284552 ] ] ] ] } }
]
}
