{
"type": "FeatureCollection",
"name": "2018",
"crs": { "type": "name", "properties": { "name": "urn:ogc:def:crs:OGC:1.3:CRS84" } },
"features": [
{ "type": "Feature", "properties": { "_uid_": 72243.0, "id": 20618652.0, "initialdat": "2018-01-04", "finaldate": "2018-01-04", "area_ha": 21.446839285421373 }, "geometry": { "type": "MultiPolygon", "coordinates": [ [ [ [ -60.358386831629929, -31.183333330588354 ], [ -60.353516470391185, -31.183333330588354 ], [ -60.356173094233341, -31.187499997254655 ], [ -60.36104366985424, -31.187499997254655 ], [ -60.358386831629929, -31.183333330588354 ] ] ] ] } },
{ "type": "Feature", "properties": { "_uid_": 72275.0, "id": 20618661.0, "initialdat": "2018-01-08", "finaldate": "2018-01-08", "area_ha": 21.447879306995869 }, "geometry": { "type": "MultiPolygon", "coordinates": [ [ [ [ -60.405493296801524, -31.416666663901015 ], [ -60.40061086119718, -31.416666663901015 ], [ -60.403294061012062, -31.420833330567309 ], [ -60.408176713510734, -31.420833330567309 ], [ -60.405493296801524, -31.416666663901015 ] ] ] ] } },
{ "type": "Feature", "properties": { "_uid_": 72300.0, "id": 20618653.0, "initialdat": "2018-01-03", "finaldate": "2018-01-06", "area_ha": 42.893734116423133 }, "geometry": { "type": "MultiPolygon", "coordinates": [ [ [ [ -60.341561367370595, -31.187499997254655 ], [ -60.336690791749675, -31.187499997254655 ], [ -60.339347110993472, -31.191666663920952 ], [ -60.344217901041191, -31.191666663920952 ], [ -60.341561367370595, -31.187499997254655 ] ] ], [ [ [ -60.339347110993472, -31.191666663920952 ], [ -60.334476320945754, -31.191666663920952 ], [ -60.337132978749544, -31.195833330587245 ], [ -60.342003983268704, -31.195833330587245 ], [ -60.339347110993472, -31.191666663920952 ] ] ] ] } },
{ "type": "Feature", "properties": { "_uid_": 72301.0, "id": 20618654.0, "initialdat": "2018-01-01", "finaldate": "2018-01-01", "area_ha": 21.446895150542261 }, "geometry": { "type": "MultiPolygon", "coordinates": [ [ [ [ -60.356616996826197, -31.195833330587245 ], [ -60.351745992307038, -31.195833330587245 ], [ -60.354403846747068, -31.199999997253546 ], [ -60.359275065782327, -31.199999997253546 ], [ -60.356616996826197, -31.195833330587245 ] ] ] ] } },
{ "type": "Feature", "properties": { "_uid_": 72325.0, "id": 20618657.0, "initialdat": "2018-01-08", "finaldate": "2018-01-08", "area_ha": 21.447210285782813 }, "geometry": { "type": "MultiPolygon", "coordinates": [ [ [ [ -60.387255523903661, -31.266666663914307 ], [ -60.382380866531683, -31.266666663914307 ], [ -60.385047495425148, -31.270833330580601 ], [ -60.389922368073542, -31.270833330580601 ], [ -60.387255523903661, -31.266666663914307 ] ] ] ] } },
{ "type": "Feature", "properties": { "_uid_": 72342.0, "id": 20618580.0, "initialdat": "2018-01-03", "finaldate": "2018-01-06", "area_ha": 64.33286802660227 }, "geometry": { "type": "MultiPolygon", "coordinates": [ [ [ [ -59.994422737643248, -30.604166663973004 ], [ -59.989581744926575, -30.604166663973004 ], [ -59.992162456840987, -30.608333330639304 ], [ -59.997003657813949, -30.608333330639304 ], [ -59.994422737643248, -30.604166663973004 ] ] ], [ [ [ -59.992162456840987, -30.608333330639304 ], [ -59.987321255868018, -30.608333330639304 ], [ -59.982480054895056, -30.608333330639304 ], [ -59.985060889556074, -30.612499997305598 ], [ -59.989902298828838, -30.612499997305598 ], [ -59.994743708101616, -30.612499997305598 ], [ -59.992162456840987, -30.608333330639304 ] ] ] ] } },
{ "type": "Feature", "properties": { "_uid_": 72343.0, "id": 20618582.0, "initialdat": "2018-01-03", "finaldate": "2018-01-03", "area_ha": 21.444313826179503 }, "geometry": { "type": "MultiPolygon", "coordinates": [ [ [ [ -60.004426526647187, -30.612499997305598 ], [ -59.999585117374394, -30.612499997305598 ], [ -60.002167116421546, -30.616666663971898 ], [ -60.007008734037676, -30.616666663971898 ], [ -60.004426526647187, -30.612499997305598 ] ] ] ] } },
{ "type": "Feature", "properties": { "_uid_": 72344.0, "id": 20618583.0, "initialdat": "2018-01-03", "finaldate": "2018-01-06", "area_ha": 64.333198135781288 }, "geometry": { "type": "MultiPolygon", "coordinates": [ [ [ [ -60.019927867338559, -30.637499997303383 ], [ -60.017342960841773, -30.633333330637083 ], [ -60.012500509416803, -30.633333330637083 ], [ -60.01508520735247, -30.637499997303383 ], [ -60.019927867338559, -30.637499997303383 ] ] ], [ [ [ -60.019927867338559, -30.637499997303383 ], [ -60.024770527324634, -30.637499997303383 ], [ -60.019600837267795, -30.629166663970789 ], [ -60.014758594360387, -30.629166663970789 ], [ -60.019927867338559, -30.637499997303383 ] ] ] ] } },
{ "type": "Feature", "properties": { "_uid_": 72361.0, "id": 20618615.0, "initialdat": "2018-01-13", "finaldate": "2018-01-14", "area_ha": 42.891017074382304 }, "geometry": { "type": "MultiPolygon", "coordinates": [ [ [ [ -60.076295838921524, -30.883333330614935 ], [ -60.071440796426046, -30.883333330614935 ], [ -60.066585753930553, -30.883333330614935 ], [ -60.069198593982655, -30.887499997281235 ], [ -60.074053847667933, -30.887499997281235 ], [ -60.078909101353197, -30.887499997281235 ], [ -60.076295838921524, -30.883333330614935 ] ] ] ] } },
{ "type": "Feature", "properties": { "_uid_": 72362.0, "id": 20618617.0, "initialdat": "2018-01-10", "finaldate": "2018-01-13", "area_ha": 128.67358630255461 }, "geometry": { "type": "MultiPolygon", "coordinates": [ [ [ [ -60.271667073112688, -30.90833333061272 ], [ -60.274291431514797, -30.912499997279014 ], [ -60.279147953264172, -30.912499997279014 ], [ -60.276523383407849, -30.90833333061272 ], [ -60.286236003998162, -30.90833333061272 ], [ -60.283611558604974, -30.904166663946423 ], [ -60.280987660484151, -30.89999999728013 ], [ -60.271275885446187, -30.89999999728013 ], [ -60.273899360834925, -30.904166663946423 ], [ -60.269043261949896, -30.904166663946423 ], [ -60.271667073112688, -30.90833333061272 ] ] ] ] } },
{ "type": "Feature", "properties": { "_uid_": 72365.0, "id": 20618622.0, "initialdat": "2018-01-01", "finaldate": "2018-01-06", "area_ha": 107.22816173404455 }, "geometry": { "type": "MultiPolygon", "coordinates": [ [ [ [ -60.30462245371659, -30.937499997276799 ], [ -60.307251280863881, -30.941666663943099 ], [ -60.312109284028146, -30.941666663943099 ], [ -60.309480245117747, -30.937499997276799 ], [ -60.31433803651889, -30.937499997276799 ], [ -60.311709334000852, -30.933333330610505 ], [ -60.309081179538758, -30.929166663944205 ], [ -60.299366443523986, -30.929166663944205 ], [ -60.301994174636448, -30.933333330610505 ], [ -60.30462245371659, -30.937499997276799 ] ] ] ] } },
{ "type": "Feature", "properties": { "_uid_": 72366.0, "id": 20618624.0, "initialdat": "2018-01-04", "finaldate": "2018-01-04", "area_ha": 42.891496649503701 }, "geometry": { "type": "MultiPolygon", "coordinates": [ [ [ [ -60.231755582699357, -30.937499997276799 ], [ -60.222039999897056, -30.937499997276799 ], [ -60.224665227071611, -30.941666663943099 ], [ -60.234381233400121, -30.941666663943099 ], [ -60.231755582699357, -30.937499997276799 ] ] ] ] } },
{ "type": "Feature", "properties": { "_uid_": 72368.0, "id": 20618626.0, "initialdat": "2018-01-03", "finaldate": "2018-01-03", "area_ha": 21.445766707360743 }, "geometry": { "type": "MultiPolygon", "coordinates": [ [ [ [ -60.244097239728632, -30.941666663943099 ], [ -60.239239236564366, -30.941666663943099 ], [ -60.241865646576656, -30.9458333306094 ], [ -60.246723861548169, -30.9458333306094 ], [ -60.244097239728632, -30.941666663943099 ] ] ] ] } },
{ "type": "Feature", "properties": { "_uid_": 72369.0, "id": 20618627.0, "initialdat": "2018-01-09", "finaldate": "2018-01-10", "area_ha": 171.56410126986503 }, "geometry": { "type": "MultiPolygon", "coordinates": [ [ [ [ -60.317369006580762, -30.949999997275697 ], [ -60.31251057975782, -30.949999997275697 ], [ -60.315141051703556, -30.95416666394199 ], [ -60.310282412985025, -30.95416666394199 ], [ -60.318176484060309, -30.966666663940885 ], [ -60.323035758730754, -30.966666663940885 ], [ -60.320403641090394, -30.962499997274591 ], [ -60.325262703732676, -30.962499997274591 ], [ -60.322630922772859, -30.958333330608291 ], [ -60.327489773431161, -30.958333330608291 ], [ -60.324858329140618, -30.95416666394199 ], [ -60.322227433403697, -30.949999997275697 ], [ -60.317369006580762, -30.949999997275697 ] ] ] ] } },
{ "type": "Feature", "properties": { "_uid_": 72370.0, "id": 20618628.0, "initialdat": "2018-01-03", "finaldate": "2018-01-08", "area_ha": 64.337466272842889 }, "geometry": { "type": "MultiPolygon", "coordinates": [ [ [ [ -60.251978748362646, -30.95416666394199 ], [ -60.247120109644108, -30.95416666394199 ], [ -60.242261470925577, -30.95416666394199 ], [ -60.237402832207053, -30.95416666394199 ], [ -60.240030461581583, -30.958333330608291 ], [ -60.244889312239884, -30.958333330608291 ], [ -60.2497481628982, -30.958333330608291 ], [ -60.254607013556523, -30.958333330608291 ], [ -60.251978748362646, -30.95416666394199 ] ] ] ] } },
{ "type": "Feature", "properties": { "_uid_": 72371.0, "id": 20618629.0, "initialdat": "2018-01-04", "finaldate": "2018-01-06", "area_ha": 42.891736557483675 }, "geometry": { "type": "MultiPolygon", "coordinates": [ [ [ [ -60.17463176182207, -30.962499997274591 ], [ -60.169772699179781, -30.962499997274591 ], [ -60.172398243947022, -30.966666663940885 ], [ -60.177257518617473, -30.966666663940885 ], [ -60.17463176182207, -30.962499997274591 ] ] ], [ [ [ -60.172398243947022, -30.966666663940885 ], [ -60.167538969276578, -30.966666663940885 ], [ -60.170164849365264, -30.970833330607185 ], [ -60.175024336108081, -30.970833330607185 ], [ -60.172398243947022, -30.966666663940885 ] ] ] ] } },
{ "type": "Feature", "properties": { "_uid_": 72372.0, "id": 20618632.0, "initialdat": "2018-01-08", "finaldate": "2018-01-08", "area_ha": 42.891847319602967 }, "geometry": { "type": "MultiPolygon", "coordinates": [ [ [ [ -60.182510674621803, -30.974999997273482 ], [ -60.177650975762404, -30.974999997273482 ], [ -60.180278163009461, -30.979166663939775 ], [ -60.185138074029673, -30.979166663939775 ], [ -60.182510674621803, -30.974999997273482 ] ] ], [ [ [ -60.180278163009461, -30.979166663939775 ], [ -60.17541825198925, -30.979166663939775 ], [ -60.178045774723529, -30.983333330606076 ], [ -60.182905897948771, -30.983333330606076 ], [ -60.180278163009461, -30.979166663939775 ] ] ] ] } },
{ "type": "Feature", "properties": { "_uid_": 72373.0, "id": 20618633.0, "initialdat": "2018-01-01", "finaldate": "2018-01-03", "area_ha": 42.891921116757395 }, "geometry": { "type": "MultiPolygon", "coordinates": [ [ [ [ -60.299548855354445, -30.983333330606076 ], [ -60.294688732129202, -30.983333330606076 ], [ -60.297321896593566, -30.987499997272369 ], [ -60.30218223206807, -30.987499997272369 ], [ -60.299548855354445, -30.983333330606076 ] ] ], [ [ [ -60.297321896593566, -30.987499997272369 ], [ -60.292461561119055, -30.987499997272369 ], [ -60.295095062198911, -30.99166666393867 ], [ -60.299955609966929, -30.99166666393867 ], [ -60.297321896593566, -30.987499997272369 ] ] ] ] } },
{ "type": "Feature", "properties": { "_uid_": 72374.0, "id": 20618635.0, "initialdat": "2018-01-11", "finaldate": "2018-01-11", "area_ha": 21.446043699383736 }, "geometry": { "type": "MultiPolygon", "coordinates": [ [ [ [ -60.28841530488269, -31.004166663937561 ], [ -60.283554119968564, -31.004166663937561 ], [ -60.286188967623296, -31.008333330603861 ], [ -60.291050365008005, -31.008333330603861 ], [ -60.28841530488269, -31.004166663937561 ] ] ] ] } },
{ "type": "Feature", "properties": { "_uid_": 72375.0, "id": 20618636.0, "initialdat": "2018-01-01", "finaldate": "2018-01-03", "area_ha": 42.892087377691269 }, "geometry": { "type": "MultiPolygon", "coordinates": [ [ [ [ -60.268970565226169, -31.004166663937561 ], [ -60.264109380312043, -31.004166663937561 ], [ -60.259248195397923, -31.004166663937561 ], [ -60.261881980699762, -31.008333330603861 ], [ -60.266743378084456, -31.008333330603861 ], [ -60.271604775469164, -31.008333330603861 ], [ -60.268970565226169, -31.004166663937561 ] ] ] ] } },
{ "type": "Feature", "properties": { "_uid_": 72380.0, "id": 20618662.0, "initialdat": "2018-01-01", "finaldate": "2018-01-06", "area_ha": 107.239030474329 }, "geometry": { "type": "MultiPolygon", "coordinates": [ [ [ [ -60.405977818702205, -31.424999997233609 ], [ -60.401094949264099, -31.424999997233609 ], [ -60.398411408513383, -31.420833330567309 ], [ -60.388646103516038, -31.420833330567309 ], [ -60.391329210387887, -31.424999997233609 ], [ -60.396212079826, -31.424999997233609 ], [ -60.398895961525092, -31.42916666389991 ], [ -60.403779047947729, -31.42916666389991 ], [ -60.408662134370381, -31.42916666389991 ], [ -60.405977818702205, -31.424999997233609 ] ] ], [ [ [ -60.398411408513383, -31.420833330567309 ], [ -60.403294061012062, -31.420833330567309 ], [ -60.40061086119718, -31.416666663901015 ], [ -60.395728425592836, -31.416666663901015 ], [ -60.398411408513383, -31.420833330567309 ] ] ] ] } },
{ "type": "Feature", "properties": { "_uid_": 72381.0, "id": 20618663.0, "initialdat": "2018-01-08", "finaldate": "2018-01-08", "area_ha": 21.447879505109785 }, "geometry": { "type": "MultiPolygon", "coordinates": [ [ [ [ -60.395728425592836, -31.416666663901015 ], [ -60.390845989988499, -31.416666663901015 ], [ -60.39352875601471, -31.420833330567309 ], [ -60.398411408513383, -31.420833330567309 ], [ -60.395728425592836, -31.416666663901015 ] ] ] ] } },
{ "type": "Feature", "properties": { "_uid_": 72382.0, "id": 20618664.0, "initialdat": "2018-01-04", "finaldate": "2018-01-06", "area_ha": 64.343712783443934 }, "geometry": { "type": "MultiPolygon", "coordinates": [ [ [ [ -60.430392165892762, -31.424999997233609 ], [ -60.43307756648359, -31.42916666389991 ], [ -60.437960652906227, -31.42916666389991 ], [ -60.435275035330875, -31.424999997233609 ], [ -60.440157904768974, -31.424999997233609 ], [ -60.437472628502817, -31.420833330567309 ], [ -60.432589976004145, -31.420833330567309 ], [ -60.427707323505459, -31.420833330567309 ], [ -60.430392165892762, -31.424999997233609 ] ] ] ] } },
{ "type": "Feature", "properties": { "_uid_": 111160.0, "id": 20618579.0, "initialdat": "2018-01-24", "finaldate": "2018-01-29", "area_ha": 171.55248479647636 }, "geometry": { "type": "MultiPolygon", "coordinates": [ [ [ [ -60.078001650179715, -30.574999997308922 ], [ -60.083165218089896, -30.583333330641519 ], [ -60.088005170177716, -30.583333330641519 ], [ -60.092845122265537, -30.583333330641519 ], [ -60.090262652507377, -30.579166663975219 ], [ -60.087680722461066, -30.574999997308922 ], [ -60.082841186320394, -30.574999997308922 ], [ -60.080260003797427, -30.570833330642628 ], [ -60.085099332029721, -30.570833330642628 ], [ -60.082518481116516, -30.566666663976328 ], [ -60.077679360749158, -30.566666663976328 ], [ -60.072840240381765, -30.566666663976328 ], [ -60.075420675565127, -30.570833330642628 ], [ -60.07058134733284, -30.570833330642628 ], [ -60.073162114039043, -30.574999997308922 ], [ -60.078001650179715, -30.574999997308922 ] ] ] ] } },
{ "type": "Feature", "properties": { "_uid_": 111163.0, "id": 20618585.0, "initialdat": "2018-01-31", "finaldate": "2018-02-05", "area_ha": 386.00197976503364 }, "geometry": { "type": "MultiPolygon", "coordinates": [ [ [ [ -60.039298507282879, -30.637499997303383 ], [ -60.041884788310938, -30.64166666396968 ], [ -60.044471609722983, -30.64583333063598 ], [ -60.059000841440174, -30.64583333063598 ], [ -60.056413934565626, -30.64166666396968 ], [ -60.061256262674043, -30.64166666396968 ], [ -60.056082572241472, -30.633333330637083 ], [ -60.051240120816523, -30.633333330637083 ], [ -60.048654294712286, -30.629166663970789 ], [ -60.046069008831275, -30.624999997304489 ], [ -60.041226974397844, -30.624999997304489 ], [ -60.043812051804863, -30.629166663970789 ], [ -60.03412756599004, -30.629166663970789 ], [ -60.029285323082618, -30.629166663970789 ], [ -60.03445584729679, -30.637499997303383 ], [ -60.039298507282879, -30.637499997303383 ] ] ], [ [ [ -60.03445584729679, -30.637499997303383 ], [ -60.029613187310716, -30.637499997303383 ], [ -60.032199051129375, -30.64166666396968 ], [ -60.037041919720153, -30.64166666396968 ], [ -60.03445584729679, -30.637499997303383 ] ] ] ] } },
{ "type": "Feature", "properties": { "_uid_": 111176.0, "id": 20618616.0, "initialdat": "2018-01-17", "finaldate": "2018-01-18", "area_ha": 42.891127784109123 }, "geometry": { "type": "MultiPolygon", "coordinates": [ [ [ [ -60.273508633339475, -30.895833330613829 ], [ -60.268652957142457, -30.895833330613829 ], [ -60.263797280945447, -30.895833330613829 ], [ -60.266419997927215, -30.89999999728013 ], [ -60.271275885446187, -30.89999999728013 ], [ -60.276131772965179, -30.89999999728013 ], [ -60.273508633339475, -30.895833330613829 ] ] ] ] } },
{ "type": "Feature", "properties": { "_uid_": 111177.0, "id": 20618618.0, "initialdat": "2018-01-22", "finaldate": "2018-01-28", "area_ha": 536.14307963145973 }, "geometry": { "type": "MultiPolygon", "coordinates": [ [ [ [ -60.162591431278862, -30.912499997279014 ], [ -60.167832060260494, -30.920833330611615 ], [ -60.172689005050636, -30.920833330611615 ], [ -60.177545949840798, -30.920833330611615 ], [ -60.187259839421095, -30.920833330611615 ], [ -60.184638405548881, -30.916666663945314 ], [ -60.194351872044301, -30.916666663945314 ], [ -60.189110344617703, -30.90833333061272 ], [ -60.193966108390086, -30.90833333061272 ], [ -60.191345679789428, -30.904166663946423 ], [ -60.1864895809044, -30.904166663946423 ], [ -60.183869910104541, -30.89999999728013 ], [ -60.179014022585555, -30.89999999728013 ], [ -60.181633482019365, -30.904166663946423 ], [ -60.171921284249315, -30.904166663946423 ], [ -60.174540867209437, -30.90833333061272 ], [ -60.164828246619123, -30.90833333061272 ], [ -60.159971936323963, -30.90833333061272 ], [ -60.150259315733621, -30.90833333061272 ], [ -60.152878387780078, -30.912499997279014 ], [ -60.155498006062565, -30.916666663945314 ], [ -60.165211472558013, -30.916666663945314 ], [ -60.162591431278862, -30.912499997279014 ] ] ] ] } },
{ "type": "Feature", "properties": { "_uid_": 111180.0, "id": 20618630.0, "initialdat": "2018-01-31", "finaldate": "2018-02-07", "area_ha": 1072.2942941488504 }, "geometry": { "type": "MultiPolygon", "coordinates": [ [ [ [ -60.216528566637578, -30.974999997273482 ], [ -60.221388265496977, -30.974999997273482 ], [ -60.2187597167934, -30.970833330607185 ], [ -60.223619203536202, -30.970833330607185 ], [ -60.228478690279033, -30.970833330607185 ], [ -60.22585026532191, -30.966666663940885 ], [ -60.223222388244849, -30.962499997274591 ], [ -60.228081450887125, -30.962499997274591 ], [ -60.225453909606649, -30.958333330608291 ], [ -60.22282691605146, -30.95416666394199 ], [ -60.220200470122087, -30.949999997275697 ], [ -60.215342043299152, -30.949999997275697 ], [ -60.21048361647621, -30.949999997275697 ], [ -60.205626284441045, -30.949999997275697 ], [ -60.203000747845707, -30.9458333306094 ], [ -60.207858141776072, -30.9458333306094 ], [ -60.205233214414612, -30.941666663943099 ], [ -60.200375211250368, -30.941666663943099 ], [ -60.190659204921857, -30.941666663943099 ], [ -60.195908336007406, -30.949999997275697 ], [ -60.193283496861561, -30.9458333306094 ], [ -60.183567066918535, -30.9458333306094 ], [ -60.186191482361551, -30.949999997275697 ], [ -60.181333055538602, -30.949999997275697 ], [ -60.183957806303198, -30.95416666394199 ], [ -60.188816445021743, -30.95416666394199 ], [ -60.191441954998481, -30.958333330608291 ], [ -60.18658310434018, -30.958333330608291 ], [ -60.191835342628806, -30.966666663940885 ], [ -60.194462283079332, -30.970833330607185 ], [ -60.199321769822149, -30.970833330607185 ], [ -60.201949470059397, -30.974999997273482 ], [ -60.206809168918788, -30.974999997273482 ], [ -60.216528566637578, -30.974999997273482 ] ] ], [ [ [ -60.18658310434018, -30.958333330608291 ], [ -60.18172425368185, -30.958333330608291 ], [ -60.184349887106613, -30.962499997274591 ], [ -60.186976067958348, -30.966666663940885 ], [ -60.191835342628806, -30.966666663940885 ], [ -60.189208949748902, -30.962499997274591 ], [ -60.18658310434018, -30.958333330608291 ] ] ] ] } },
{ "type": "Feature", "properties": { "_uid_": 111193.0, "id": 20618650.0, "initialdat": "2018-01-24", "finaldate": "2018-01-31", "area_ha": 85.78676445388794 }, "geometry": { "type": "MultiPolygon", "coordinates": [ [ [ [ -60.354411029303378, -31.154166663924268 ], [ -60.357064640493327, -31.158333330590569 ], [ -60.361933716375916, -31.158333330590569 ], [ -60.359279891116017, -31.154166663924268 ], [ -60.364148752928649, -31.154166663924268 ], [ -60.361495266166891, -31.149999997257975 ], [ -60.358842331872282, -31.145833330591678 ], [ -60.35397389806586, -31.145833330591678 ], [ -60.356626618379643, -31.149999997257975 ], [ -60.351757970592395, -31.149999997257975 ], [ -60.354411029303378, -31.154166663924268 ] ] ] ] } },
{ "type": "Feature", "properties": { "_uid_": 111196.0, "id": 20618656.0, "initialdat": "2018-01-21", "finaldate": "2018-01-21", "area_ha": 21.447173126888273 }, "geometry": { "type": "MultiPolygon", "coordinates": [ [ [ [ -60.352678138312427, -31.25833333058171 ], [ -60.347803911358916, -31.25833333058171 ], [ -60.350468139608388, -31.262499997248007 ], [ -60.355342581748744, -31.262499997248007 ], [ -60.352678138312427, -31.25833333058171 ] ] ] ] } },
{ "type": "Feature", "properties": { "_uid_": 111198.0, "id": 20618665.0, "initialdat": "2018-01-18", "finaldate": "2018-01-19", "area_ha": 42.895796166062354 }, "geometry": { "type": "MultiPolygon", "coordinates": [ [ [ [ -60.408176713510734, -31.420833330567309 ], [ -60.403294061012062, -31.420833330567309 ], [ -60.398411408513383, -31.420833330567309 ], [ -60.401094949264099, -31.424999997233609 ], [ -60.405977818702205, -31.424999997233609 ], [ -60.410860688140318, -31.424999997233609 ], [ -60.408176713510734, -31.420833330567309 ] ] ] ] } },
{ "type": "Feature", "properties": { "_uid_": 147067.0, "id": 20706834.0, "initialdat": "2018-02-02", "finaldate": "2018-02-07", "area_ha": 407.43131399582626 }, "geometry": { "type": "MultiPolygon", "coordinates": [ [ [ [ -60.052009833922952, -30.46249999731889 ], [ -60.047176164714166, -30.46249999731889 ], [ -60.044607798314829, -30.458333330652589 ], [ -60.039774067208839, -30.458333330652589 ], [ -60.044910386488532, -30.466666663985187 ], [ -60.049744531113497, -30.466666663985187 ], [ -60.054578675738448, -30.466666663985187 ], [ -60.052009833922952, -30.46249999731889 ] ] ], [ [ [ -60.044910386488532, -30.466666663985187 ], [ -60.042341958235262, -30.46249999731889 ], [ -60.037508020391414, -30.46249999731889 ], [ -60.03267408254758, -30.46249999731889 ], [ -60.035242097238608, -30.466666663985187 ], [ -60.030407952613658, -30.466666663985187 ], [ -60.032976297716715, -30.47083333065148 ], [ -60.023307594818043, -30.47083333065148 ], [ -60.025876063475131, -30.474999997317781 ], [ -60.021041505158152, -30.474999997317781 ], [ -60.026179640600006, -30.483333330650375 ], [ -60.031014612782094, -30.483333330650375 ], [ -60.028445338128613, -30.479166663984081 ], [ -60.042949365114779, -30.479166663984081 ], [ -60.047784130342677, -30.479166663984081 ], [ -60.04521429674304, -30.474999997317781 ], [ -60.05004885506002, -30.474999997317781 ], [ -60.047479352064734, -30.47083333065148 ], [ -60.044910386488532, -30.466666663985187 ] ] ] ] } },
{ "type": "Feature", "properties": { "_uid_": 147068.0, "id": 20706838.0, "initialdat": "2018-02-10", "finaldate": "2018-02-10", "area_ha": 42.887894842422007 }, "geometry": { "type": "MultiPolygon", "coordinates": [ [ [ [ -60.020617072951637, -30.529166663979652 ], [ -60.010942569877315, -30.529166663979652 ], [ -60.013516494738489, -30.533333330645945 ], [ -60.023191412761207, -30.533333330645945 ], [ -60.020617072951637, -30.529166663979652 ] ] ] ] } },
{ "type": "Feature", "properties": { "_uid_": 147069.0, "id": 20706839.0, "initialdat": "2018-02-10", "finaldate": "2018-02-10", "area_ha": 42.887986308741567 }, "geometry": { "type": "MultiPolygon", "coordinates": [ [ [ [ -60.016090957813716, -30.537499997312242 ], [ -60.011253291284781, -30.537499997312242 ], [ -60.013828085109559, -30.541666663978543 ], [ -60.01866595919946, -30.541666663978543 ], [ -60.016090957813716, -30.537499997312242 ] ] ], [ [ [ -60.013828085109559, -30.541666663978543 ], [ -60.008990211019658, -30.541666663978543 ], [ -60.01156533560372, -30.545833330644836 ], [ -60.016403417297994, -30.545833330644836 ], [ -60.013828085109559, -30.541666663978543 ] ] ] ] } },
{ "type": "Feature", "properties": { "_uid_": 147070.0, "id": 20706840.0, "initialdat": "2018-02-07", "finaldate": "2018-02-08", "area_ha": 64.332190175426007 }, "geometry": { "type": "MultiPolygon", "coordinates": [ [ [ [ -60.065102170451219, -30.554166663977433 ], [ -60.060263673417978, -30.554166663977433 ], [ -60.065421431986948, -30.562499997310027 ], [ -60.070260344532834, -30.562499997310027 ], [ -60.065102170451219, -30.554166663977433 ] ] ], [ [ [ -60.060263673417978, -30.554166663977433 ], [ -60.055425176384738, -30.554166663977433 ], [ -60.058003578385872, -30.558333330643727 ], [ -60.062842283153721, -30.558333330643727 ], [ -60.060263673417978, -30.554166663977433 ] ] ] ] } },
{ "type": "Feature", "properties": { "_uid_": 147074.0, "id": 20706858.0, "initialdat": "2018-02-07", "finaldate": "2018-02-07", "area_ha": 21.445287619602681 }, "geometry": { "type": "MultiPolygon", "coordinates": [ [ [ [ -60.317578219498685, -30.833333330619368 ], [ -60.316719825150528, -30.833333330619368 ], [ -60.319338350973716, -30.837499997285661 ], [ -60.321790693786184, -30.837499997285661 ], [ -60.317578219498685, -30.833333330619368 ] ] ] ] } },
{ "type": "Feature", "properties": { "_uid_": 147076.0, "id": 20706861.0, "initialdat": "2018-02-10", "finaldate": "2018-02-12", "area_ha": 42.891422949933997 }, "geometry": { "type": "MultiPolygon", "coordinates": [ [ [ [ -60.275079603487072, -30.929166663944205 ], [ -60.270222235479672, -30.929166663944205 ], [ -60.2653648674723, -30.929166663944205 ], [ -60.267991116861083, -30.933333330610505 ], [ -60.272848696543278, -30.933333330610505 ], [ -60.27770627622548, -30.933333330610505 ], [ -60.275079603487072, -30.929166663944205 ] ] ] ] } },
{ "type": "Feature", "properties": { "_uid_": 147077.0, "id": 20706864.0, "initialdat": "2018-02-10", "finaldate": "2018-02-10", "area_ha": 21.445822123026847 }, "geometry": { "type": "MultiPolygon", "coordinates": [ [ [ [ -60.188816445021743, -30.95416666394199 ], [ -60.183957806303198, -30.95416666394199 ], [ -60.18658310434018, -30.958333330608291 ], [ -60.191441954998481, -30.958333330608291 ], [ -60.188816445021743, -30.95416666394199 ] ] ] ] } },
{ "type": "Feature", "properties": { "_uid_": 147078.0, "id": 20706867.0, "initialdat": "2018-02-02", "finaldate": "2018-02-03", "area_ha": 64.338223158860202 }, "geometry": { "type": "MultiPolygon", "coordinates": [ [ [ [ -60.14560563683122, -31.016666663936455 ], [ -60.142976067477655, -31.012499997270154 ], [ -60.138114457578077, -31.012499997270154 ], [ -60.140743814372478, -31.016666663936455 ], [ -60.14560563683122, -31.016666663936455 ] ] ], [ [ [ -60.14560563683122, -31.016666663936455 ], [ -60.150467459289935, -31.016666663936455 ], [ -60.145208443466743, -31.008333330603861 ], [ -60.140347046082034, -31.008333330603861 ], [ -60.14560563683122, -31.016666663936455 ] ] ] ] } },
{ "type": "Feature", "properties": { "_uid_": 147083.0, "id": 20706877.0, "initialdat": "2018-02-06", "finaldate": "2018-02-10", "area_ha": 514.7317149003029 }, "geometry": { "type": "MultiPolygon", "coordinates": [ [ [ [ -60.37831606709797, -31.145833330591678 ], [ -60.373447633291555, -31.145833330591678 ], [ -60.368579199485119, -31.145833330591678 ], [ -60.36371076567869, -31.145833330591678 ], [ -60.358842331872282, -31.145833330591678 ], [ -60.361495266166891, -31.149999997257975 ], [ -60.364148752928649, -31.154166663924268 ], [ -60.359279891116017, -31.154166663924268 ], [ -60.361933716375916, -31.158333330590569 ], [ -60.371671868141107, -31.158333330590569 ], [ -60.396017247554084, -31.158333330590569 ], [ -60.393362200222235, -31.154166663924268 ], [ -60.403099647429755, -31.154166663924268 ], [ -60.397789802323651, -31.145833330591678 ], [ -60.392921368517243, -31.145833330591678 ], [ -60.390267489034976, -31.141666663925378 ], [ -60.385399269164822, -31.141666663925378 ], [ -60.388052934710814, -31.145833330591678 ], [ -60.37831606709797, -31.145833330591678 ] ] ] ] } },
{ "type": "Feature", "properties": { "_uid_": 187953.0, "id": 20706823.0, "initialdat": "2018-02-16", "finaldate": "2018-03-08", "area_ha": 1372.3796087839007 }, "geometry": { "type": "MultiPolygon", "coordinates": [ [ [ [ -60.019545505848448, -30.433333330654811 ], [ -60.009880522675182, -30.433333330654811 ], [ -60.012444572921801, -30.437499997321105 ], [ -60.022109969052103, -30.437499997321105 ], [ -60.019545505848448, -30.433333330654811 ] ] ], [ [ [ -60.077235212749592, -30.42499999732221 ], [ -60.086899370267943, -30.42499999732221 ], [ -60.084333421077453, -30.420833330655917 ], [ -60.089165293487689, -30.420833330655917 ], [ -60.086599674863173, -30.41666666398962 ], [ -60.09143134096761, -30.41666666398962 ], [ -60.088866052899505, -30.412499997323319 ], [ -60.093997165897918, -30.420833330655917 ], [ -60.098829038308153, -30.420833330655917 ], [ -60.093697512741358, -30.412499997323319 ], [ -60.09852897258321, -30.412499997323319 ], [ -60.103360432425049, -30.412499997323319 ], [ -60.108191892266895, -30.412499997323319 ], [ -60.105626316087289, -30.408333330657019 ], [ -60.103061276750744, -30.404166663990726 ], [ -60.1004967741614, -30.399999997324425 ], [ -60.090835091535517, -30.399999997324425 ], [ -60.086004250222572, -30.399999997324425 ], [ -60.083440902554642, -30.395833330658128 ], [ -60.073779632108803, -30.395833330658128 ], [ -60.07634256759669, -30.399999997324425 ], [ -60.081173408909613, -30.399999997324425 ], [ -60.083737086966352, -30.404166663990726 ], [ -60.078906039520263, -30.404166663990726 ], [ -60.081470047975309, -30.408333330657019 ], [ -60.084034593057666, -30.412499997323319 ], [ -60.079203133215806, -30.412499997323319 ], [ -60.074371673373967, -30.412499997323319 ], [ -60.069540213532115, -30.412499997323319 ], [ -60.072104676549799, -30.41666666398962 ], [ -60.067273010445348, -30.41666666398962 ], [ -60.072403133990413, -30.42499999732221 ], [ -60.077235212749592, -30.42499999732221 ] ] ], [ [ [ -60.067273010445348, -30.41666666398962 ], [ -60.062441344340897, -30.41666666398962 ], [ -60.05987729384843, -30.412499997323319 ], [ -60.055045834006592, -30.412499997323319 ], [ -60.057609678236446, -30.41666666398962 ], [ -60.043114679923065, -30.41666666398962 ], [ -60.038283013818614, -30.41666666398962 ], [ -60.033451347714156, -30.41666666398962 ], [ -60.036014696975144, -30.420833330655917 ], [ -60.031182824564915, -30.420833330655917 ], [ -60.028619681609705, -30.41666666398962 ], [ -60.023788015505254, -30.41666666398962 ], [ -60.018956349400803, -30.41666666398962 ], [ -60.021519079744465, -30.420833330655917 ], [ -60.016687207334229, -30.420833330655917 ], [ -60.021813864307759, -30.429166663988511 ], [ -60.02664614945909, -30.429166663988511 ], [ -60.029210489021722, -30.433333330654811 ], [ -60.034042980608348, -30.433333330654811 ], [ -60.038875472194995, -30.433333330654811 ], [ -60.036310719761708, -30.429166663988511 ], [ -60.04114300491301, -30.429166663988511 ], [ -60.055639860366945, -30.429166663988511 ], [ -60.060472145518254, -30.429166663988511 ], [ -60.070136715820887, -30.429166663988511 ], [ -60.067571055231227, -30.42499999732221 ], [ -60.072403133990413, -30.42499999732221 ], [ -60.069837803846767, -30.420833330655917 ], [ -60.067273010445348, -30.41666666398962 ] ] ] ] } },
{ "type": "Feature", "properties": { "_uid_": 187954.0, "id": 20706825.0, "initialdat": "2018-02-13", "finaldate": "2018-02-13", "area_ha": 21.443435565721988 }, "geometry": { "type": "MultiPolygon", "coordinates": [ [ [ [ -60.09852897258321, -30.412499997323319 ], [ -60.093697512741358, -30.412499997323319 ], [ -60.096263007072089, -30.41666666398962 ], [ -60.10109467317654, -30.41666666398962 ], [ -60.09852897258321, -30.412499997323319 ] ] ] ] } },
{ "type": "Feature", "properties": { "_uid_": 187955.0, "id": 20706826.0, "initialdat": "2018-02-16", "finaldate": "2018-02-19", "area_ha": 42.886980547797677 }, "geometry": { "type": "MultiPolygon", "coordinates": [ [ [ [ -60.077235212749592, -30.42499999732221 ], [ -60.072403133990413, -30.42499999732221 ], [ -60.067571055231227, -30.42499999732221 ], [ -60.070136715820887, -30.429166663988511 ], [ -60.074969000972203, -30.429166663988511 ], [ -60.079801286123505, -30.429166663988511 ], [ -60.077235212749592, -30.42499999732221 ] ] ] ] } },
{ "type": "Feature", "properties": { "_uid_": 187956.0, "id": 20706827.0, "initialdat": "2018-02-19", "finaldate": "2018-02-20", "area_ha": 214.43489665760993 }, "geometry": { "type": "MultiPolygon", "coordinates": [ [ [ [ -60.116195337581125, -30.433333330654811 ], [ -60.111362845994499, -30.433333330654811 ], [ -60.113931232290014, -30.437499997321105 ], [ -60.099433138094554, -30.437499997321105 ], [ -60.104570283807057, -30.445833330653702 ], [ -60.114236506110686, -30.445833330653702 ], [ -60.111667251427114, -30.441666663987405 ], [ -60.121333060600854, -30.441666663987405 ], [ -60.11876419909099, -30.437499997321105 ], [ -60.12842932648546, -30.437499997321105 ], [ -60.125860320754391, -30.433333330654811 ], [ -60.12329185248533, -30.429166663988511 ], [ -60.118459567334014, -30.429166663988511 ], [ -60.121027829167758, -30.433333330654811 ], [ -60.116195337581125, -30.433333330654811 ] ] ] ] } },
{ "type": "Feature", "properties": { "_uid_": 187959.0, "id": 20706835.0, "initialdat": "2018-02-22", "finaldate": "2018-03-02", "area_ha": 1458.1792175139667 }, "geometry": { "type": "MultiPolygon", "coordinates": [ [ [ [ -60.073512048475671, -30.520833330647058 ], [ -60.078348885194558, -30.520833330647058 ], [ -60.075773464235397, -30.516666663980757 ], [ -60.080610093610211, -30.516666663980757 ], [ -60.085446722985012, -30.516666663980757 ], [ -60.082871425902979, -30.512499997314457 ], [ -60.097380692125157, -30.512499997314457 ], [ -60.10221711419922, -30.512499997314457 ], [ -60.107053536273277, -30.512499997314457 ], [ -60.104477741373117, -30.508333330648163 ], [ -60.11415017100645, -30.508333330648163 ], [ -60.111574500267238, -30.504166663981866 ], [ -60.108999368107284, -30.499999997315566 ], [ -60.104163836895133, -30.499999997315566 ], [ -60.101589181125654, -30.495833330649273 ], [ -60.106424774430124, -30.495833330649273 ], [ -60.111260367734594, -30.495833330649273 ], [ -60.108686105359737, -30.491666663982965 ], [ -60.106112381318184, -30.487499997316675 ], [ -60.103539195513569, -30.483333330650375 ], [ -60.100966547849559, -30.479166663984081 ], [ -60.091297017393757, -30.479166663984081 ], [ -60.093869251149364, -30.483333330650375 ], [ -60.089034278967276, -30.483333330650375 ], [ -60.091606843779417, -30.487499997316675 ], [ -60.094179946698603, -30.491666663982965 ], [ -60.089344560478231, -30.491666663982965 ], [ -60.091917994516713, -30.495833330649273 ], [ -60.087082401212243, -30.495833330649273 ], [ -60.082246807907772, -30.495833330649273 ], [ -60.079673788037482, -30.491666663982965 ], [ -60.074838401817104, -30.491666663982965 ], [ -60.069694390238887, -30.483333330650375 ], [ -60.064859418056784, -30.483333330650375 ], [ -60.067430947881483, -30.487499997316675 ], [ -60.062595768701897, -30.487499997316675 ], [ -60.065167629376347, -30.491666663982965 ], [ -60.070312964652253, -30.499999997315566 ], [ -60.067740027994361, -30.495833330649273 ], [ -60.062904434689884, -30.495833330649273 ], [ -60.065477164220368, -30.499999997315566 ], [ -60.060641363788477, -30.499999997315566 ], [ -60.063214424241153, -30.504166663981866 ], [ -60.053542409035934, -30.504166663981866 ], [ -60.056115593206471, -30.508333330648163 ], [ -60.058689315532689, -30.512499997314457 ], [ -60.053852893458618, -30.512499997314457 ], [ -60.059001538319002, -30.520833330647058 ], [ -60.063838375037896, -30.520833330647058 ], [ -60.068675211756783, -30.520833330647058 ], [ -60.073512048475671, -30.520833330647058 ] ] ] ] } },
{ "type": "Feature", "properties": { "_uid_": 187961.0, "id": 20706837.0, "initialdat": "2018-02-18", "finaldate": "2018-02-18", "area_ha": 21.443801077401638 }, "geometry": { "type": "MultiPolygon", "coordinates": [ [ [ [ -60.106424774430124, -30.495833330649273 ], [ -60.101589181125654, -30.495833330649273 ], [ -60.104163567675386, -30.499999997315566 ], [ -60.108999368107284, -30.499999997315566 ], [ -60.106424774430124, -30.495833330649273 ] ] ] ] } },
{ "type": "Feature", "properties": { "_uid_": 187962.0, "id": 20706841.0, "initialdat": "2018-02-13", "finaldate": "2018-02-13", "area_ha": 21.444075566327573 }, "geometry": { "type": "MultiPolygon", "coordinates": [ [ [ [ -60.062842283153721, -30.558333330643727 ], [ -60.058003578385872, -30.558333330643727 ], [ -60.060582519441056, -30.562499997310027 ], [ -60.065421431986948, -30.562499997310027 ], [ -60.062842283153721, -30.558333330643727 ] ] ] ] } },
{ "type": "Feature", "properties": { "_uid_": 187966.0, "id": 20706845.0, "initialdat": "2018-02-13", "finaldate": "2018-02-23", "area_ha": 1007.8718851902962 }, "geometry": { "type": "MultiPolygon", "coordinates": [ [ [ [ -60.020887063788848, -30.599999997306703 ], [ -60.025727848292753, -30.599999997306703 ], [ -60.035409417300578, -30.599999997306703 ], [ -60.040250201804476, -30.599999997306703 ], [ -60.045090986308381, -30.599999997306703 ], [ -60.042508854764627, -30.59583333064041 ], [ -60.047349431099271, -30.59583333064041 ], [ -60.044767631007403, -30.591666663974113 ], [ -60.030246526380758, -30.591666663974113 ], [ -60.02508579303602, -30.583333330641519 ], [ -60.022506235212191, -30.579166663975219 ], [ -60.017666491119677, -30.579166663975219 ], [ -60.012826747027141, -30.579166663975219 ], [ -60.007987002934634, -30.579166663975219 ], [ -60.003147258842127, -30.579166663975219 ], [ -59.998307514749612, -30.579166663975219 ], [ -59.988628026564584, -30.579166663975219 ], [ -59.991206128421261, -30.583333330641519 ], [ -59.986366176333441, -30.583333330641519 ], [ -59.981526224245606, -30.583333330641519 ], [ -59.984104448920448, -30.587499997307813 ], [ -59.986683212500836, -30.591666663974113 ], [ -59.991523580709718, -30.591666663974113 ], [ -59.994103091418197, -30.59583333064041 ], [ -59.99894366775284, -30.59583333064041 ], [ -60.003784244087491, -30.59583333064041 ], [ -60.001204317127481, -30.591666663974113 ], [ -59.999484767685232, -30.588888664486262 ], [ -60.006364710277126, -30.599999997306703 ], [ -60.00152392577322, -30.599999997306703 ], [ -60.004104723076601, -30.604166663973004 ], [ -60.008945715793296, -30.604166663973004 ], [ -60.013786708509954, -30.604166663973004 ], [ -60.018627701226649, -30.604166663973004 ], [ -60.01604627928495, -30.599999997306703 ], [ -60.020887063788848, -30.599999997306703 ] ] ] ] } },
{ "type": "Feature", "properties": { "_uid_": 187967.0, "id": 20706846.0, "initialdat": "2018-02-07", "finaldate": "2018-02-14", "area_ha": 128.66522304583788 }, "geometry": { "type": "MultiPolygon", "coordinates": [ [ [ [ -60.083490576678443, -30.591666663974113 ], [ -60.078650208469554, -30.591666663974113 ], [ -60.08123346544177, -30.59583333064041 ], [ -60.086074041776421, -30.59583333064041 ], [ -60.09091461811105, -30.59583333064041 ], [ -60.088330944887318, -30.591666663974113 ], [ -60.093171313096207, -30.591666663974113 ], [ -60.090587971705858, -30.587499997307813 ], [ -60.088005170177716, -30.583333330641519 ], [ -60.083165218089896, -30.583333330641519 ], [ -60.078325266002075, -30.583333330641519 ], [ -60.080907651452634, -30.587499997307813 ], [ -60.083490576678443, -30.591666663974113 ] ] ] ] } },
{ "type": "Feature", "properties": { "_uid_": 187968.0, "id": 20706848.0, "initialdat": "2018-02-06", "finaldate": "2018-02-22", "area_ha": 450.33217372306586 }, "geometry": { "type": "MultiPolygon", "coordinates": [ [ [ [ -60.093827677273261, -30.608333330639304 ], [ -60.088986476300292, -30.608333330639304 ], [ -60.086401599260135, -30.604166663973004 ], [ -60.083817262339622, -30.599999997306703 ], [ -60.078976477835731, -30.599999997306703 ], [ -60.074135693331819, -30.599999997306703 ], [ -60.069294908827914, -30.599999997306703 ], [ -60.066711736437846, -30.59583333064041 ], [ -60.061871160103195, -30.59583333064041 ], [ -60.064454124323994, -30.599999997306703 ], [ -60.059613339820103, -30.599999997306703 ], [ -60.062196635676735, -30.604166663973004 ], [ -60.057355642960061, -30.604166663973004 ], [ -60.059939270462493, -30.608333330639304 ], [ -60.064780471435462, -30.608333330639304 ], [ -60.0744628733814, -30.608333330639304 ], [ -60.077047665738824, -30.612499997305598 ], [ -60.081889075011603, -30.612499997305598 ], [ -60.09641330282993, -30.612499997305598 ], [ -60.093827677273261, -30.608333330639304 ] ] ], [ [ [ -60.059939270462493, -30.608333330639304 ], [ -60.055098069489532, -30.608333330639304 ], [ -60.060266527814996, -30.616666663971898 ], [ -60.065108145431104, -30.616666663971898 ], [ -60.059939270462493, -30.608333330639304 ] ] ], [ [ [ -60.060266527814996, -30.616666663971898 ], [ -60.057682028647726, -30.612499997305598 ], [ -60.055098069489532, -30.608333330639304 ], [ -60.05025686851657, -30.608333330639304 ], [ -60.052840619374948, -30.612499997305598 ], [ -60.055424910198866, -30.616666663971898 ], [ -60.060266527814996, -30.616666663971898 ] ] ], [ [ [ -60.093498831347446, -30.599999997306703 ], [ -60.088658046843541, -30.599999997306703 ], [ -60.091242591976808, -30.604166663973004 ], [ -60.096083584693488, -30.604166663973004 ], [ -60.093498831347446, -30.599999997306703 ] ] ] ] } },
{ "type": "Feature", "properties": { "_uid_": 187969.0, "id": 20706849.0, "initialdat": "2018-02-16", "finaldate": "2018-02-16", "area_ha": 21.44425886671543 }, "geometry": { "type": "MultiPolygon", "coordinates": [ [ [ [ -60.088658046843541, -30.599999997306703 ], [ -60.083817262339622, -30.599999997306703 ], [ -60.086401599260135, -30.604166663973004 ], [ -60.091242591976808, -30.604166663973004 ], [ -60.088658046843541, -30.599999997306703 ] ] ] ] } },
{ "type": "Feature", "properties": { "_uid_": 187975.0, "id": 20706857.0, "initialdat": "2018-02-13", "finaldate": "2018-02-16", "area_ha": 450.34846480468514 }, "geometry": { "type": "MultiPolygon", "coordinates": [ [ [ [ -60.311623969123531, -30.827443828424759 ], [ -60.310903278539072, -30.826920531657208 ], [ -60.308985909947289, -30.825793288127016 ], [ -60.309142494829487, -30.824999997286767 ], [ -60.296928140906047, -30.824999997286767 ], [ -60.292076050446475, -30.824999997286767 ], [ -60.294692641486691, -30.829166663953067 ], [ -60.289840340453232, -30.829166663953067 ], [ -60.292457266894168, -30.833333330619368 ], [ -60.297692758095017, -30.841666663951958 ], [ -60.302545691113785, -30.841666663951958 ], [ -60.307398624132553, -30.841666663951958 ], [ -60.310017610589512, -30.845833330618259 ], [ -60.314870754357976, -30.845833330618259 ], [ -60.319723898126433, -30.845833330618259 ], [ -60.317104490170088, -30.841666663951958 ], [ -60.32195742318887, -30.841666663951958 ], [ -60.316719825150528, -30.833333330619368 ], [ -60.315310438997528, -30.831090210596368 ], [ -60.311623969123531, -30.827443828424759 ] ] ] ] } },
{ "type": "Feature", "properties": { "_uid_": 187980.0, "id": 20706866.0, "initialdat": "2018-02-16", "finaldate": "2018-02-16", "area_ha": 21.445969758427143 }, "geometry": { "type": "MultiPolygon", "coordinates": [ [ [ [ -60.17581350973088, -30.987499997272369 ], [ -60.170953174256354, -30.987499997272369 ], [ -60.173581367998288, -30.99166666393867 ], [ -60.178441915766321, -30.99166666393867 ], [ -60.17581350973088, -30.987499997272369 ] ] ] ] } },
{ "type": "Feature", "properties": { "_uid_": 187986.0, "id": 20706878.0, "initialdat": "2018-02-16", "finaldate": "2018-02-17", "area_ha": 42.893400866198547 }, "geometry": { "type": "MultiPolygon", "coordinates": [ [ [ [ -60.432312818305576, -31.154166663924268 ], [ -60.434969854614835, -31.158333330590569 ], [ -60.43983893049743, -31.158333330590569 ], [ -60.437181680118215, -31.154166663924268 ], [ -60.434524982975631, -31.149999997257975 ], [ -60.429656335188376, -31.149999997257975 ], [ -60.432312818305576, -31.154166663924268 ] ] ] ] } },
{ "type": "Feature", "properties": { "_uid_": 187987.0, "id": 20706879.0, "initialdat": "2018-02-19", "finaldate": "2018-02-19", "area_ha": 42.893678756868837 }, "geometry": { "type": "MultiPolygon", "coordinates": [ [ [ [ -60.275590690571249, -31.183333330588354 ], [ -60.265849968093754, -31.183333330588354 ], [ -60.268502733056863, -31.187499997254655 ], [ -60.278243884298689, -31.187499997254655 ], [ -60.275590690571249, -31.183333330588354 ] ] ] ] } },
{ "type": "Feature", "properties": { "_uid_": 187989.0, "id": 20706881.0, "initialdat": "2018-02-16", "finaldate": "2018-02-16", "area_ha": 21.447117481768132 }, "geometry": { "type": "MultiPolygon", "coordinates": [ [ [ [ -60.276457990645355, -31.245833330582816 ], [ -60.271584408983742, -31.245833330582816 ], [ -60.274243963781274, -31.249999997249109 ], [ -60.279117760495417, -31.249999997249109 ], [ -60.276457990645355, -31.245833330582816 ] ] ] ] } },
{ "type": "Feature", "properties": { "_uid_": 187990.0, "id": 20706882.0, "initialdat": "2018-02-16", "finaldate": "2018-02-21", "area_ha": 107.2394816829443 }, "geometry": { "type": "MultiPolygon", "coordinates": [ [ [ [ -60.376680602073556, -31.424999997233609 ], [ -60.373998146019986, -31.420833330567309 ], [ -60.369115493521313, -31.420833330567309 ], [ -60.371797732635443, -31.424999997233609 ], [ -60.376680602073556, -31.424999997233609 ] ] ], [ [ [ -60.376680602073556, -31.424999997233609 ], [ -60.379363615834507, -31.42916666389991 ], [ -60.384246702257165, -31.42916666389991 ], [ -60.381563471511669, -31.424999997233609 ], [ -60.386446340949774, -31.424999997233609 ], [ -60.383763451017352, -31.420833330567309 ], [ -60.378881077343564, -31.420833330567309 ], [ -60.37619868317546, -31.416666663901015 ], [ -60.371316247571102, -31.416666663901015 ], [ -60.376680602073556, -31.424999997233609 ] ] ] ] } },
{ "type": "Feature", "properties": { "_uid_": 219734.0, "id": 20781941.0, "initialdat": "2018-03-13", "finaldate": "2018-03-13", "area_ha": 21.443435587894918 }, "geometry": { "type": "MultiPolygon", "coordinates": [ [ [ [ -60.069540213532115, -30.412499997323319 ], [ -60.064708753690276, -30.412499997323319 ], [ -60.067273010445348, -30.41666666398962 ], [ -60.072104676549799, -30.41666666398962 ], [ -60.069540213532115, -30.412499997323319 ] ] ] ] } },
{ "type": "Feature", "properties": { "_uid_": 219735.0, "id": 20781942.0, "initialdat": "2018-03-05", "finaldate": "2018-03-08", "area_ha": 42.886871004915236 }, "geometry": { "type": "MultiPolygon", "coordinates": [ [ [ [ -60.045382914322886, -30.412499997323319 ], [ -60.040551454481047, -30.412499997323319 ], [ -60.035719994639202, -30.412499997323319 ], [ -60.038283013818614, -30.41666666398962 ], [ -60.043114679923065, -30.41666666398962 ], [ -60.047946346027516, -30.41666666398962 ], [ -60.045382914322886, -30.412499997323319 ] ] ] ] } },
{ "type": "Feature", "properties": { "_uid_": 219742.0, "id": 20781949.0, "initialdat": "2018-03-02", "finaldate": "2018-03-05", "area_ha": 171.55629636907577 }, "geometry": { "type": "MultiPolygon", "coordinates": [ [ [ [ -60.048735462176978, -30.69166666396525 ], [ -60.04389008692786, -30.69166666396525 ], [ -60.046482145507198, -30.695833330631551 ], [ -60.041636561086143, -30.695833330631551 ], [ -60.049415357763998, -30.708333330630438 ], [ -60.054261569963018, -30.708333330630438 ], [ -60.049074745474456, -30.699999997297844 ], [ -60.053920539111111, -30.699999997297844 ], [ -60.048735462176978, -30.69166666396525 ] ] ], [ [ [ -60.041636561086143, -30.695833330631551 ], [ -60.036790976665095, -30.695833330631551 ], [ -60.039383158201119, -30.699999997297844 ], [ -60.044228951837788, -30.699999997297844 ], [ -60.041636561086143, -30.695833330631551 ] ] ], [ [ [ -60.039383158201119, -30.699999997297844 ], [ -60.03453736456445, -30.699999997297844 ], [ -60.037129878239249, -30.704166663964145 ], [ -60.041975881135237, -30.704166663964145 ], [ -60.039383158201119, -30.699999997297844 ] ] ], [ [ [ -60.039722933366001, -30.708333330630438 ], [ -60.034876721166981, -30.708333330630438 ], [ -60.037470108496557, -30.712499997296735 ], [ -60.042316530042292, -30.712499997296735 ], [ -60.039722933366001, -30.708333330630438 ] ] ] ] } },
{ "type": "Feature", "properties": { "_uid_": 219743.0, "id": 20781950.0, "initialdat": "2018-03-09", "finaldate": "2018-03-11", "area_ha": 42.889471664249896 }, "geometry": { "type": "MultiPolygon", "coordinates": [ [ [ [ -60.068800206560034, -30.708333330630438 ], [ -60.063953994361029, -30.708333330630438 ], [ -60.059107782162016, -30.708333330630438 ], [ -60.061702216225257, -30.712499997296735 ], [ -60.066548637771, -30.712499997296735 ], [ -60.071395059316735, -30.712499997296735 ], [ -60.068800206560034, -30.708333330630438 ] ] ] ] } },
{ "type": "Feature", "properties": { "_uid_": 219762.0, "id": 20781975.0, "initialdat": "2018-03-05", "finaldate": "2018-03-05", "area_ha": 21.446691124069691 }, "geometry": { "type": "MultiPolygon", "coordinates": [ [ [ [ -60.205698536974921, -31.149999997257975 ], [ -60.200829889187666, -31.149999997257975 ], [ -60.203476313111629, -31.154166663924268 ], [ -60.208345174924261, -31.154166663924268 ], [ -60.205698536974921, -31.149999997257975 ] ] ] ] } },
{ "type": "Feature", "properties": { "_uid_": 219763.0, "id": 20781976.0, "initialdat": "2018-03-11", "finaldate": "2018-03-11", "area_ha": 150.12928163189889 }, "geometry": { "type": "MultiPolygon", "coordinates": [ [ [ [ -60.220304480336665, -31.149999997257975 ], [ -60.205698536974921, -31.149999997257975 ], [ -60.208345174924261, -31.154166663924268 ], [ -60.19860745129899, -31.154166663924268 ], [ -60.201254212250305, -31.158333330590569 ], [ -60.220730515780687, -31.158333330590569 ], [ -60.21808289854954, -31.154166663924268 ], [ -60.222951760362179, -31.154166663924268 ], [ -60.220304480336665, -31.149999997257975 ] ] ] ] } },
{ "type": "Feature", "properties": { "_uid_": 219768.0, "id": 20781981.0, "initialdat": "2018-03-05", "finaldate": "2018-03-13", "area_ha": 278.81141419636009 }, "geometry": { "type": "MultiPolygon", "coordinates": [ [ [ [ -60.308360540780342, -31.249999997249109 ], [ -60.305699480615012, -31.245833330582816 ], [ -60.303038974172146, -31.241666663916515 ], [ -60.298165607518349, -31.241666663916515 ], [ -60.293292240864517, -31.241666663916515 ], [ -60.295952317291793, -31.245833330582816 ], [ -60.301274131146698, -31.254166663915417 ], [ -60.306148142958158, -31.254166663915417 ], [ -60.311022154769603, -31.254166663915417 ], [ -60.308360540780342, -31.249999997249109 ] ] ], [ [ [ -60.308360540780342, -31.249999997249109 ], [ -60.313234337494499, -31.249999997249109 ], [ -60.310573339160236, -31.245833330582816 ], [ -60.31544664393823, -31.245833330582816 ], [ -60.312785707479783, -31.241666663916515 ], [ -60.307912340825965, -31.241666663916515 ], [ -60.303038974172146, -31.241666663916515 ], [ -60.308360540780342, -31.249999997249109 ] ] ], [ [ [ -60.301274131146698, -31.254166663915417 ], [ -60.298612947352026, -31.249999997249109 ], [ -60.295952317291793, -31.245833330582816 ], [ -60.286205153968574, -31.245833330582816 ], [ -60.288865353923718, -31.249999997249109 ], [ -60.291526107523801, -31.254166663915417 ], [ -60.296400119335253, -31.254166663915417 ], [ -60.301274131146698, -31.254166663915417 ] ] ] ] } },
{ "type": "Feature", "properties": { "_uid_": 253591.0, "id": 20781944.0, "initialdat": "2018-03-20", "finaldate": "2018-03-22", "area_ha": 42.887565481734278 }, "geometry": { "type": "MultiPolygon", "coordinates": [ [ [ [ -60.036155312054085, -30.491666663982965 ], [ -60.031319925833714, -30.491666663982965 ], [ -60.026484539613321, -30.491666663982965 ], [ -60.029055281558591, -30.495833330649273 ], [ -60.033890874863062, -30.495833330649273 ], [ -60.038726468167532, -30.495833330649273 ], [ -60.036155312054085, -30.491666663982965 ] ] ] ] } },
{ "type": "Feature", "properties": { "_uid_": 253592.0, "id": 20781951.0, "initialdat": "2018-03-15", "finaldate": "2018-03-20", "area_ha": 257.33656752588752 }, "geometry": { "type": "MultiPolygon", "coordinates": [ [ [ [ -60.047162951588035, -30.712499997296735 ], [ -60.042316530042292, -30.712499997296735 ], [ -60.037470108496557, -30.712499997296735 ], [ -60.032623686950814, -30.712499997296735 ], [ -60.035217406493359, -30.716666663963036 ], [ -60.040064037429545, -30.716666663963036 ], [ -60.044910668365738, -30.716666663963036 ], [ -60.049757299301938, -30.716666663963036 ], [ -60.052352188804399, -30.720833330629336 ], [ -60.057199029174768, -30.720833330629336 ], [ -60.062045869545138, -30.720833330629336 ], [ -60.059450561174323, -30.716666663963036 ], [ -60.064297192110516, -30.716666663963036 ], [ -60.069143823046716, -30.716666663963036 ], [ -60.066548637771, -30.712499997296735 ], [ -60.061702216225257, -30.712499997296735 ], [ -60.059107782162016, -30.708333330630438 ], [ -60.054261569963018, -30.708333330630438 ], [ -60.044569145564999, -30.708333330630438 ], [ -60.047162951588035, -30.712499997296735 ] ] ] ] } },
{ "type": "Feature", "properties": { "_uid_": 286378.0, "id": 20854320.0, "initialdat": "2018-04-01", "finaldate": "2018-04-01", "area_ha": 21.444717532908918 }, "geometry": { "type": "MultiPolygon", "coordinates": [ [ [ [ -60.085589907199122, -30.704166663964145 ], [ -60.080743904303134, -30.704166663964145 ], [ -60.083338843157065, -30.708333330630438 ], [ -60.088185055356064, -30.708333330630438 ], [ -60.085589907199122, -30.704166663964145 ] ] ] ] } },
{ "type": "Feature", "properties": { "_uid_": 389045.0, "id": 20963408.0, "initialdat": "2018-06-08", "finaldate": "2018-06-08", "area_ha": 21.444864532315734 }, "geometry": { "type": "MultiPolygon", "coordinates": [ [ [ [ -60.125756987732693, -30.737499997294528 ], [ -60.120909309188164, -30.737499997294528 ], [ -60.123509424934468, -30.741666663960821 ], [ -60.128357313131936, -30.741666663960821 ], [ -60.125756987732693, -30.737499997294528 ] ] ] ] } },
{ "type": "Feature", "properties": { "_uid_": 418317.0, "id": 20963406.0, "initialdat": "2018-06-20", "finaldate": "2018-06-27", "area_ha": 128.66863596372605 }, "geometry": { "type": "MultiPolygon", "coordinates": [ [ [ [ -60.103418118675982, -30.724999997295637 ], [ -60.100820592508143, -30.720833330629336 ], [ -60.098223608663879, -30.716666663963036 ], [ -60.093376977727679, -30.716666663963036 ], [ -60.095973752137759, -30.720833330629336 ], [ -60.098571068827674, -30.724999997295637 ], [ -60.103418118675982, -30.724999997295637 ] ] ], [ [ [ -60.103418118675982, -30.724999997295637 ], [ -60.108265168524269, -30.724999997295637 ], [ -60.103070239600079, -30.716666663963036 ], [ -60.107916870536272, -30.716666663963036 ], [ -60.105320010136928, -30.712499997296735 ], [ -60.100473588591186, -30.712499997296735 ], [ -60.095627167045443, -30.712499997296735 ], [ -60.098223608663879, -30.716666663963036 ], [ -60.103418118675982, -30.724999997295637 ] ] ] ] } },
{ "type": "Feature", "properties": { "_uid_": 418318.0, "id": 20963407.0, "initialdat": "2018-06-17", "finaldate": "2018-06-17", "area_ha": 21.444864377474786 }, "geometry": { "type": "MultiPolygon", "coordinates": [ [ [ [ -60.130604666277236, -30.737499997294528 ], [ -60.125756987732693, -30.737499997294528 ], [ -60.128357313131936, -30.741666663960821 ], [ -60.133205201329417, -30.741666663960821 ], [ -60.130604666277236, -30.737499997294528 ] ] ] ] } },
{ "type": "Feature", "properties": { "_uid_": 418319.0, "id": 20963409.0, "initialdat": "2018-06-23", "finaldate": "2018-06-27", "area_ha": 42.889765796172618 }, "geometry": { "type": "MultiPolygon", "coordinates": [ [ [ [ -60.128357313131936, -30.741666663960821 ], [ -60.123509424934468, -30.741666663960821 ], [ -60.118661536737001, -30.741666663960821 ], [ -60.121261985686999, -30.745833330627121 ], [ -60.126110083581189, -30.745833330627121 ], [ -60.130958181475371, -30.745833330627121 ], [ -60.128357313131936, -30.741666663960821 ] ] ] ] } },
{ "type": "Feature", "properties": { "_uid_": 418320.0, "id": 20963410.0, "initialdat": "2018-06-29", "finaldate": "2018-06-29", "area_ha": 21.444901324331759 }, "geometry": { "type": "MultiPolygon", "coordinates": [ [ [ [ -60.106717692004423, -30.745833330627121 ], [ -60.101869594110234, -30.745833330627121 ], [ -60.104469747052832, -30.749999997293415 ], [ -60.109318054687527, -30.749999997293415 ], [ -60.106717692004423, -30.745833330627121 ] ] ] ] } },
{ "type": "Feature", "properties": { "_uid_": 465887.0, "id": 21051692.0, "initialdat": "2018-07-10", "finaldate": "2018-07-10", "area_ha": 21.444699316632747 }, "geometry": { "type": "MultiPolygon", "coordinates": [ [ [ [ -60.073303713657808, -30.699999997297844 ], [ -60.068457920021139, -30.699999997297844 ], [ -60.071051898511165, -30.704166663964145 ], [ -60.075897901407146, -30.704166663964145 ], [ -60.073303713657808, -30.699999997297844 ] ] ] ] } },
{ "type": "Feature", "properties": { "_uid_": 465888.0, "id": 21051693.0, "initialdat": "2018-07-11", "finaldate": "2018-07-14", "area_ha": 150.11372682853937 }, "geometry": { "type": "MultiPolygon", "coordinates": [ [ [ [ -60.148937804048593, -30.712499997296735 ], [ -60.144091382502864, -30.712499997296735 ], [ -60.146689918025821, -30.716666663963036 ], [ -60.151536548962021, -30.716666663963036 ], [ -60.148937804048593, -30.712499997296735 ] ] ], [ [ [ -60.144091382502864, -30.712499997296735 ], [ -60.141493389545161, -30.708333330630438 ], [ -60.136647177346163, -30.708333330630438 ], [ -60.131800965147136, -30.708333330630438 ], [ -60.134398539411372, -30.712499997296735 ], [ -60.129552117865629, -30.712499997296735 ], [ -60.124705696319886, -30.712499997296735 ], [ -60.127303394281043, -30.716666663963036 ], [ -60.129901634730388, -30.720833330629336 ], [ -60.134748475100771, -30.720833330629336 ], [ -60.132150025217236, -30.716666663963036 ], [ -60.141843287089635, -30.716666663963036 ], [ -60.139244960957114, -30.712499997296735 ], [ -60.144091382502864, -30.712499997296735 ] ] ] ] } },
{ "type": "Feature", "properties": { "_uid_": 465889.0, "id": 21051694.0, "initialdat": "2018-07-03", "finaldate": "2018-07-03", "area_ha": 21.444735848903655 }, "geometry": { "type": "MultiPolygon", "coordinates": [ [ [ [ -60.131800965147136, -30.708333330630438 ], [ -60.12695475294813, -30.708333330630438 ], [ -60.129552117865629, -30.712499997296735 ], [ -60.134398539411372, -30.712499997296735 ], [ -60.131800965147136, -30.708333330630438 ] ] ] ] } },
{ "type": "Feature", "properties": { "_uid_": 465890.0, "id": 21051695.0, "initialdat": "2018-07-05", "finaldate": "2018-07-05", "area_ha": 64.334299522697933 }, "geometry": { "type": "MultiPolygon", "coordinates": [ [ [ [ -60.144091382502864, -30.712499997296735 ], [ -60.139244960957114, -30.712499997296735 ], [ -60.141843287089635, -30.716666663963036 ], [ -60.146689918025821, -30.716666663963036 ], [ -60.144091382502864, -30.712499997296735 ] ] ], [ [ [ -60.141843287089635, -30.716666663963036 ], [ -60.132150025217236, -30.716666663963036 ], [ -60.134748475100771, -30.720833330629336 ], [ -60.144442155841524, -30.720833330629336 ], [ -60.141843287089635, -30.716666663963036 ] ] ] ] } },
{ "type": "Feature", "properties": { "_uid_": 465891.0, "id": 21051696.0, "initialdat": "2018-07-12", "finaldate": "2018-07-12", "area_ha": 64.335506471920013 }, "geometry": { "type": "MultiPolygon", "coordinates": [ [ [ [ -60.144442155841524, -30.720833330629336 ], [ -60.139595315471141, -30.720833330629336 ], [ -60.142194517462315, -30.724999997295637 ], [ -60.137347467614021, -30.724999997295637 ], [ -60.139947002854861, -30.72916666396193 ], [ -60.149641521594774, -30.72916666396193 ], [ -60.144442155841524, -30.720833330629336 ] ] ] ] } },
{ "type": "Feature", "properties": { "_uid_": 568172.0, "id": 21172440.0, "initialdat": "2018-08-04", "finaldate": "2018-08-04", "area_ha": 21.444075774610042 }, "geometry": { "type": "MultiPolygon", "coordinates": [ [ [ [ -60.120906740367914, -30.558333330643727 ], [ -60.116068035600065, -30.558333330643727 ], [ -60.118649469991752, -30.562499997310027 ], [ -60.12348838253763, -30.562499997310027 ], [ -60.120906740367914, -30.558333330643727 ] ] ] ] } },
{ "type": "Feature", "properties": { "_uid_": 568173.0, "id": 21172441.0, "initialdat": "2018-08-04", "finaldate": "2018-08-06", "area_ha": 64.332336574077601 }, "geometry": { "type": "MultiPolygon", "coordinates": [ [ [ [ -60.133492614352676, -30.570833330642628 ], [ -60.128653286120375, -30.570833330642628 ], [ -60.131236547727127, -30.574999997308922 ], [ -60.136076083867799, -30.574999997308922 ], [ -60.133492614352676, -30.570833330642628 ] ] ], [ [ [ -60.128653286120375, -30.570833330642628 ], [ -60.126070564422847, -30.566666663976328 ], [ -60.121231444055475, -30.566666663976328 ], [ -60.123813957888089, -30.570833330642628 ], [ -60.128653286120375, -30.570833330642628 ] ] ], [ [ [ -60.133166207629408, -30.562499997310027 ], [ -60.12832729508353, -30.562499997310027 ], [ -60.130909684790225, -30.566666663976328 ], [ -60.135748805157576, -30.566666663976328 ], [ -60.133166207629408, -30.562499997310027 ] ] ] ] } },
{ "type": "Feature", "properties": { "_uid_": 568180.0, "id": 21172459.0, "initialdat": "2018-08-11", "finaldate": "2018-08-15", "area_ha": 64.336286619698996 }, "geometry": { "type": "MultiPolygon", "coordinates": [ [ [ [ -60.104681823769312, -30.866666663949744 ], [ -60.099827625592603, -30.866666663949744 ], [ -60.102440185652924, -30.870833330616037 ], [ -60.107294594843282, -30.870833330616037 ], [ -60.104681823769312, -30.866666663949744 ] ] ], [ [ [ -60.119244418299417, -30.866666663949744 ], [ -60.114390220122708, -30.866666663949744 ], [ -60.117003413223998, -30.870833330616037 ], [ -60.121857822414349, -30.870833330616037 ], [ -60.119244418299417, -30.866666663949744 ] ] ], [ [ [ -60.114390220122708, -30.866666663949744 ], [ -60.111777572081607, -30.862499997283447 ], [ -60.106923584874536, -30.862499997283447 ], [ -60.109536021946013, -30.866666663949744 ], [ -60.114390220122708, -30.866666663949744 ] ] ] ] } },
{ "type": "Feature", "properties": { "_uid_": 568181.0, "id": 21172460.0, "initialdat": "2018-08-02", "finaldate": "2018-08-07", "area_ha": 257.34588998129368 }, "geometry": { "type": "MultiPolygon", "coordinates": [ [ [ [ -60.088247615553868, -30.879166663948638 ], [ -60.090860966407959, -30.883333330614935 ], [ -60.095716008903423, -30.883333330614935 ], [ -60.0931024469036, -30.879166663948638 ], [ -60.102812109603072, -30.879166663948638 ], [ -60.100198670492055, -30.874999997282345 ], [ -60.097585776462566, -30.870833330616037 ], [ -60.102440185652924, -30.870833330616037 ], [ -60.099827625592603, -30.866666663949744 ], [ -60.094973427415901, -30.866666663949744 ], [ -60.092361623253353, -30.862499997283447 ], [ -60.087507636046297, -30.862499997283447 ], [ -60.090119229239207, -30.866666663949744 ], [ -60.085265031062498, -30.866666663949744 ], [ -60.080410832885811, -30.866666663949744 ], [ -60.083022548891492, -30.870833330616037 ], [ -60.085634809747965, -30.874999997282345 ], [ -60.088247615553868, -30.879166663948638 ] ] ] ] } },
{ "type": "Feature", "properties": { "_uid_": 568182.0, "id": 21172461.0, "initialdat": "2018-08-02", "finaldate": "2018-08-05", "area_ha": 235.90101156499387 }, "geometry": { "type": "MultiPolygon", "coordinates": [ [ [ [ -60.115887484838794, -30.89999999728013 ], [ -60.120743372357794, -30.89999999728013 ], [ -60.123360295399017, -30.904166663946423 ], [ -60.128216394284046, -30.904166663946423 ], [ -60.125599532758102, -30.89999999728013 ], [ -60.13045514739575, -30.89999999728013 ], [ -60.127838347429162, -30.895833330613829 ], [ -60.122982671232158, -30.895833330613829 ], [ -60.120366628251297, -30.891666663947529 ], [ -60.117751130835337, -30.887499997281235 ], [ -60.115136178885351, -30.883333330614935 ], [ -60.110281136389872, -30.883333330614935 ], [ -60.112895877150073, -30.887499997281235 ], [ -60.108040623464795, -30.887499997281235 ], [ -60.11065569841309, -30.891666663947529 ], [ -60.10580023349398, -30.891666663947529 ], [ -60.111031597319815, -30.89999999728013 ], [ -60.115887484838794, -30.89999999728013 ] ] ] ] } },
{ "type": "Feature", "properties": { "_uid_": 568183.0, "id": 21172462.0, "initialdat": "2018-08-02", "finaldate": "2018-08-04", "area_ha": 42.891109457588193 }, "geometry": { "type": "MultiPolygon", "coordinates": [ [ [ [ -60.057245584302905, -30.891666663947529 ], [ -60.052390119383787, -30.891666663947529 ], [ -60.055003204474019, -30.895833330613829 ], [ -60.05985888067103, -30.895833330613829 ], [ -60.057245584302905, -30.891666663947529 ] ] ], [ [ [ -60.055003204474019, -30.895833330613829 ], [ -60.050147528277016, -30.895833330613829 ], [ -60.052760947092054, -30.89999999728013 ], [ -60.057616834611025, -30.89999999728013 ], [ -60.055003204474019, -30.895833330613829 ] ] ] ] } },
{ "type": "Feature", "properties": { "_uid_": 568184.0, "id": 21172463.0, "initialdat": "2018-08-08", "finaldate": "2018-08-08", "area_ha": 21.445545546472072 }, "geometry": { "type": "MultiPolygon", "coordinates": [ [ [ [ -60.023257329869139, -30.891666663947529 ], [ -60.018401864950036, -30.891666663947529 ], [ -60.021013471094946, -30.895833330613829 ], [ -60.025869147291949, -30.895833330613829 ], [ -60.023257329869139, -30.891666663947529 ] ] ] ] } },
{ "type": "Feature", "properties": { "_uid_": 568185.0, "id": 21172464.0, "initialdat": "2018-08-07", "finaldate": "2018-08-07", "area_ha": 21.44558235975504 }, "geometry": { "type": "MultiPolygon", "coordinates": [ [ [ [ -60.023625621978155, -30.89999999728013 ], [ -60.018769734459184, -30.89999999728013 ], [ -60.021382218813407, -30.904166663946423 ], [ -60.026238317698436, -30.904166663946423 ], [ -60.023625621978155, -30.89999999728013 ] ] ] ] } },
{ "type": "Feature", "properties": { "_uid_": 637483.0, "id": 21172442.0, "initialdat": "2018-08-22", "finaldate": "2018-08-27", "area_ha": 85.776966653382772 }, "geometry": { "type": "MultiPolygon", "coordinates": [ [ [ [ -60.118974629655789, -30.570833330642628 ], [ -60.114135301423495, -30.570833330642628 ], [ -60.109295973191195, -30.570833330642628 ], [ -60.111878403164425, -30.574999997308922 ], [ -60.116717939305104, -30.574999997308922 ], [ -60.126397011586455, -30.574999997308922 ], [ -60.123813957888089, -30.570833330642628 ], [ -60.121231444055475, -30.566666663976328 ], [ -60.11639232368811, -30.566666663976328 ], [ -60.118974629655789, -30.570833330642628 ] ] ] ] } },
{ "type": "Feature", "properties": { "_uid_": 637494.0, "id": 21172458.0, "initialdat": "2018-08-27", "finaldate": "2018-08-27", "area_ha": 21.445085082876684 }, "geometry": { "type": "MultiPolygon", "coordinates": [ [ [ [ -59.948438265767919, -30.787499997290091 ], [ -59.943588068497199, -30.787499997290091 ], [ -59.946185667833738, -30.791666663956391 ], [ -59.95103607528322, -30.791666663956391 ], [ -59.948438265767919, -30.787499997290091 ] ] ] ] } },
{ "type": "Feature", "properties": { "_uid_": 637497.0, "id": 21172471.0, "initialdat": "2018-08-25", "finaldate": "2018-08-27", "area_ha": 85.785406544315819 }, "geometry": { "type": "MultiPolygon", "coordinates": [ [ [ [ -60.307076713601568, -31.133333330592784 ], [ -60.297341129339124, -31.133333330592784 ], [ -60.302639531372314, -31.141666663925378 ], [ -60.307507751242468, -31.141666663925378 ], [ -60.304858060496819, -31.137499997259084 ], [ -60.309726066475235, -31.137499997259084 ], [ -60.307076713601568, -31.133333330592784 ] ] ], [ [ [ -60.302639531372314, -31.141666663925378 ], [ -60.299990054518396, -31.137499997259084 ], [ -60.295122048539973, -31.137499997259084 ], [ -60.29777131150216, -31.141666663925378 ], [ -60.302639531372314, -31.141666663925378 ] ] ] ] } },
{ "type": "Feature", "properties": { "_uid_": 753273.0, "id": 21311831.0, "initialdat": "2018-09-30", "finaldate": "2018-10-02", "area_ha": 171.56948588473796 }, "geometry": { "type": "MultiPolygon", "coordinates": [ [ [ [ -60.356339386688738, -31.049999997266838 ], [ -60.361625559041869, -31.058333330599432 ], [ -60.366489509530119, -31.058333330599432 ], [ -60.371353460018376, -31.058333330599432 ], [ -60.368709672493296, -31.054166663933131 ], [ -60.373573409979009, -31.054166663933131 ], [ -60.368287061283354, -31.045833330600537 ], [ -60.3634237496696, -31.045833330600537 ], [ -60.353697126442114, -31.045833330600537 ], [ -60.356339386688738, -31.049999997266838 ] ] ] ] } }
]
}
