{
"type": "FeatureCollection",
"name": "2019",
"crs": { "type": "name", "properties": { "name": "urn:ogc:def:crs:OGC:1.3:CRS84" } },
"features": [
{ "type": "Feature", "properties": { "_uid_": 527371.0, "id": 22330773.0, "initialdat": "2019-08-12", "finaldate": "2019-08-16", "area_ha": 128.67183603414298 }, "geometry": { "type": "MultiPolygon", "coordinates": [ [ [ [ -60.278281026019926, -30.841666663951958 ], [ -60.273428093001144, -30.841666663951958 ], [ -60.276045604210239, -30.845833330618259 ], [ -60.285751891747175, -30.845833330618259 ], [ -60.283133959038707, -30.841666663951958 ], [ -60.287986892057475, -30.841666663951958 ], [ -60.285369294782406, -30.837499997285661 ], [ -60.290222017095459, -30.837499997285661 ], [ -60.28760475524291, -30.833333330619368 ], [ -60.277899731940366, -30.833333330619368 ], [ -60.280516572469381, -30.837499997285661 ], [ -60.27566385015632, -30.837499997285661 ], [ -60.278281026019926, -30.841666663951958 ] ] ] ] } },
{ "type": "Feature", "properties": { "_uid_": 757972.0, "id": 22655715.0, "initialdat": "2019-11-14", "finaldate": "2019-11-14", "area_ha": 21.445490159201626 }, "geometry": { "type": "MultiPolygon", "coordinates": [ [ [ [ -60.073683121504658, -30.879166663948638 ], [ -60.068828290154919, -30.879166663948638 ], [ -60.071440796426046, -30.883333330614935 ], [ -60.076295838921524, -30.883333330614935 ], [ -60.073683121504658, -30.879166663948638 ] ] ] ] } },
{ "type": "Feature", "properties": { "_uid_": 898316.0, "id": 21688976.0, "initialdat": "2019-01-08", "finaldate": "2019-01-10", "area_ha": 257.31567965523004 }, "geometry": { "type": "MultiPolygon", "coordinates": [ [ [ [ -60.067233172848212, -30.274999997335502 ], [ -60.072057583101888, -30.274999997335502 ], [ -60.069507624295952, -30.270833330669209 ], [ -60.064409308961899, -30.262499997336612 ], [ -60.054761182817956, -30.262499997336612 ], [ -60.057309664042876, -30.266666664002909 ], [ -60.052485396257175, -30.266666664002909 ], [ -60.055034206668985, -30.270833330669209 ], [ -60.050209734126668, -30.270833330669209 ], [ -60.055308547390027, -30.279166664001803 ], [ -60.069783193942804, -30.279166664001803 ], [ -60.067233172848212, -30.274999997335502 ] ] ] ] } },
{ "type": "Feature", "properties": { "_uid_": 954844.0, "id": 21688981.0, "initialdat": "2019-01-18", "finaldate": "2019-01-18", "area_ha": 21.447563307476045 }, "geometry": { "type": "MultiPolygon", "coordinates": [ [ [ [ -60.403869272769128, -31.345833330573956 ], [ -60.398990517476904, -31.345833330573956 ], [ -60.401666194263399, -31.349999997240253 ], [ -60.406545165684605, -31.349999997240253 ], [ -60.403869272769128, -31.345833330573956 ] ] ] ] } }
]
}
