{
"type": "FeatureCollection",
"name": "2021",
"crs": { "type": "name", "properties": { "name": "urn:ogc:def:crs:OGC:1.3:CRS84" } },
"features": [
{ "type": "Feature", "properties": { "_uid_": 122143.0, "id": 24098825.0, "initialdat": "2021-02-10", "finaldate": "2021-02-13", "area_ha": 64.331110268259053 }, "geometry": { "type": "MultiPolygon", "coordinates": [ [ [ [ -60.162616180853199, -30.474999997317781 ], [ -60.161243696350553, -30.474999997317781 ], [ -60.156409138033588, -30.474999997317781 ], [ -60.158983730584339, -30.479166663984081 ], [ -60.163818495812222, -30.479166663984081 ], [ -60.165886182007704, -30.479166663984081 ], [ -60.162616180853199, -30.474999997317781 ] ] ] ] } },
{ "type": "Feature", "properties": { "_uid_": 122145.0, "id": 24098828.0, "initialdat": "2021-02-10", "finaldate": "2021-02-14", "area_ha": 235.88122654926778 }, "geometry": { "type": "MultiPolygon", "coordinates": [ [ [ [ -60.127714056424061, -30.483333330650375 ], [ -60.122567229814727, -30.474999997317781 ], [ -60.117732671497741, -30.474999997317781 ], [ -60.120305608761143, -30.479166663984081 ], [ -60.115470843533245, -30.479166663984081 ], [ -60.118044112059863, -30.483333330650375 ], [ -60.11320913987776, -30.483333330650375 ], [ -60.115782739677357, -30.487499997316675 ], [ -60.120617918856951, -30.487499997316675 ], [ -60.125767147648006, -30.495833330649273 ], [ -60.130602740952476, -30.495833330649273 ], [ -60.128027650241236, -30.491666663982965 ], [ -60.132863036461622, -30.491666663982965 ], [ -60.137698422681986, -30.491666663982965 ], [ -60.135123456395704, -30.487499997316675 ], [ -60.132549028606157, -30.483333330650375 ], [ -60.127714056424061, -30.483333330650375 ] ] ] ] } },
{ "type": "Feature", "properties": { "_uid_": 122146.0, "id": 24098829.0, "initialdat": "2021-02-10", "finaldate": "2021-02-13", "area_ha": 42.887565971219537 }, "geometry": { "type": "MultiPolygon", "coordinates": [ [ [ [ -60.16671074000427, -30.491666663982965 ], [ -60.161875353783884, -30.491666663982965 ], [ -60.157039967563506, -30.491666663982965 ], [ -60.159616300779312, -30.495833330649273 ], [ -60.164451894083783, -30.495833330649273 ], [ -60.169287487388253, -30.495833330649273 ], [ -60.16671074000427, -30.491666663982965 ] ] ] ] } },
{ "type": "Feature", "properties": { "_uid_": 122147.0, "id": 24098830.0, "initialdat": "2021-02-20", "finaldate": "2021-03-08", "area_ha": 686.213893797791 }, "geometry": { "type": "MultiPolygon", "coordinates": [ [ [ [ -60.074135693331819, -30.599999997306703 ], [ -60.069294908827914, -30.599999997306703 ], [ -60.059613339820103, -30.599999997306703 ], [ -60.054772555316191, -30.599999997306703 ], [ -60.057355642960061, -30.604166663973004 ], [ -60.047673657526708, -30.604166663973004 ], [ -60.042832664810028, -30.604166663973004 ], [ -60.037991672093355, -30.604166663973004 ], [ -60.033150679376689, -30.604166663973004 ], [ -60.035733265597678, -30.608333330639304 ], [ -60.040574466570639, -30.608333330639304 ], [ -60.045415667543601, -30.608333330639304 ], [ -60.05025686851657, -30.608333330639304 ], [ -60.052840619374948, -30.612499997305598 ], [ -60.057682028647726, -30.612499997305598 ], [ -60.06252343792049, -30.612499997305598 ], [ -60.067364847193268, -30.612499997305598 ], [ -60.064780471435462, -30.608333330639304 ], [ -60.079304074354354, -30.608333330639304 ], [ -60.076719613826782, -30.604166663973004 ], [ -60.074135693331819, -30.599999997306703 ] ] ], [ [ [ -60.074135693331819, -30.599999997306703 ], [ -60.078976477835731, -30.599999997306703 ], [ -60.076392889107126, -30.59583333064041 ], [ -60.08123346544177, -30.59583333064041 ], [ -60.086074041776421, -30.59583333064041 ], [ -60.09091461811105, -30.59583333064041 ], [ -60.088330944887318, -30.591666663974113 ], [ -60.085747811579239, -30.587499997307813 ], [ -60.080907651452634, -30.587499997307813 ], [ -60.078325266002075, -30.583333330641519 ], [ -60.083165218089896, -30.583333330641519 ], [ -60.078001650179715, -30.574999997308922 ], [ -60.073162114039043, -30.574999997308922 ], [ -60.068322577898364, -30.574999997308922 ], [ -60.07219451409626, -30.581249810369346 ], [ -60.070903676137313, -30.579166663975219 ], [ -60.066063932044806, -30.579166663975219 ], [ -60.073809840260679, -30.591666663974113 ], [ -60.068969472051791, -30.591666663974113 ], [ -60.064129103842916, -30.591666663974113 ], [ -60.066711736437846, -30.59583333064041 ], [ -60.071552312772489, -30.59583333064041 ], [ -60.074135693331819, -30.599999997306703 ] ] ] ] } },
{ "type": "Feature", "properties": { "_uid_": 122148.0, "id": 24098831.0, "initialdat": "2021-02-15", "finaldate": "2021-02-15", "area_ha": 21.444203740715981 }, "geometry": { "type": "MultiPolygon", "coordinates": [ [ [ [ -60.07122733119941, -30.587499997307813 ], [ -60.066387171072805, -30.587499997307813 ], [ -60.068969472051791, -30.591666663974113 ], [ -60.073809840260679, -30.591666663974113 ], [ -60.07122733119941, -30.587499997307813 ] ] ] ] } },
{ "type": "Feature", "properties": { "_uid_": 122149.0, "id": 24098832.0, "initialdat": "2021-02-13", "finaldate": "2021-02-13", "area_ha": 21.444240463483332 }, "geometry": { "type": "MultiPolygon", "coordinates": [ [ [ [ -60.071552312772489, -30.59583333064041 ], [ -60.066711736437846, -30.59583333064041 ], [ -60.069294908827914, -30.599999997306703 ], [ -60.074135693331819, -30.599999997306703 ], [ -60.071552312772489, -30.59583333064041 ] ] ] ] } },
{ "type": "Feature", "properties": { "_uid_": 122150.0, "id": 24098834.0, "initialdat": "2021-02-15", "finaldate": "2021-02-18", "area_ha": 150.12592303078173 }, "geometry": { "type": "MultiPolygon", "coordinates": [ [ [ [ -60.45092369516609, -31.183333330588354 ], [ -60.446053333927345, -31.183333330588354 ], [ -60.448714031030725, -31.187499997254655 ], [ -60.453584606651638, -31.187499997254655 ], [ -60.45092369516609, -31.183333330588354 ] ] ], [ [ [ -60.446053333927345, -31.183333330588354 ], [ -60.443393190679593, -31.179166663922061 ], [ -60.42878274997598, -31.179166663922061 ], [ -60.431442250211106, -31.183333330588354 ], [ -60.426571888972369, -31.183333330588354 ], [ -60.429231728547059, -31.187499997254655 ], [ -60.434102304167979, -31.187499997254655 ], [ -60.438972879788892, -31.187499997254655 ], [ -60.443843455409805, -31.187499997254655 ], [ -60.441182972688601, -31.183333330588354 ], [ -60.446053333927345, -31.183333330588354 ] ] ] ] } },
{ "type": "Feature", "properties": { "_uid_": 122151.0, "id": 24098835.0, "initialdat": "2021-02-17", "finaldate": "2021-02-17", "area_ha": 42.893938326907161 }, "geometry": { "type": "MultiPolygon", "coordinates": [ [ [ [ -60.45494612459003, -31.21249999725244 ], [ -60.445202398886956, -31.21249999725244 ], [ -60.447866117038259, -31.21666666391873 ], [ -60.4576102721309, -31.21666666391873 ], [ -60.45494612459003, -31.21249999725244 ] ] ] ] } },
{ "type": "Feature", "properties": { "_uid_": 160856.0, "id": 24179231.0, "initialdat": "2021-03-07", "finaldate": "2021-03-07", "area_ha": 21.44420386371613 }, "geometry": { "type": "MultiPolygon", "coordinates": [ [ [ [ -60.090587971705858, -30.587499997307813 ], [ -60.085747811579239, -30.587499997307813 ], [ -60.088330944887318, -30.591666663974113 ], [ -60.093171313096207, -30.591666663974113 ], [ -60.090587971705858, -30.587499997307813 ] ] ] ] } },
{ "type": "Feature", "properties": { "_uid_": 191225.0, "id": 24179232.0, "initialdat": "2021-03-13", "finaldate": "2021-03-30", "area_ha": 536.10529481747153 }, "geometry": { "type": "MultiPolygon", "coordinates": [ [ [ [ -60.079304074354354, -30.608333330639304 ], [ -60.0744628733814, -30.608333330639304 ], [ -60.079632998279472, -30.616666663971898 ], [ -60.08447461589558, -30.616666663971898 ], [ -60.089316233511703, -30.616666663971898 ], [ -60.086730484284381, -30.612499997305598 ], [ -60.091571893557152, -30.612499997305598 ], [ -60.101254712102708, -30.612499997305598 ], [ -60.098668878246222, -30.608333330639304 ], [ -60.108351280192153, -30.608333330639304 ], [ -60.105765570126842, -30.604166663973004 ], [ -60.110606562843529, -30.604166663973004 ], [ -60.108021184859169, -30.599999997306703 ], [ -60.112861969363074, -30.599999997306703 ], [ -60.110276923449639, -30.59583333064041 ], [ -60.100595770780345, -30.59583333064041 ], [ -60.095755194445701, -30.59583333064041 ], [ -60.09091461811105, -30.59583333064041 ], [ -60.094791226967708, -30.602083143497079 ], [ -60.093498831347446, -30.599999997306703 ], [ -60.088658046843541, -30.599999997306703 ], [ -60.086074041776421, -30.59583333064041 ], [ -60.08123346544177, -30.59583333064041 ], [ -60.083817262339622, -30.599999997306703 ], [ -60.078976477835731, -30.599999997306703 ], [ -60.074135693331819, -30.599999997306703 ], [ -60.079304074354354, -30.608333330639304 ] ] ] ] } },
{ "type": "Feature", "properties": { "_uid_": 221599.0, "id": 24244007.0, "initialdat": "2021-04-04", "finaldate": "2021-04-04", "area_ha": 21.444919616174698 }, "geometry": { "type": "MultiPolygon", "coordinates": [ [ [ [ -60.206284207381245, -30.749999997293415 ], [ -60.201435899746564, -30.749999997293415 ], [ -60.204040791252332, -30.754166663959712 ], [ -60.20888930867131, -30.754166663959712 ], [ -60.206284207381245, -30.749999997293415 ] ] ] ] } },
{ "type": "Feature", "properties": { "_uid_": 366423.0, "id": 24366140.0, "initialdat": "2021-06-15", "finaldate": "2021-06-15", "area_ha": 21.444478789293765 }, "geometry": { "type": "MultiPolygon", "coordinates": [ [ [ [ -60.105178402787487, -30.649999997302281 ], [ -60.100335116856563, -30.649999997302281 ], [ -60.102925315418524, -30.654166663968574 ], [ -60.107768810084927, -30.654166663968574 ], [ -60.105178402787487, -30.649999997302281 ] ] ] ] } },
{ "type": "Feature", "properties": { "_uid_": 366424.0, "id": 24366141.0, "initialdat": "2021-06-23", "finaldate": "2021-06-28", "area_ha": 85.778429311275488 }, "geometry": { "type": "MultiPolygon", "coordinates": [ [ [ [ -60.103943630477623, -30.67916666396636 ], [ -60.099098882482245, -30.67916666396636 ], [ -60.094254134486874, -30.67916666396636 ], [ -60.089409386491496, -30.67916666396636 ], [ -60.084564638496133, -30.67916666396636 ], [ -60.087157163905822, -30.68333333063266 ], [ -60.092002120942098, -30.68333333063266 ], [ -60.096847077978403, -30.68333333063266 ], [ -60.101692035014686, -30.68333333063266 ], [ -60.106536992050962, -30.68333333063266 ], [ -60.103943630477623, -30.67916666396636 ] ] ] ] } },
{ "type": "Feature", "properties": { "_uid_": 416121.0, "id": 24462084.0, "initialdat": "2021-07-09", "finaldate": "2021-07-09", "area_ha": 21.443161803209783 }, "geometry": { "type": "MultiPolygon", "coordinates": [ [ [ [ -60.050451090209393, -30.349999997328858 ], [ -60.045622719131948, -30.349999997328858 ], [ -60.048179760140805, -30.354166663995155 ], [ -60.053008336834296, -30.354166663995155 ], [ -60.050451090209393, -30.349999997328858 ] ] ] ] } },
{ "type": "Feature", "properties": { "_uid_": 416122.0, "id": 24462085.0, "initialdat": "2021-07-02", "finaldate": "2021-07-06", "area_ha": 364.5612897325754 }, "geometry": { "type": "MultiPolygon", "coordinates": [ [ [ [ -60.101010916157428, -30.666666663967465 ], [ -60.096166795022882, -30.666666663967465 ], [ -60.091322673888342, -30.666666663967465 ], [ -60.093914202016578, -30.670833330633766 ], [ -60.084225541927552, -30.670833330633766 ], [ -60.08163443161925, -30.666666663967465 ], [ -60.076790310484711, -30.666666663967465 ], [ -60.079381211883046, -30.670833330633766 ], [ -60.084564638496133, -30.67916666396636 ], [ -60.103943630477623, -30.67916666396636 ], [ -60.108788378473001, -30.67916666396636 ], [ -60.113633126468372, -30.67916666396636 ], [ -60.11103988850973, -30.674999997300059 ], [ -60.115884427507858, -30.674999997300059 ], [ -60.113291522194622, -30.670833330633766 ], [ -60.108447192150102, -30.670833330633766 ], [ -60.105855037291974, -30.666666663967465 ], [ -60.101010916157428, -30.666666663967465 ] ] ] ] } },
{ "type": "Feature", "properties": { "_uid_": 461491.0, "id": 24462086.0, "initialdat": "2021-07-27", "finaldate": "2021-07-28", "area_ha": 85.777369522476192 }, "geometry": { "type": "MultiPolygon", "coordinates": [ [ [ [ -60.181459598403634, -30.67916666396636 ], [ -60.171770102412864, -30.67916666396636 ], [ -60.176963221023207, -30.68749999729895 ], [ -60.181808387144081, -30.68749999729895 ], [ -60.179211347595299, -30.68333333063266 ], [ -60.184056304631596, -30.68333333063266 ], [ -60.181459598403634, -30.67916666396636 ] ] ], [ [ [ -60.176963221023207, -30.68749999729895 ], [ -60.174366390559008, -30.68333333063266 ], [ -60.169521433522718, -30.68333333063266 ], [ -60.172118054902356, -30.68749999729895 ], [ -60.176963221023207, -30.68749999729895 ] ] ] ] } },
{ "type": "Feature", "properties": { "_uid_": 461493.0, "id": 24462089.0, "initialdat": "2021-07-27", "finaldate": "2021-08-01", "area_ha": 193.00339985754491 }, "geometry": { "type": "MultiPolygon", "coordinates": [ [ [ [ -60.167856408633, -30.758333330626012 ], [ -60.170460708964541, -30.762499997292306 ], [ -60.175309646083484, -30.762499997292306 ], [ -60.172705135880058, -30.758333330626012 ], [ -60.177553863127123, -30.758333330626012 ], [ -60.174949686738493, -30.754166663959712 ], [ -60.179798204157464, -30.754166663959712 ], [ -60.177194361573122, -30.749999997293415 ], [ -60.182042669207803, -30.749999997293415 ], [ -60.17943916041726, -30.745833330627121 ], [ -60.169742964628888, -30.745833330627121 ], [ -60.17234605393844, -30.749999997293415 ], [ -60.162649438669078, -30.749999997293415 ], [ -60.165252651900545, -30.754166663959712 ], [ -60.160404134481567, -30.754166663959712 ], [ -60.163007681385935, -30.758333330626012 ], [ -60.167856408633, -30.758333330626012 ] ] ] ] } },
{ "type": "Feature", "properties": { "_uid_": 520178.0, "id": 24582510.0, "initialdat": "2021-08-07", "finaldate": "2021-08-07", "area_ha": 21.442779078924655 }, "geometry": { "type": "MultiPolygon", "coordinates": [ [ [ [ -60.016168678242188, -30.262499997336612 ], [ -60.011344615170216, -30.262499997336612 ], [ -60.013891253971565, -30.266666664002909 ], [ -60.018715521757272, -30.266666664002909 ], [ -60.016168678242188, -30.262499997336612 ] ] ] ] } },
{ "type": "Feature", "properties": { "_uid_": 520186.0, "id": 24582525.0, "initialdat": "2021-08-07", "finaldate": "2021-08-07", "area_ha": 21.444717582380772 }, "geometry": { "type": "MultiPolygon", "coordinates": [ [ [ [ -60.167971956430897, -30.704166663964145 ], [ -60.163125953534923, -30.704166663964145 ], [ -60.16572445054021, -30.708333330630438 ], [ -60.170570662739216, -30.708333330630438 ], [ -60.167971956430897, -30.704166663964145 ] ] ] ] } },
{ "type": "Feature", "properties": { "_uid_": 520187.0, "id": 24582531.0, "initialdat": "2021-08-13", "finaldate": "2021-08-13", "area_ha": 21.444901246535778 }, "geometry": { "type": "MultiPolygon", "coordinates": [ [ [ [ -60.164894866734699, -30.745833330627121 ], [ -60.160046768840509, -30.745833330627121 ], [ -60.162649438669078, -30.749999997293415 ], [ -60.167497746303759, -30.749999997293415 ], [ -60.164894866734699, -30.745833330627121 ] ] ] ] } },
{ "type": "Feature", "properties": { "_uid_": 520188.0, "id": 24582533.0, "initialdat": "2021-08-15", "finaldate": "2021-08-15", "area_ha": 21.444956421554089 }, "geometry": { "type": "MultiPolygon", "coordinates": [ [ [ [ -60.167856408633, -30.758333330626012 ], [ -60.163007681385935, -30.758333330626012 ], [ -60.165611771845569, -30.762499997292306 ], [ -60.170460708964541, -30.762499997292306 ], [ -60.167856408633, -30.758333330626012 ] ] ] ] } },
{ "type": "Feature", "properties": { "_uid_": 581771.0, "id": 24582526.0, "initialdat": "2021-08-21", "finaldate": "2021-08-21", "area_ha": 21.444717434251309 }, "geometry": { "type": "MultiPolygon", "coordinates": [ [ [ [ -60.10497391878306, -30.704166663964145 ], [ -60.100127915887086, -30.704166663964145 ], [ -60.102723691953095, -30.708333330630438 ], [ -60.107569904152101, -30.708333330630438 ], [ -60.10497391878306, -30.704166663964145 ] ] ] ] } },
{ "type": "Feature", "properties": { "_uid_": 581772.0, "id": 24582527.0, "initialdat": "2021-08-14", "finaldate": "2021-08-22", "area_ha": 900.67973782720571 }, "geometry": { "type": "MultiPolygon", "coordinates": [ [ [ [ -60.18357233718443, -30.72916666396193 ], [ -60.188419596554397, -30.72916666396193 ], [ -60.183216878804529, -30.720833330629336 ], [ -60.180616334579192, -30.716666663963036 ], [ -60.175769703642992, -30.716666663963036 ], [ -60.170923072706799, -30.716666663963036 ], [ -60.166076441770599, -30.716666663963036 ], [ -60.168676357693393, -30.720833330629336 ], [ -60.163829517323016, -30.720833330629336 ], [ -60.166429766703772, -30.724999997295637 ], [ -60.151888617158896, -30.724999997295637 ], [ -60.154488780964719, -30.72916666396193 ], [ -60.149641521594774, -30.72916666396193 ], [ -60.144794262224814, -30.72916666396193 ], [ -60.149995380455373, -30.737499997294528 ], [ -60.154843058999916, -30.737499997294528 ], [ -60.159690737544452, -30.737499997294528 ], [ -60.162292530514272, -30.741666663960821 ], [ -60.167140418711739, -30.741666663960821 ], [ -60.164538687687184, -30.737499997294528 ], [ -60.169386094633523, -30.737499997294528 ], [ -60.174233773178052, -30.737499997294528 ], [ -60.179081451722595, -30.737499997294528 ], [ -60.183929130267131, -30.737499997294528 ], [ -60.18877680881166, -30.737499997294528 ], [ -60.186174301339449, -30.733333330628227 ], [ -60.181326832404082, -30.733333330628227 ], [ -60.178725077814491, -30.72916666396193 ], [ -60.18357233718443, -30.72916666396193 ] ] ], [ [ [ -60.144794262224814, -30.72916666396193 ], [ -60.139947002854861, -30.72916666396193 ], [ -60.135099743484908, -30.72916666396193 ], [ -60.138999836147718, -30.735416476073684 ], [ -60.137699611985788, -30.733333330628227 ], [ -60.128004674115076, -30.733333330628227 ], [ -60.123157205179695, -30.733333330628227 ], [ -60.125756987732693, -30.737499997294528 ], [ -60.130604666277236, -30.737499997294528 ], [ -60.135452344821779, -30.737499997294528 ], [ -60.138053089526899, -30.741666663960821 ], [ -60.133205201329417, -30.741666663960821 ], [ -60.135806279369561, -30.745833330627121 ], [ -60.140654377263751, -30.745833330627121 ], [ -60.145502475157933, -30.745833330627121 ], [ -60.142900977724366, -30.741666663960821 ], [ -60.147748865921841, -30.741666663960821 ], [ -60.145147701910844, -30.737499997294528 ], [ -60.149995380455373, -30.737499997294528 ], [ -60.147394549856521, -30.733333330628227 ], [ -60.144794262224814, -30.72916666396193 ] ] ], [ [ [ -60.123157205179695, -30.733333330628227 ], [ -60.120557965375049, -30.72916666396193 ], [ -60.115710706005096, -30.72916666396193 ], [ -60.118309736244349, -30.733333330628227 ], [ -60.123157205179695, -30.733333330628227 ] ] ] ] } },
{ "type": "Feature", "properties": { "_uid_": 581774.0, "id": 24582529.0, "initialdat": "2021-08-30", "finaldate": "2021-09-05", "area_ha": 235.89276803514957 }, "geometry": { "type": "MultiPolygon", "coordinates": [ [ [ [ -59.938953385635848, -30.733333330628227 ], [ -59.944137561627905, -30.741666663960821 ], [ -59.948985449825386, -30.741666663960821 ], [ -59.953833338022868, -30.741666663960821 ], [ -59.958681226220335, -30.741666663960821 ], [ -59.956088238673935, -30.737499997294528 ], [ -59.951240560129406, -30.737499997294528 ], [ -59.948648323506589, -30.733333330628227 ], [ -59.943465473682345, -30.724999997295637 ], [ -59.933771373985749, -30.724999997295637 ], [ -59.936362109316853, -30.72916666396193 ], [ -59.9315148499469, -30.72916666396193 ], [ -59.934105916700489, -30.733333330628227 ], [ -59.936697524495798, -30.737499997294528 ], [ -59.941545203040327, -30.737499997294528 ], [ -59.938953385635848, -30.733333330628227 ] ] ] ] } },
{ "type": "Feature", "properties": { "_uid_": 581776.0, "id": 24582532.0, "initialdat": "2021-08-21", "finaldate": "2021-08-21", "area_ha": 21.444938095688819 }, "geometry": { "type": "MultiPolygon", "coordinates": [ [ [ [ -60.150707099643618, -30.754166663959712 ], [ -60.145858582224648, -30.754166663959712 ], [ -60.148461499644753, -30.758333330626012 ], [ -60.153310226891811, -30.758333330626012 ], [ -60.150707099643618, -30.754166663959712 ] ] ] ] } },
{ "type": "Feature", "properties": { "_uid_": 642217.0, "id": 24713761.0, "initialdat": "2021-09-08", "finaldate": "2021-09-08", "area_ha": 21.444882838475703 }, "geometry": { "type": "MultiPolygon", "coordinates": [ [ [ [ -59.948985449825386, -30.741666663960821 ], [ -59.944137561627905, -30.741666663960821 ], [ -59.946730461496202, -30.745833330627121 ], [ -59.951578559390391, -30.745833330627121 ], [ -59.948985449825386, -30.741666663960821 ] ] ] ] } },
{ "type": "Feature", "properties": { "_uid_": 683510.0, "id": 24713763.0, "initialdat": "2021-09-13", "finaldate": "2021-09-16", "area_ha": 193.02334991419315 }, "geometry": { "type": "MultiPolygon", "coordinates": [ [ [ [ -60.36371076567869, -31.145833330591678 ], [ -60.358842331872282, -31.145833330591678 ], [ -60.361495266166891, -31.149999997257975 ], [ -60.356626618379643, -31.149999997257975 ], [ -60.359279891116017, -31.154166663924268 ], [ -60.354411029303378, -31.154166663924268 ], [ -60.357064640493327, -31.158333330590569 ], [ -60.371671868141107, -31.158333330590569 ], [ -60.369018167320299, -31.154166663924268 ], [ -60.373886476553928, -31.154166663924268 ], [ -60.378755338366581, -31.154166663924268 ], [ -60.376101209528642, -31.149999997257975 ], [ -60.371232561741387, -31.149999997257975 ], [ -60.368579199485119, -31.145833330591678 ], [ -60.36371076567869, -31.145833330591678 ] ] ] ] } },
{ "type": "Feature", "properties": { "_uid_": 683511.0, "id": 24713764.0, "initialdat": "2021-09-28", "finaldate": "2021-09-28", "area_ha": 21.447043213152885 }, "geometry": { "type": "MultiPolygon", "coordinates": [ [ [ [ -60.178115450592131, -31.229166663917624 ], [ -60.173242728693289, -31.229166663917624 ], [ -60.175896202737185, -31.233333330583925 ], [ -60.180769139509636, -31.233333330583925 ], [ -60.178115450592131, -31.229166663917624 ] ] ] ] } },
{ "type": "Feature", "properties": { "_uid_": 800845.0, "id": 24888439.0, "initialdat": "2021-11-02", "finaldate": "2021-11-07", "area_ha": 235.90705459892749 }, "geometry": { "type": "MultiPolygon", "coordinates": [ [ [ [ -60.366248003002234, -30.979166663939775 ], [ -60.364954781777115, -30.979166663939775 ], [ -60.36653273354851, -30.981661087725062 ], [ -60.366248003002234, -30.979166663939775 ] ] ] ] } },
{ "type": "Feature", "properties": { "_uid_": 800846.0, "id": 24888441.0, "initialdat": "2021-11-02", "finaldate": "2021-11-07", "area_ha": 107.23055094499588 }, "geometry": { "type": "MultiPolygon", "coordinates": [ [ [ [ -60.357303261916691, -31.020833330602752 ], [ -60.352441226854495, -31.020833330602752 ], [ -60.355080823629365, -31.024999997269052 ], [ -60.359943071339323, -31.024999997269052 ], [ -60.364805319049303, -31.024999997269052 ], [ -60.369667566759261, -31.024999997269052 ], [ -60.367027332041076, -31.020833330602752 ], [ -60.364387647474175, -31.016666663936455 ], [ -60.359525825015446, -31.016666663936455 ], [ -60.354664002556703, -31.016666663936455 ], [ -60.357303261916691, -31.020833330602752 ] ] ] ] } },
{ "type": "Feature", "properties": { "_uid_": 837379.0, "id": 24888437.0, "initialdat": "2021-11-21", "finaldate": "2021-11-26", "area_ha": 300.23197999370097 }, "geometry": { "type": "MultiPolygon", "coordinates": [ [ [ [ -60.263342196986549, -30.833333330619368 ], [ -60.260726534252541, -30.829166663953067 ], [ -60.255874233219096, -30.829166663953067 ], [ -60.258489685335284, -30.833333330619368 ], [ -60.263342196986549, -30.833333330619368 ] ] ], [ [ [ -60.263342196986549, -30.833333330619368 ], [ -60.273047220289087, -30.833333330619368 ], [ -60.270431136319445, -30.829166663953067 ], [ -60.275283437352897, -30.829166663953067 ], [ -60.280135738386342, -30.829166663953067 ], [ -60.277519779067774, -30.824999997286767 ], [ -60.282371869527346, -30.824999997286767 ], [ -60.277141167139519, -30.816666663954177 ], [ -60.262586158808709, -30.816666663954177 ], [ -60.265200605677961, -30.820833330620474 ], [ -60.260348725748322, -30.820833330620474 ], [ -60.262963507689058, -30.824999997286767 ], [ -60.258111417229493, -30.824999997286767 ], [ -60.263342196986549, -30.833333330619368 ] ] ] ] } },
{ "type": "Feature", "properties": { "_uid_": 837381.0, "id": 24888442.0, "initialdat": "2021-11-26", "finaldate": "2021-11-30", "area_ha": 64.33977691754103 }, "geometry": { "type": "MultiPolygon", "coordinates": [ [ [ [ -60.311514391883392, -31.12499999726019 ], [ -60.306647027312977, -31.12499999726019 ], [ -60.309295490719471, -31.129166663926483 ], [ -60.314163069048035, -31.129166663926483 ], [ -60.311514391883392, -31.12499999726019 ] ] ], [ [ [ -60.309295490719471, -31.129166663926483 ], [ -60.299560334062356, -31.129166663926483 ], [ -60.30220892147036, -31.133333330592784 ], [ -60.311944505732804, -31.133333330592784 ], [ -60.309295490719471, -31.129166663926483 ] ] ] ] } },
{ "type": "Feature", "properties": { "_uid_": 872626.0, "id": 24971423.0, "initialdat": "2021-12-09", "finaldate": "2021-12-10", "area_ha": 42.891958253109458 }, "geometry": { "type": "MultiPolygon", "coordinates": [ [ [ [ -60.180673845205384, -30.987499997272369 ], [ -60.17581350973088, -30.987499997272369 ], [ -60.178441915766321, -30.99166666393867 ], [ -60.183302463534346, -30.99166666393867 ], [ -60.180673845205384, -30.987499997272369 ] ] ], [ [ [ -60.178441915766321, -30.99166666393867 ], [ -60.173581367998288, -30.99166666393867 ], [ -60.176210109598436, -30.995833330604967 ], [ -60.181070869704236, -30.995833330604967 ], [ -60.178441915766321, -30.99166666393867 ] ] ] ] } },
{ "type": "Feature", "properties": { "_uid_": 872629.0, "id": 24971437.0, "initialdat": "2021-12-03", "finaldate": "2021-12-04", "area_ha": 300.24703956675529 }, "geometry": { "type": "MultiPolygon", "coordinates": [ [ [ [ -60.373997798419339, -31.062499997265729 ], [ -60.383726125489687, -31.062499997265729 ], [ -60.381081360994862, -31.058333330599432 ], [ -60.375793484798912, -31.049999997266838 ], [ -60.366066435743818, -31.049999997266838 ], [ -60.368709672493296, -31.054166663933131 ], [ -60.354118460036176, -31.054166663933131 ], [ -60.356761608553619, -31.058333330599432 ], [ -60.351897658065354, -31.058333330599432 ], [ -60.354541144278642, -31.062499997265729 ], [ -60.35940530781383, -31.062499997265729 ], [ -60.362049557917139, -31.066666663932022 ], [ -60.366913934543611, -31.066666663932022 ], [ -60.364269471349004, -31.062499997265729 ], [ -60.373997798419339, -31.062499997265729 ] ] ] ] } },
{ "type": "Feature", "properties": { "_uid_": 904199.0, "id": 24971344.0, "initialdat": "2021-12-20", "finaldate": "2021-12-20", "area_ha": 21.443782735037804 }, "geometry": { "type": "MultiPolygon", "coordinates": [ [ [ [ -60.152204581343135, -30.491666663982965 ], [ -60.147369195122756, -30.491666663982965 ], [ -60.149945114170372, -30.495833330649273 ], [ -60.154780707474842, -30.495833330649273 ], [ -60.152204581343135, -30.491666663982965 ] ] ] ] } },
{ "type": "Feature", "properties": { "_uid_": 904208.0, "id": 24971357.0, "initialdat": "2021-12-25", "finaldate": "2022-01-06", "area_ha": 514.65865508792399 }, "geometry": { "type": "MultiPolygon", "coordinates": [ [ [ [ -60.138660093432513, -30.579166663975219 ], [ -60.136076083867799, -30.574999997308922 ], [ -60.133492614352676, -30.570833330642628 ], [ -60.123813957888089, -30.570833330642628 ], [ -60.118974629655789, -30.570833330642628 ], [ -60.114135301423495, -30.570833330642628 ], [ -60.116717939305104, -30.574999997308922 ], [ -60.111878403164425, -30.574999997308922 ], [ -60.117044882704647, -30.583333330641519 ], [ -60.112204930616826, -30.583333330641519 ], [ -60.107364978529006, -30.583333330641519 ], [ -60.112532785931712, -30.591666663974113 ], [ -60.117373154140587, -30.591666663974113 ], [ -60.127053890558365, -30.591666663974113 ], [ -60.124469092592115, -30.587499997307813 ], [ -60.12930925271872, -30.587499997307813 ], [ -60.134149412845339, -30.587499997307813 ], [ -60.13156473896813, -30.583333330641519 ], [ -60.136404691055951, -30.583333330641519 ], [ -60.141244643143771, -30.583333330641519 ], [ -60.138660093432513, -30.579166663975219 ] ] ], [ [ [ -60.138660093432513, -30.579166663975219 ], [ -60.143499837525027, -30.579166663975219 ], [ -60.138331942584962, -30.570833330642628 ], [ -60.133492614352676, -30.570833330642628 ], [ -60.138660093432513, -30.579166663975219 ] ] ] ] } },
{ "type": "Feature", "properties": { "_uid_": 904236.0, "id": 24971393.0, "initialdat": "2021-12-16", "finaldate": "2021-12-18", "area_ha": 343.12413188142779 }, "geometry": { "type": "MultiPolygon", "coordinates": [ [ [ [ -60.186464075294808, -30.795833330622688 ], [ -60.191314692966913, -30.795833330622688 ], [ -60.205866545983213, -30.795833330622688 ], [ -60.19804032945185, -30.78333333062379 ], [ -60.202890316587656, -30.78333333062379 ], [ -60.200282456423821, -30.779166663957497 ], [ -60.190582902334313, -30.779166663957497 ], [ -60.193190342316043, -30.78333333062379 ], [ -60.183490368044446, -30.78333333062379 ], [ -60.178640380908625, -30.78333333062379 ], [ -60.181247734761747, -30.787499997290091 ], [ -60.176397537491042, -30.787499997290091 ], [ -60.18161345762271, -30.795833330622688 ], [ -60.186464075294808, -30.795833330622688 ] ] ] ] } },
{ "type": "Feature", "properties": { "_uid_": 904238.0, "id": 24971395.0, "initialdat": "2021-12-25", "finaldate": "2021-12-31", "area_ha": 343.11990796710251 }, "geometry": { "type": "MultiPolygon", "coordinates": [ [ [ [ -59.939008649365576, -30.794205553701318 ], [ -59.938573094582196, -30.801464690825668 ], [ -59.938671886434392, -30.802624585073293 ], [ -59.939232499564028, -30.805268021569653 ], [ -59.938567032124318, -30.808333330621583 ], [ -59.942027742265246, -30.808333330621583 ], [ -59.939428604637456, -30.804166663955282 ], [ -59.944279642886457, -30.804166663955282 ], [ -59.941680837302151, -30.799999997288989 ], [ -59.946531665240769, -30.799999997288989 ], [ -59.941335260384278, -30.791666663956391 ], [ -59.937760957170191, -30.791666663956391 ], [ -59.939008649365576, -30.794205553701318 ] ] ] ] } },
{ "type": "Feature", "properties": { "_uid_": 904251.0, "id": 24971408.0, "initialdat": "2021-12-23", "finaldate": "2021-12-23", "area_ha": 21.445655993783475 }, "geometry": { "type": "MultiPolygon", "coordinates": [ [ [ [ -60.208922071787455, -30.916666663945314 ], [ -60.204065338539742, -30.916666663945314 ], [ -60.206687618581718, -30.920833330611615 ], [ -60.211544563371859, -30.920833330611615 ], [ -60.208922071787455, -30.916666663945314 ] ] ] ] } },
{ "type": "Feature", "properties": { "_uid_": 904253.0, "id": 24971410.0, "initialdat": "2021-12-23", "finaldate": "2022-01-03", "area_ha": 536.14309898619649 }, "geometry": { "type": "MultiPolygon", "coordinates": [ [ [ [ -60.212716356747599, -30.9458333306094 ], [ -60.215342043299152, -30.949999997275697 ], [ -60.220200470122087, -30.949999997275697 ], [ -60.217574571719098, -30.9458333306094 ], [ -60.222432786690611, -30.9458333306094 ], [ -60.227291001662117, -30.9458333306094 ], [ -60.23214921663363, -30.9458333306094 ], [ -60.229523230235863, -30.941666663943099 ], [ -60.224665227071611, -30.941666663943099 ], [ -60.219807223907367, -30.941666663943099 ], [ -60.217182208495913, -30.937499997276799 ], [ -60.21232441709477, -30.937499997276799 ], [ -60.209700160674728, -30.933333330610505 ], [ -60.20484258099254, -30.933333330610505 ], [ -60.202219083376313, -30.929166663944205 ], [ -60.197361715368913, -30.929166663944205 ], [ -60.192504347361528, -30.929166663944205 ], [ -60.187646979354149, -30.929166663944205 ], [ -60.190269841945941, -30.933333330610505 ], [ -60.180554682581551, -30.933333330610505 ], [ -60.175697102899356, -30.933333330610505 ], [ -60.178319877286725, -30.937499997276799 ], [ -60.173462085885582, -30.937499997276799 ], [ -60.176085195429117, -30.941666663943099 ], [ -60.171227192264851, -30.941666663943099 ], [ -60.17647462871566, -30.949999997275697 ], [ -60.181333055538602, -30.949999997275697 ], [ -60.186191482361551, -30.949999997275697 ], [ -60.183567066918535, -30.9458333306094 ], [ -60.188425281890048, -30.9458333306094 ], [ -60.18580120175762, -30.941666663943099 ], [ -60.183177668687868, -30.937499997276799 ], [ -60.192893251490169, -30.937499997276799 ], [ -60.197751042891312, -30.937499997276799 ], [ -60.202608834292462, -30.937499997276799 ], [ -60.207466625693627, -30.937499997276799 ], [ -60.210091217578871, -30.941666663943099 ], [ -60.205233214414612, -30.941666663943099 ], [ -60.207858141776072, -30.9458333306094 ], [ -60.212716356747599, -30.9458333306094 ] ] ] ] } },
{ "type": "Feature", "properties": { "_uid_": 904255.0, "id": 24971413.0, "initialdat": "2021-12-23", "finaldate": "2022-01-14", "area_ha": 922.17097015742058 }, "geometry": { "type": "MultiPolygon", "coordinates": [ [ [ [ -60.296108327879011, -30.962499997274591 ], [ -60.300967390521286, -30.962499997274591 ], [ -60.295706496829432, -30.95416666394199 ], [ -60.293076872466088, -30.949999997275697 ], [ -60.288218445643167, -30.949999997275697 ], [ -60.283360018820211, -30.949999997275697 ], [ -60.278501591997284, -30.949999997275697 ], [ -60.27364343918051, -30.949999997275697 ], [ -60.271014936405713, -30.9458333306094 ], [ -60.266156721434207, -30.9458333306094 ], [ -60.261298506462694, -30.9458333306094 ], [ -60.263926311528493, -30.949999997275697 ], [ -60.259067884705551, -30.949999997275697 ], [ -60.254209457882624, -30.949999997275697 ], [ -60.256837387081184, -30.95416666394199 ], [ -60.259465864214825, -30.958333330608291 ], [ -60.254607013556523, -30.958333330608291 ], [ -60.257235826740789, -30.962499997274591 ], [ -60.2523767640985, -30.962499997274591 ], [ -60.247517701456232, -30.962499997274591 ], [ -60.250146638674103, -30.966666663940885 ], [ -60.252776123993087, -30.970833330607185 ], [ -60.257635610735903, -30.970833330607185 ], [ -60.255005913344547, -30.966666663940885 ], [ -60.260265856372143, -30.974999997273482 ], [ -60.265125555231542, -30.974999997273482 ], [ -60.26249509747872, -30.970833330607185 ], [ -60.267354584221536, -30.970833330607185 ], [ -60.272214070964338, -30.970833330607185 ], [ -60.269583737355873, -30.966666663940885 ], [ -60.274443012026332, -30.966666663940885 ], [ -60.279302286696769, -30.966666663940885 ], [ -60.276672077309897, -30.962499997274591 ], [ -60.281933044449971, -30.970833330607185 ], [ -60.286792531192773, -30.970833330607185 ], [ -60.284161835572469, -30.966666663940885 ], [ -60.28902083603765, -30.966666663940885 ], [ -60.293880110708088, -30.966666663940885 ], [ -60.298739385378539, -30.966666663940885 ], [ -60.296108327879011, -30.962499997274591 ] ] ] ] } },
{ "type": "Feature", "properties": { "_uid_": 904256.0, "id": 24971415.0, "initialdat": "2021-12-18", "finaldate": "2021-12-18", "area_ha": 42.891699689710137 }, "geometry": { "type": "MultiPolygon", "coordinates": [ [ [ [ -60.303195520139617, -30.958333330608291 ], [ -60.298336669481301, -30.958333330608291 ], [ -60.300967390521286, -30.962499997274591 ], [ -60.305826453163569, -30.962499997274591 ], [ -60.303195520139617, -30.958333330608291 ] ] ], [ [ [ -60.300967390521286, -30.962499997274591 ], [ -60.296108327879011, -30.962499997274591 ], [ -60.298739385378539, -30.966666663940885 ], [ -60.303598660048976, -30.966666663940885 ], [ -60.300967390521286, -30.962499997274591 ] ] ] ] } },
{ "type": "Feature", "properties": { "_uid_": 904258.0, "id": 24971416.0, "initialdat": "2021-12-21", "finaldate": "2021-12-23", "area_ha": 85.783887830209721 }, "geometry": { "type": "MultiPolygon", "coordinates": [ [ [ [ -60.17463176182207, -30.962499997274591 ], [ -60.169772699179781, -30.962499997274591 ], [ -60.164913636537513, -30.962499997274591 ], [ -60.167538969276578, -30.966666663940885 ], [ -60.172398243947022, -30.966666663940885 ], [ -60.182116793287911, -30.966666663940885 ], [ -60.179490824464345, -30.962499997274591 ], [ -60.176865403023548, -30.958333330608291 ], [ -60.172006552365239, -30.958333330608291 ], [ -60.17463176182207, -30.962499997274591 ] ] ] ] } },
{ "type": "Feature", "properties": { "_uid_": 904261.0, "id": 24971420.0, "initialdat": "2021-12-16", "finaldate": "2021-12-20", "area_ha": 171.56701155776975 }, "geometry": { "type": "MultiPolygon", "coordinates": [ [ [ [ -60.263299548272002, -30.987499997272369 ], [ -60.258439212797498, -30.987499997272369 ], [ -60.26107122782274, -30.99166666393867 ], [ -60.265931775590758, -30.99166666393867 ], [ -60.263299548272002, -30.987499997272369 ] ] ], [ [ [ -60.263299548272002, -30.987499997272369 ], [ -60.268159883746506, -30.987499997272369 ], [ -60.265527992777777, -30.983333330606076 ], [ -60.270388116003033, -30.983333330606076 ], [ -60.275248239228262, -30.983333330606076 ], [ -60.272616472393288, -30.979166663939775 ], [ -60.277476383413486, -30.979166663939775 ], [ -60.274844952950339, -30.974999997273482 ], [ -60.265125555231542, -30.974999997273482 ], [ -60.267756561373091, -30.979166663939775 ], [ -60.262896650352879, -30.979166663939775 ], [ -60.258036739332681, -30.979166663939775 ], [ -60.253176828312483, -30.979166663939775 ], [ -60.255807746327314, -30.983333330606076 ], [ -60.260667869552542, -30.983333330606076 ], [ -60.263299548272002, -30.987499997272369 ] ] ] ] } },
{ "type": "Feature", "properties": { "_uid_": 904263.0, "id": 24971422.0, "initialdat": "2021-12-25", "finaldate": "2021-12-25", "area_ha": 21.445951388967035 }, "geometry": { "type": "MultiPolygon", "coordinates": [ [ [ [ -60.270388116003033, -30.983333330606076 ], [ -60.265527992777777, -30.983333330606076 ], [ -60.268159883746506, -30.987499997272369 ], [ -60.273020219221031, -30.987499997272369 ], [ -60.270388116003033, -30.983333330606076 ] ] ] ] } },
{ "type": "Feature", "properties": { "_uid_": 904264.0, "id": 24971424.0, "initialdat": "2021-12-16", "finaldate": "2021-12-16", "area_ha": 21.445969758427143 }, "geometry": { "type": "MultiPolygon", "coordinates": [ [ [ [ -60.17581350973088, -30.987499997272369 ], [ -60.170953174256354, -30.987499997272369 ], [ -60.173581367998288, -30.99166666393867 ], [ -60.178441915766321, -30.99166666393867 ], [ -60.17581350973088, -30.987499997272369 ] ] ] ] } },
{ "type": "Feature", "properties": { "_uid_": 904266.0, "id": 24971427.0, "initialdat": "2021-12-18", "finaldate": "2021-12-18", "area_ha": 21.446006697487832 }, "geometry": { "type": "MultiPolygon", "coordinates": [ [ [ [ -60.176210109598436, -30.995833330604967 ], [ -60.171349349492644, -30.995833330604967 ], [ -60.173978426668576, -30.99999999727126 ], [ -60.178839399156395, -30.99999999727126 ], [ -60.176210109598436, -30.995833330604967 ] ] ] ] } },
{ "type": "Feature", "properties": { "_uid_": 904267.0, "id": 24971428.0, "initialdat": "2021-12-18", "finaldate": "2022-01-04", "area_ha": 2530.6334605639695 }, "geometry": { "type": "MultiPolygon", "coordinates": [ [ [ [ -60.382744297120531, -31.035858871869525 ], [ -60.382048836071625, -31.035204670668918 ], [ -60.380205405074307, -31.033785715591193 ], [ -60.3802224813168, -31.033593646164633 ], [ -60.38012495531936, -31.033587216792544 ], [ -60.38051059355719, -31.029256708752921 ], [ -60.380509926830747, -31.029088995656821 ], [ -60.380516554016154, -31.02889105288099 ], [ -60.380525388121399, -31.028592991877193 ], [ -60.380546027199145, -31.027792947010251 ], [ -60.38094761298467, -31.02591444584894 ], [ -60.38094630722653, -31.02558631825336 ], [ -60.37934098594264, -31.017247197673875 ], [ -60.378973114850361, -31.016666663936455 ], [ -60.379236147473051, -31.016666663936455 ], [ -60.377659300732461, -31.006918248511894 ], [ -60.375916633337006, -31.004166663937561 ], [ -60.371055448422887, -31.004166663937561 ], [ -60.373694120548045, -31.008333330603861 ], [ -60.368832723163337, -31.008333330603861 ], [ -60.371471732757627, -31.012499997270154 ], [ -60.374111292391646, -31.016666663936455 ], [ -60.364387647474175, -31.016666663936455 ], [ -60.367027332041076, -31.020833330602752 ], [ -60.357303261916691, -31.020833330602752 ], [ -60.352441226854495, -31.020833330602752 ], [ -60.349802180097974, -31.016666663936455 ], [ -60.340078535180517, -31.016666663936455 ], [ -60.34271715673011, -31.020833330602752 ], [ -60.337855121667914, -31.020833330602752 ], [ -60.332993086605732, -31.020833330602752 ], [ -60.335631832789517, -31.024999997269052 ], [ -60.330769585079544, -31.024999997269052 ], [ -60.336048301942242, -31.033333330601646 ], [ -60.33118562880378, -31.033333330601646 ], [ -60.333825599549911, -31.037499997267943 ], [ -60.328962713630688, -31.037499997267943 ], [ -60.331603021704566, -31.041666663934237 ], [ -60.326739922960272, -31.041666663934237 ], [ -60.329380568373381, -31.045833330600537 ], [ -60.334243879987127, -31.045833330600537 ], [ -60.336885288578557, -31.049999997266838 ], [ -60.346612337633637, -31.049999997266838 ], [ -60.349254722550448, -31.054166663933131 ], [ -60.354118460036176, -31.054166663933131 ], [ -60.358982197521883, -31.054166663933131 ], [ -60.363845935007596, -31.054166663933131 ], [ -60.368709672493296, -31.054166663933131 ], [ -60.366066435743818, -31.049999997266838 ], [ -60.370929960271368, -31.049999997266838 ], [ -60.375793484798912, -31.049999997266838 ], [ -60.38065700932647, -31.049999997266838 ], [ -60.378013684510854, -31.045833330600537 ], [ -60.382876996124594, -31.045833330600537 ], [ -60.387740307738341, -31.045833330600537 ], [ -60.38509710789193, -31.041666663934237 ], [ -60.382454734040188, -31.037499997267943 ], [ -60.384057149271982, -31.037499997267943 ], [ -60.382744297120531, -31.035858871869525 ] ] ], [ [ [ -60.377159331360403, -31.003827327236575 ], [ -60.377019283502079, -31.003439943080735 ], [ -60.375118771428198, -30.99999999727126 ], [ -60.373278298669497, -30.99999999727126 ], [ -60.375916633337006, -31.004166663937561 ], [ -60.377659176170432, -31.006917478441871 ], [ -60.377159331360403, -31.003827327236575 ] ] ], [ [ [ -60.328546208110374, -31.029166663935346 ], [ -60.323683747708316, -31.029166663935346 ], [ -60.326322955665312, -31.033333330601646 ], [ -60.33118562880378, -31.033333330601646 ], [ -60.328546208110374, -31.029166663935346 ] ] ] ] } },
{ "type": "Feature", "properties": { "_uid_": 904270.0, "id": 24971431.0, "initialdat": "2021-12-18", "finaldate": "2021-12-18", "area_ha": 64.338242232167715 }, "geometry": { "type": "MultiPolygon", "coordinates": [ [ [ [ -60.147837677377233, -31.012499997270154 ], [ -60.13325284767852, -31.012499997270154 ], [ -60.135881991913749, -31.016666663936455 ], [ -60.150467459289935, -31.016666663936455 ], [ -60.147837677377233, -31.012499997270154 ] ] ] ] } },
{ "type": "Feature", "properties": { "_uid_": 904271.0, "id": 24971433.0, "initialdat": "2021-12-18", "finaldate": "2021-12-18", "area_ha": 21.446136045503614 }, "geometry": { "type": "MultiPolygon", "coordinates": [ [ [ [ -60.165453162940793, -31.024999997269052 ], [ -60.160590915230834, -31.024999997269052 ], [ -60.163222554440615, -31.029166663935346 ], [ -60.168085014842667, -31.029166663935346 ], [ -60.165453162940793, -31.024999997269052 ] ] ] ] } },
{ "type": "Feature", "properties": { "_uid_": 904275.0, "id": 24971440.0, "initialdat": "2021-12-16", "finaldate": "2021-12-20", "area_ha": 128.68149161233902 }, "geometry": { "type": "MultiPolygon", "coordinates": [ [ [ [ -60.282835662359375, -31.087499997263507 ], [ -60.277970219610168, -31.087499997263507 ], [ -60.280613509724326, -31.091666663929807 ], [ -60.275747853617318, -31.091666663929807 ], [ -60.281035659069182, -31.099999997262408 ], [ -60.290767824981224, -31.099999997262408 ], [ -60.285479716566655, -31.091666663929807 ], [ -60.290344821938369, -31.091666663929807 ], [ -60.287701105108553, -31.087499997263507 ], [ -60.282835662359375, -31.087499997263507 ] ] ] ] } },
{ "type": "Feature", "properties": { "_uid_": 904276.0, "id": 24971441.0, "initialdat": "2021-12-25", "finaldate": "2022-01-03", "area_ha": 428.92796963961126 }, "geometry": { "type": "MultiPolygon", "coordinates": [ [ [ [ -60.290767824981224, -31.099999997262408 ], [ -60.281035659069182, -31.099999997262408 ], [ -60.278391480986585, -31.095833330596108 ], [ -60.26865974196798, -31.095833330596108 ], [ -60.27130349315712, -31.099999997262408 ], [ -60.266437410201114, -31.099999997262408 ], [ -60.269081498623926, -31.104166663928705 ], [ -60.273947795071145, -31.104166663928705 ], [ -60.279238051475616, -31.112499997261299 ], [ -60.284104775038642, -31.112499997261299 ], [ -60.286750943354761, -31.116666663927592 ], [ -60.291617880542411, -31.116666663927592 ], [ -60.288971498601668, -31.112499997261299 ], [ -60.293838222164695, -31.112499997261299 ], [ -60.30357166929074, -31.112499997261299 ], [ -60.300925197724879, -31.108333330594999 ], [ -60.298279277307223, -31.104166663928705 ], [ -60.293412980860005, -31.104166663928705 ], [ -60.290767824981224, -31.099999997262408 ] ] ], [ [ [ -60.292989089514464, -31.095833330596108 ], [ -60.288123220005176, -31.095833330596108 ], [ -60.290767824981224, -31.099999997262408 ], [ -60.295633907937244, -31.099999997262408 ], [ -60.292989089514464, -31.095833330596108 ] ] ], [ [ [ -60.279238051475616, -31.112499997261299 ], [ -60.276592647810467, -31.108333330594999 ], [ -60.271726137827592, -31.108333330594999 ], [ -60.27437132791259, -31.112499997261299 ], [ -60.279238051475616, -31.112499997261299 ] ] ] ] } },
{ "type": "Feature", "properties": { "_uid_": 904277.0, "id": 24971442.0, "initialdat": "2021-12-18", "finaldate": "2021-12-23", "area_ha": 128.6791837834835 }, "geometry": { "type": "MultiPolygon", "coordinates": [ [ [ [ -60.384089687107881, -31.116666663927592 ], [ -60.379222749920231, -31.116666663927592 ], [ -60.381873529121144, -31.120833330593893 ], [ -60.38674067997794, -31.120833330593893 ], [ -60.391607830834715, -31.120833330593893 ], [ -60.396474981691505, -31.120833330593893 ], [ -60.393823561483202, -31.116666663927592 ], [ -60.388522377416734, -31.108333330594999 ], [ -60.383655867433845, -31.108333330594999 ], [ -60.388956624295538, -31.116666663927592 ], [ -60.386305969862157, -31.112499997261299 ], [ -60.381439246299138, -31.112499997261299 ], [ -60.384089687107881, -31.116666663927592 ] ] ] ] } },
{ "type": "Feature", "properties": { "_uid_": 904280.0, "id": 24971444.0, "initialdat": "2021-12-19", "finaldate": "2022-01-03", "area_ha": 428.93226080881357 }, "geometry": { "type": "MultiPolygon", "coordinates": [ [ [ [ -60.279159426371812, -31.158333330590569 ], [ -60.284028502254422, -31.158333330590569 ], [ -60.281378102113827, -31.154166663924268 ], [ -60.286246963926452, -31.154166663924268 ], [ -60.28359690157091, -31.149999997257975 ], [ -60.288465549358158, -31.149999997257975 ], [ -60.285815824775952, -31.145833330591678 ], [ -60.283166651891719, -31.141666663925378 ], [ -60.280518030604725, -31.137499997259084 ], [ -60.275650024626302, -31.137499997259084 ], [ -60.265914012669462, -31.137499997259084 ], [ -60.268561992281271, -31.141666663925378 ], [ -60.263693772411131, -31.141666663925378 ], [ -60.258825552540976, -31.141666663925378 ], [ -60.261473655743842, -31.145833330591678 ], [ -60.264122310421911, -31.149999997257975 ], [ -60.266771516675902, -31.154166663924268 ], [ -60.271640378488549, -31.154166663924268 ], [ -60.274290350489224, -31.158333330590569 ], [ -60.279159426371812, -31.158333330590569 ] ] ], [ [ [ -60.258825552540976, -31.141666663925378 ], [ -60.25617800071263, -31.137499997259084 ], [ -60.251309994734214, -31.137499997259084 ], [ -60.253957332670829, -31.141666663925378 ], [ -60.258825552540976, -31.141666663925378 ] ] ] ] } },
{ "type": "Feature", "properties": { "_uid_": 904281.0, "id": 24971445.0, "initialdat": "2021-12-23", "finaldate": "2021-12-29", "area_ha": 171.57448038557769 }, "geometry": { "type": "MultiPolygon", "coordinates": [ [ [ [ -60.324763295227321, -31.145833330591678 ], [ -60.315026703597134, -31.145833330591678 ], [ -60.312375971112608, -31.141666663925378 ], [ -60.307507751242468, -31.141666663925378 ], [ -60.302639531372314, -31.141666663925378 ], [ -60.305289560001647, -31.145833330591678 ], [ -60.307940140507156, -31.149999997257975 ], [ -60.317677436081652, -31.149999997257975 ], [ -60.327414731656148, -31.149999997257975 ], [ -60.324763295227321, -31.145833330591678 ] ] ], [ [ [ -60.307940140507156, -31.149999997257975 ], [ -60.303071492719901, -31.149999997257975 ], [ -60.305722411177001, -31.154166663924268 ], [ -60.310591272989654, -31.154166663924268 ], [ -60.307940140507156, -31.149999997257975 ] ] ], [ [ [ -60.310591272989654, -31.154166663924268 ], [ -60.313242957549974, -31.158333330590569 ], [ -60.318112033432584, -31.158333330590569 ], [ -60.315460134802287, -31.154166663924268 ], [ -60.310591272989654, -31.154166663924268 ] ] ] ] } },
{ "type": "Feature", "properties": { "_uid_": 904282.0, "id": 24971446.0, "initialdat": "2021-12-30", "finaldate": "2022-01-03", "area_ha": 64.340332853782172 }, "geometry": { "type": "MultiPolygon", "coordinates": [ [ [ [ -60.216288396026435, -31.166666663923163 ], [ -60.211418891870181, -31.166666663923163 ], [ -60.214067520787673, -31.17083333058946 ], [ -60.218937239147643, -31.17083333058946 ], [ -60.216288396026435, -31.166666663923163 ] ] ], [ [ [ -60.214067520787673, -31.17083333058946 ], [ -60.204328084067747, -31.17083333058946 ], [ -60.206976835988876, -31.17499999725576 ], [ -60.216716701205428, -31.17499999725576 ], [ -60.214067520787673, -31.17083333058946 ] ] ] ] } },
{ "type": "Feature", "properties": { "_uid_": 904283.0, "id": 24971447.0, "initialdat": "2021-12-29", "finaldate": "2022-01-06", "area_ha": 707.74128190701003 }, "geometry": { "type": "MultiPolygon", "coordinates": [ [ [ [ -60.365470840260343, -31.179166663922061 ], [ -60.36060069335916, -31.179166663922061 ], [ -60.357944746845483, -31.17499999725576 ], [ -60.353074814237196, -31.17499999725576 ], [ -60.350419634866618, -31.17083333058946 ], [ -60.335810479786737, -31.17083333058946 ], [ -60.343775747913696, -31.183333330588354 ], [ -60.341120105754335, -31.179166663922061 ], [ -60.336249958853131, -31.179166663922061 ], [ -60.338905386674938, -31.183333330588354 ], [ -60.341561367370595, -31.187499997254655 ], [ -60.344217901041191, -31.191666663920952 ], [ -60.349088691088916, -31.191666663920952 ], [ -60.354403846747068, -31.199999997253546 ], [ -60.357062254510197, -31.204166663919839 ], [ -60.361933688106205, -31.204166663919839 ], [ -60.366805121702228, -31.204166663919839 ], [ -60.364146284817586, -31.199999997253546 ], [ -60.373888722888111, -31.199999997253546 ], [ -60.368571851279796, -31.191666663920952 ], [ -60.363701061232064, -31.191666663920952 ], [ -60.36104366985424, -31.187499997254655 ], [ -60.365914245475174, -31.187499997254655 ], [ -60.363257192868673, -31.183333330588354 ], [ -60.368127554107417, -31.183333330588354 ], [ -60.365470840260343, -31.179166663922061 ] ] ], [ [ [ -60.367684612062035, -31.17499999725576 ], [ -60.362814679453763, -31.17499999725576 ], [ -60.365470840260343, -31.179166663922061 ], [ -60.370340987161562, -31.179166663922061 ], [ -60.367684612062035, -31.17499999725576 ] ] ] ] } },
{ "type": "Feature", "properties": { "_uid_": 904284.0, "id": 24971448.0, "initialdat": "2021-12-25", "finaldate": "2021-12-27", "area_ha": 64.340610727500916 }, "geometry": { "type": "MultiPolygon", "coordinates": [ [ [ [ -60.254325901923728, -31.195833330587245 ], [ -60.259196906442902, -31.195833330587245 ], [ -60.256543680182254, -31.191666663920952 ], [ -60.253891006194117, -31.187499997254655 ], [ -60.249020430573196, -31.187499997254655 ], [ -60.251672890134522, -31.191666663920952 ], [ -60.246802100086818, -31.191666663920952 ], [ -60.249454897404568, -31.195833330587245 ], [ -60.254325901923728, -31.195833330587245 ] ] ] ] } },
{ "type": "Feature", "properties": { "_uid_": 904285.0, "id": 24971449.0, "initialdat": "2021-12-22", "finaldate": "2021-12-28", "area_ha": 557.6195067586541 }, "geometry": { "type": "MultiPolygon", "coordinates": [ [ [ [ -60.430586810332343, -31.21249999725244 ], [ -60.435913512820214, -31.22083333058503 ], [ -60.445658097391792, -31.22083333058503 ], [ -60.442994039491929, -31.21666666391873 ], [ -60.447866117038259, -31.21666666391873 ], [ -60.445202398886956, -31.21249999725244 ], [ -60.442539235122169, -31.208333330586139 ], [ -60.447410883323599, -31.208333330586139 ], [ -60.442085789381771, -31.199999997253546 ], [ -60.432343351311246, -31.199999997253546 ], [ -60.422600913240728, -31.199999997253546 ], [ -60.412858475170196, -31.199999997253546 ], [ -60.407987256134952, -31.199999997253546 ], [ -60.41064802406639, -31.204166663919839 ], [ -60.405776590470367, -31.204166663919839 ], [ -60.408437697712081, -31.208333330586139 ], [ -60.41330934591354, -31.208333330586139 ], [ -60.418180994114969, -31.208333330586139 ], [ -60.420843084629261, -31.21249999725244 ], [ -60.425714947480799, -31.21249999725244 ], [ -60.428377806852971, -31.21666666391873 ], [ -60.433249884399302, -31.21666666391873 ], [ -60.430586810332343, -31.21249999725244 ] ] ] ] } }
]
}
