{
"type": "FeatureCollection",
"name": "2022",
"crs": { "type": "name", "properties": { "name": "urn:ogc:def:crs:OGC:1.3:CRS84" } },
"features": [
{ "type": "Feature", "properties": { "_uid_": 27717.0, "id": 25745333.0, "initialdat": "2022-09-10", "finaldate": "2022-09-10", "area_ha": 85.785099095773703 }, "geometry": { "type": "MultiPolygon", "coordinates": [ [ [ [ -60.222797547921978, -31.054166663933131 ], [ -60.213070072950558, -31.054166663933131 ], [ -60.218344565293798, -31.062499997265729 ], [ -60.228072892364146, -31.062499997265729 ], [ -60.222797547921978, -31.054166663933131 ] ] ] ] } },
{ "type": "Feature", "properties": { "_uid_": 27718.0, "id": 25745335.0, "initialdat": "2022-09-10", "finaldate": "2022-09-10", "area_ha": 21.446302508819102 }, "geometry": { "type": "MultiPolygon", "coordinates": [ [ [ [ -60.203752074688289, -31.062499997265729 ], [ -60.198887911153115, -31.062499997265729 ], [ -60.20152512924308, -31.066666663932022 ], [ -60.206389505869581, -31.066666663932022 ], [ -60.203752074688289, -31.062499997265729 ] ] ] ] } },
{ "type": "Feature", "properties": { "_uid_": 75083.0, "id": 25745330.0, "initialdat": "2022-09-30", "finaldate": "2022-09-30", "area_ha": 21.445748405623437 }, "geometry": { "type": "MultiPolygon", "coordinates": [ [ [ [ -60.256044539705101, -30.937499997276799 ], [ -60.251186748303958, -30.937499997276799 ], [ -60.253813246057121, -30.941666663943099 ], [ -60.258671249221372, -30.941666663943099 ], [ -60.256044539705101, -30.937499997276799 ] ] ] ] } },
{ "type": "Feature", "properties": { "_uid_": 75085.0, "id": 25745334.0, "initialdat": "2022-09-19", "finaldate": "2022-09-19", "area_ha": 21.446302569890022 }, "geometry": { "type": "MultiPolygon", "coordinates": [ [ [ [ -60.208616238223463, -31.062499997265729 ], [ -60.203752074688289, -31.062499997265729 ], [ -60.206389505869581, -31.066666663932022 ], [ -60.211253882496052, -31.066666663932022 ], [ -60.208616238223463, -31.062499997265729 ] ] ] ] } },
{ "type": "Feature", "properties": { "_uid_": 75087.0, "id": 25745337.0, "initialdat": "2022-09-28", "finaldate": "2022-09-30", "area_ha": 107.23418481916191 }, "geometry": { "type": "MultiPolygon", "coordinates": [ [ [ [ -60.350886842782593, -31.133333330592784 ], [ -60.346019050651371, -31.133333330592784 ], [ -60.348670114302578, -31.137499997259084 ], [ -60.343802108324169, -31.137499997259084 ], [ -60.346453510203645, -31.141666663925378 ], [ -60.356189949943932, -31.141666663925378 ], [ -60.353538396363263, -31.137499997259084 ], [ -60.35840612625941, -31.137499997259084 ], [ -60.355754634913815, -31.133333330592784 ], [ -60.353103695676523, -31.129166663926483 ], [ -60.348236117347959, -31.129166663926483 ], [ -60.350886842782593, -31.133333330592784 ] ] ] ] } },
{ "type": "Feature", "properties": { "_uid_": 169421.0, "id": 25840124.0, "initialdat": "2022-10-24", "finaldate": "2022-11-02", "area_ha": 814.95716568310263 }, "geometry": { "type": "MultiPolygon", "coordinates": [ [ [ [ -60.395558496408114, -31.057846230258338 ], [ -60.390925606819287, -31.046085884198469 ], [ -60.390723571353426, -31.045833330600537 ], [ -60.387740307738341, -31.045833330600537 ], [ -60.382876996124594, -31.045833330600537 ], [ -60.385520533854006, -31.049999997266838 ], [ -60.375793484798912, -31.049999997266838 ], [ -60.383726125489687, -31.062499997265729 ], [ -60.393454452560036, -31.062499997265729 ], [ -60.390809261971377, -31.058333330599432 ], [ -60.395587242204996, -31.058333330599432 ], [ -60.395558496408114, -31.057846230258338 ] ] ], [ [ [ -60.378437147464716, -31.054166663933131 ], [ -60.368709672493296, -31.054166663933131 ], [ -60.371353460018376, -31.058333330599432 ], [ -60.366489509530119, -31.058333330599432 ], [ -60.369133634884179, -31.062499997265729 ], [ -60.373997798419339, -31.062499997265729 ], [ -60.376642687796583, -31.066666663932022 ], [ -60.386371441049555, -31.066666663932022 ], [ -60.383726125489687, -31.062499997265729 ], [ -60.378437147464716, -31.054166663933131 ] ] ] ] } },
{ "type": "Feature", "properties": { "_uid_": 169423.0, "id": 25840126.0, "initialdat": "2022-10-25", "finaldate": "2022-10-28", "area_ha": 343.14583052849775 }, "geometry": { "type": "MultiPolygon", "coordinates": [ [ [ [ -60.41416814048852, -31.133333330592784 ], [ -60.409300348357299, -31.133333330592784 ], [ -60.414608588385704, -31.141666663925378 ], [ -60.409740368515564, -31.141666663925378 ], [ -60.412395103742924, -31.145833330591678 ], [ -60.417263537549353, -31.145833330591678 ], [ -60.42700040516219, -31.145833330591678 ], [ -60.424345028125998, -31.141666663925378 ], [ -60.434081467866299, -31.141666663925378 ], [ -60.43142621593568, -31.137499997259084 ], [ -60.436294221914103, -31.137499997259084 ], [ -60.433639309013437, -31.133333330592784 ], [ -60.430984948933492, -31.129166663926483 ], [ -60.42124979227637, -31.129166663926483 ], [ -60.416382213947813, -31.129166663926483 ], [ -60.411514635619248, -31.129166663926483 ], [ -60.41416814048852, -31.133333330592784 ] ] ] ] } },
{ "type": "Feature", "properties": { "_uid_": 239315.0, "id": 25946949.0, "initialdat": "2022-11-23", "finaldate": "2022-11-23", "area_ha": 21.446191463506221 }, "geometry": { "type": "MultiPolygon", "coordinates": [ [ [ [ -60.256019424842464, -31.037499997267943 ], [ -60.251156538923254, -31.037499997267943 ], [ -60.253793441795686, -31.041666663934237 ], [ -60.258656540539995, -31.041666663934237 ], [ -60.256019424842464, -31.037499997267943 ] ] ] ] } },
{ "type": "Feature", "properties": { "_uid_": 239316.0, "id": 25946950.0, "initialdat": "2022-11-18", "finaldate": "2022-11-18", "area_ha": 64.339709529685976 }, "geometry": { "type": "MultiPolygon", "coordinates": [ [ [ [ -60.251156538923254, -31.037499997267943 ], [ -60.246293653004038, -31.037499997267943 ], [ -60.248930343051384, -31.041666663934237 ], [ -60.244067244307089, -31.041666663934237 ], [ -60.246704270939702, -31.045833330600537 ], [ -60.256430894167195, -31.045833330600537 ], [ -60.251156538923254, -31.037499997267943 ] ] ] ] } },
{ "type": "Feature", "properties": { "_uid_": 239317.0, "id": 25946951.0, "initialdat": "2022-11-23", "finaldate": "2022-11-26", "area_ha": 42.892530913138387 }, "geometry": { "type": "MultiPolygon", "coordinates": [ [ [ [ -60.368709672493296, -31.054166663933131 ], [ -60.363845935007596, -31.054166663933131 ], [ -60.358982197521883, -31.054166663933131 ], [ -60.361625559041869, -31.058333330599432 ], [ -60.366489509530119, -31.058333330599432 ], [ -60.371353460018376, -31.058333330599432 ], [ -60.368709672493296, -31.054166663933131 ] ] ] ] } },
{ "type": "Feature", "properties": { "_uid_": 239318.0, "id": 25946952.0, "initialdat": "2022-11-15", "finaldate": "2022-11-18", "area_ha": 128.68122899826764 }, "geometry": { "type": "MultiPolygon", "coordinates": [ [ [ [ -60.390707152890386, -31.149999997257975 ], [ -60.393361923804477, -31.154166663924268 ], [ -60.388493061991838, -31.154166663924268 ], [ -60.391148171671489, -31.158333330590569 ], [ -60.400886323436673, -31.158333330590569 ], [ -60.398231062057157, -31.154166663924268 ], [ -60.403099647429755, -31.154166663924268 ], [ -60.400444448464889, -31.149999997257975 ], [ -60.397789802323651, -31.145833330591678 ], [ -60.392921368517243, -31.145833330591678 ], [ -60.388052934710814, -31.145833330591678 ], [ -60.390707152890386, -31.149999997257975 ] ] ] ] } },
{ "type": "Feature", "properties": { "_uid_": 239319.0, "id": 25946953.0, "initialdat": "2022-11-23", "finaldate": "2022-11-23", "area_ha": 21.44669113829136 }, "geometry": { "type": "MultiPolygon", "coordinates": [ [ [ [ -60.390707152890386, -31.149999997257975 ], [ -60.385838505103138, -31.149999997257975 ], [ -60.388493061991838, -31.154166663924268 ], [ -60.393361923804477, -31.154166663924268 ], [ -60.390707152890386, -31.149999997257975 ] ] ] ] } },
{ "type": "Feature", "properties": { "_uid_": 239320.0, "id": 25946955.0, "initialdat": "2022-11-16", "finaldate": "2022-11-23", "area_ha": 257.36279717773198 }, "geometry": { "type": "MultiPolygon", "coordinates": [ [ [ [ -60.324744779804163, -31.237499997250218 ], [ -60.32961793149493, -31.237499997250218 ], [ -60.324297107557484, -31.229166663917624 ], [ -60.319424385658643, -31.229166663917624 ], [ -60.316765018947414, -31.224999997251331 ], [ -60.311892511877438, -31.224999997251331 ], [ -60.307020004807484, -31.224999997251331 ], [ -60.309678941860952, -31.229166663917624 ], [ -60.317659074133594, -31.241666663916515 ], [ -60.322532440787413, -31.241666663916515 ], [ -60.327405807441231, -31.241666663916515 ], [ -60.324744779804163, -31.237499997250218 ] ] ], [ [ [ -60.317659074133594, -31.241666663916515 ], [ -60.314998476422645, -31.237499997250218 ], [ -60.312338432365557, -31.233333330583925 ], [ -60.307465495593121, -31.233333330583925 ], [ -60.310125324731885, -31.237499997250218 ], [ -60.312785707479783, -31.241666663916515 ], [ -60.317659074133594, -31.241666663916515 ] ] ] ] } },
{ "type": "Feature", "properties": { "_uid_": 239327.0, "id": 25946963.0, "initialdat": "2022-11-30", "finaldate": "2022-11-30", "area_ha": 21.447470170724394 }, "geometry": { "type": "MultiPolygon", "coordinates": [ [ [ [ -60.444152581891565, -31.324999997242468 ], [ -60.439274906570226, -31.324999997242468 ], [ -60.441950177147945, -31.329166663908769 ], [ -60.446828068373627, -31.329166663908769 ], [ -60.444152581891565, -31.324999997242468 ] ] ] ] } },
{ "type": "Feature", "properties": { "_uid_": 275171.0, "id": 26018995.0, "initialdat": "2022-12-02", "finaldate": "2022-12-08", "area_ha": 1951.6091301345346 }, "geometry": { "type": "MultiPolygon", "coordinates": [ [ [ [ -60.377159331360403, -31.003827327236575 ], [ -60.377019283502079, -31.003439943080735 ], [ -60.370636036970026, -30.991886203191093 ], [ -60.370581175094436, -30.991833270140319 ], [ -60.370553687634825, -30.991770582746263 ], [ -60.367290947152554, -30.988303529405446 ], [ -60.365573452675079, -30.973257166689027 ], [ -60.365447322484378, -30.972863762229615 ], [ -60.364420331586324, -30.970833330607185 ], [ -60.35968483233497, -30.970833330607185 ], [ -60.354825345592154, -30.970833330607185 ], [ -60.357459833560078, -30.974999997273482 ], [ -60.352600134700687, -30.974999997273482 ], [ -60.35523495973672, -30.979166663939775 ], [ -60.350375048716522, -30.979166663939775 ], [ -60.353010210832032, -30.983333330606076 ], [ -60.348150087606804, -30.983333330606076 ], [ -60.350785586813153, -30.987499997272369 ], [ -60.345925251338635, -30.987499997272369 ], [ -60.348561087647191, -30.99166666393867 ], [ -60.338839992111133, -30.99166666393867 ], [ -60.344112463742533, -30.99999999727126 ], [ -60.339251491254714, -30.99999999727126 ], [ -60.341888338938112, -31.004166663937561 ], [ -60.337027154023986, -31.004166663937561 ], [ -60.33966433885508, -31.008333330603861 ], [ -60.334802941470386, -31.008333330603861 ], [ -60.337440463460595, -31.012499997270154 ], [ -60.3568869030589, -31.012499997270154 ], [ -60.354248531009219, -31.008333330603861 ], [ -60.363971325778628, -31.008333330603861 ], [ -60.368832723163337, -31.008333330603861 ], [ -60.366194263508767, -31.004166663937561 ], [ -60.371055448422887, -31.004166663937561 ], [ -60.377214220483161, -31.004166663937561 ], [ -60.377159331360403, -31.003827327236575 ] ] ] ] } },
{ "type": "Feature", "properties": { "_uid_": 275173.0, "id": 26019001.0, "initialdat": "2022-12-15", "finaldate": "2022-12-15", "area_ha": 21.447488912129401 }, "geometry": { "type": "MultiPolygon", "coordinates": [ [ [ [ -60.441950177147945, -31.329166663908769 ], [ -60.437072285922277, -31.329166663908769 ], [ -60.439747897071754, -31.333333330575062 ], [ -60.444626004246665, -31.333333330575062 ], [ -60.441950177147945, -31.329166663908769 ] ] ] ] } },
{ "type": "Feature", "properties": { "_uid_": 319408.0, "id": 26018998.0, "initialdat": "2022-12-29", "finaldate": "2022-12-29", "area_ha": 21.446413586390019 }, "geometry": { "type": "MultiPolygon", "coordinates": [ [ [ [ -60.326624647102101, -31.087499997263507 ], [ -60.321759204352915, -31.087499997263507 ], [ -60.324404414687514, -31.091666663929807 ], [ -60.329270070794529, -31.091666663929807 ], [ -60.326624647102101, -31.087499997263507 ] ] ] ] } },
{ "type": "Feature", "properties": { "_uid_": 319409.0, "id": 26018999.0, "initialdat": "2022-12-23", "finaldate": "2022-12-23", "area_ha": 21.446413403356075 }, "geometry": { "type": "MultiPolygon", "coordinates": [ [ [ [ -60.321759204352915, -31.087499997263507 ], [ -60.316893761603723, -31.087499997263507 ], [ -60.319538758580492, -31.091666663929807 ], [ -60.324404414687514, -31.091666663929807 ], [ -60.321759204352915, -31.087499997263507 ] ] ] ] } },
{ "type": "Feature", "properties": { "_uid_": 362512.0, "id": 25051658.0, "initialdat": "2022-01-06", "finaldate": "2022-01-06", "area_ha": 21.444167260754114 }, "geometry": { "type": "MultiPolygon", "coordinates": [ [ [ [ -60.114461372969942, -30.579166663975219 ], [ -60.109621628877427, -30.579166663975219 ], [ -60.112204930616826, -30.583333330641519 ], [ -60.117044882704647, -30.583333330641519 ], [ -60.114461372969942, -30.579166663975219 ] ] ] ] } },
{ "type": "Feature", "properties": { "_uid_": 362514.0, "id": 25051660.0, "initialdat": "2022-01-10", "finaldate": "2022-01-12", "area_ha": 257.33161899240019 }, "geometry": { "type": "MultiPolygon", "coordinates": [ [ [ [ -59.927667374294479, -30.610172590989389 ], [ -59.932423159444667, -30.612417026808583 ], [ -59.932771914796049, -30.613456403411522 ], [ -59.935075182976462, -30.616666663971898 ], [ -59.939226087411988, -30.616666663971898 ], [ -59.936646796828299, -30.612499997305598 ], [ -59.941488206101084, -30.612499997305598 ], [ -59.938909246138365, -30.608333330639304 ], [ -59.936330825043115, -30.604166663973004 ], [ -59.926648839609761, -30.604166663973004 ], [ -59.921807846893081, -30.604166663973004 ], [ -59.923030410229764, -30.606142775836567 ], [ -59.927667374294479, -30.610172590989389 ] ] ] ] } },
{ "type": "Feature", "properties": { "_uid_": 362536.0, "id": 25051687.0, "initialdat": "2022-01-05", "finaldate": "2022-01-05", "area_ha": 21.445158581352235 }, "geometry": { "type": "MultiPolygon", "coordinates": [ [ [ [ -59.944279642886457, -30.804166663955282 ], [ -59.939428604637456, -30.804166663955282 ], [ -59.942027742265246, -30.808333330621583 ], [ -59.946878990868534, -30.808333330621583 ], [ -59.944279642886457, -30.804166663955282 ] ] ] ] } },
{ "type": "Feature", "properties": { "_uid_": 362538.0, "id": 25051689.0, "initialdat": "2022-01-12", "finaldate": "2022-01-12", "area_ha": 42.890501406168937 }, "geometry": { "type": "MultiPolygon", "coordinates": [ [ [ [ -59.94757762781714, -30.824999997286767 ], [ -59.93787344689801, -30.824999997286767 ], [ -59.940474666044935, -30.829166663953067 ], [ -59.950179268111825, -30.829166663953067 ], [ -59.94757762781714, -30.824999997286767 ] ] ] ] } },
{ "type": "Feature", "properties": { "_uid_": 362544.0, "id": 25051698.0, "initialdat": "2022-01-03", "finaldate": "2022-01-03", "area_ha": 21.445914284956455 }, "geometry": { "type": "MultiPolygon", "coordinates": [ [ [ [ -60.265125555231542, -30.974999997273482 ], [ -60.260265856372143, -30.974999997273482 ], [ -60.262896650352879, -30.979166663939775 ], [ -60.267756561373091, -30.979166663939775 ], [ -60.265125555231542, -30.974999997273482 ] ] ] ] } },
{ "type": "Feature", "properties": { "_uid_": 362545.0, "id": 25051699.0, "initialdat": "2022-01-10", "finaldate": "2022-01-15", "area_ha": 107.23206494355202 }, "geometry": { "type": "MultiPolygon", "coordinates": [ [ [ [ -60.147440942372953, -31.004166663937561 ], [ -60.142579757458812, -31.004166663937561 ], [ -60.145208443466743, -31.008333330603861 ], [ -60.159792635620882, -31.008333330603861 ], [ -60.157163312201199, -31.004166663937561 ], [ -60.154534536717264, -30.99999999727126 ], [ -60.149673564229438, -30.99999999727126 ], [ -60.144812591741619, -30.99999999727126 ], [ -60.147440942372953, -31.004166663937561 ] ] ] ] } },
{ "type": "Feature", "properties": { "_uid_": 362546.0, "id": 25051700.0, "initialdat": "2022-01-06", "finaldate": "2022-01-06", "area_ha": 21.446043651771546 }, "geometry": { "type": "MultiPolygon", "coordinates": [ [ [ [ -60.371055448422887, -31.004166663937561 ], [ -60.366194263508767, -31.004166663937561 ], [ -60.368832723163337, -31.008333330603861 ], [ -60.373694120548045, -31.008333330603861 ], [ -60.371055448422887, -31.004166663937561 ] ] ] ] } },
{ "type": "Feature", "properties": { "_uid_": 362552.0, "id": 25051707.0, "initialdat": "2022-01-03", "finaldate": "2022-01-03", "area_ha": 42.892882334554194 }, "geometry": { "type": "MultiPolygon", "coordinates": [ [ [ [ -60.402254912399819, -31.091666663929807 ], [ -60.397389256292811, -31.091666663929807 ], [ -60.400038218718926, -31.095833330596108 ], [ -60.404904088228214, -31.095833330596108 ], [ -60.402254912399819, -31.091666663929807 ] ] ], [ [ [ -60.400038218718926, -31.095833330596108 ], [ -60.395172349209624, -31.095833330596108 ], [ -60.397821650013732, -31.099999997262408 ], [ -60.402687732969767, -31.099999997262408 ], [ -60.400038218718926, -31.095833330596108 ] ] ] ] } },
{ "type": "Feature", "properties": { "_uid_": 362553.0, "id": 25051708.0, "initialdat": "2022-01-04", "finaldate": "2022-01-04", "area_ha": 21.446487552559375 }, "geometry": { "type": "MultiPolygon", "coordinates": [ [ [ [ -60.303145573754442, -31.104166663928705 ], [ -60.298279277307223, -31.104166663928705 ], [ -60.300925197724879, -31.108333330594999 ], [ -60.305791707707755, -31.108333330594999 ], [ -60.303145573754442, -31.104166663928705 ] ] ] ] } },
{ "type": "Feature", "properties": { "_uid_": 362555.0, "id": 25051710.0, "initialdat": "2022-01-06", "finaldate": "2022-01-10", "area_ha": 85.786607640922071 }, "geometry": { "type": "MultiPolygon", "coordinates": [ [ [ [ -60.27701706897944, -31.116666663927592 ], [ -60.272150131791783, -31.116666663927592 ], [ -60.274796210271901, -31.120833330593893 ], [ -60.284530511985452, -31.120833330593893 ], [ -60.28188400616709, -31.116666663927592 ], [ -60.286750943354761, -31.116666663927592 ], [ -60.284104775038642, -31.112499997261299 ], [ -60.279238051475616, -31.112499997261299 ], [ -60.27437132791259, -31.112499997261299 ], [ -60.27701706897944, -31.116666663927592 ] ] ] ] } },
{ "type": "Feature", "properties": { "_uid_": 362556.0, "id": 25051711.0, "initialdat": "2022-01-03", "finaldate": "2022-01-04", "area_ha": 64.340091840422147 }, "geometry": { "type": "MultiPolygon", "coordinates": [ [ [ [ -60.317677436081652, -31.149999997257975 ], [ -60.312808788294404, -31.149999997257975 ], [ -60.307940140507156, -31.149999997257975 ], [ -60.310591272989654, -31.154166663924268 ], [ -60.315460134802287, -31.154166663924268 ], [ -60.320328996614911, -31.154166663924268 ], [ -60.317677436081652, -31.149999997257975 ] ] ], [ [ [ -60.310591272989654, -31.154166663924268 ], [ -60.305722411177001, -31.154166663924268 ], [ -60.308373881667372, -31.158333330590569 ], [ -60.313242957549974, -31.158333330590569 ], [ -60.310591272989654, -31.154166663924268 ] ] ] ] } },
{ "type": "Feature", "properties": { "_uid_": 362557.0, "id": 25051712.0, "initialdat": "2022-01-04", "finaldate": "2022-01-04", "area_ha": 21.446894932127002 }, "geometry": { "type": "MultiPolygon", "coordinates": [ [ [ [ -60.415069051056172, -31.195833330587245 ], [ -60.410198046537012, -31.195833330587245 ], [ -60.412858475170196, -31.199999997253546 ], [ -60.417729694205455, -31.199999997253546 ], [ -60.415069051056172, -31.195833330587245 ] ] ] ] } },
{ "type": "Feature", "properties": { "_uid_": 362559.0, "id": 25051714.0, "initialdat": "2022-01-03", "finaldate": "2022-01-03", "area_ha": 64.342042094516756 }, "geometry": { "type": "MultiPolygon", "coordinates": [ [ [ [ -60.15141473890877, -31.217637150576021 ], [ -60.152682849093274, -31.218838377098397 ], [ -60.155074002151501, -31.22083333058503 ], [ -60.163065144815839, -31.22083333058503 ], [ -60.157762490646199, -31.21249999725244 ], [ -60.152890627794662, -31.21249999725244 ], [ -60.155541464259095, -31.21666666391873 ], [ -60.150669386712778, -31.21666666391873 ], [ -60.150768565556668, -31.216822536470229 ], [ -60.15141473890877, -31.217637150576021 ] ] ] ] } },
{ "type": "Feature", "properties": { "_uid_": 362563.0, "id": 25051719.0, "initialdat": "2022-01-01", "finaldate": "2022-01-13", "area_ha": 729.24072413992883 }, "geometry": { "type": "MultiPolygon", "coordinates": [ [ [ [ -60.4734222933835, -31.496479753038706 ], [ -60.47694626156116, -31.489554388224036 ], [ -60.475617972712769, -31.48749999722807 ], [ -60.472924528844501, -31.483333330561777 ], [ -60.467539320078359, -31.47499999722918 ], [ -60.46265384384661, -31.47499999722918 ], [ -60.459962296223459, -31.470833330562879 ], [ -60.455077037472954, -31.470833330562879 ], [ -60.457768367614882, -31.47499999722918 ], [ -60.452882891383133, -31.47499999722918 ], [ -60.447997415151406, -31.47499999722918 ], [ -60.450688869634796, -31.479166663895477 ], [ -60.44580317587662, -31.479166663895477 ], [ -60.440917482118458, -31.479166663895477 ], [ -60.443609060865676, -31.483333330561777 ], [ -60.438723149535875, -31.483333330561777 ], [ -60.433837238206081, -31.483333330561777 ], [ -60.436528941139457, -31.48749999722807 ], [ -60.441415070086109, -31.48749999722807 ], [ -60.444107550114218, -31.491666663894371 ], [ -60.448993896722982, -31.491666663894371 ], [ -60.451687154039554, -31.495833330560664 ], [ -60.456573718355621, -31.495833330560664 ], [ -60.471233411303857, -31.495833330560664 ], [ -60.472352527160979, -31.497563765638787 ], [ -60.4734222933835, -31.496479753038706 ] ], [ [ -60.470731843766103, -31.48749999722807 ], [ -60.47342562976673, -31.491666663894371 ], [ -60.463652936549238, -31.491666663894371 ], [ -60.460959585872772, -31.48749999722807 ], [ -60.465845714819437, -31.48749999722807 ], [ -60.470731843766103, -31.48749999722807 ] ] ] ] } },
{ "type": "Feature", "properties": { "_uid_": 410804.0, "id": 25051720.0, "initialdat": "2022-01-10", "finaldate": "2022-01-18", "area_ha": 214.48263651053907 }, "geometry": { "type": "MultiPolygon", "coordinates": [ [ [ [ -60.398431981361036, -31.511122219243092 ], [ -60.400553660347661, -31.51111533483142 ], [ -60.404205256015203, -31.513101305861028 ], [ -60.403816554460874, -31.512499997225856 ], [ -60.408703990058804, -31.512499997225856 ], [ -60.406010889975427, -31.508333330559555 ], [ -60.396236454556309, -31.508333330559555 ], [ -60.39134923684675, -31.508333330559555 ], [ -60.392152505179588, -31.509576419879284 ], [ -60.398431981361036, -31.511122219243092 ] ] ] ] } },
{ "type": "Feature", "properties": { "_uid_": 458948.0, "id": 25157539.0, "initialdat": "2022-02-02", "finaldate": "2022-02-06", "area_ha": 278.78379906300307 }, "geometry": { "type": "MultiPolygon", "coordinates": [ [ [ [ -60.18609793203246, -30.787499997290091 ], [ -60.188706040307174, -30.791666663956391 ], [ -60.193556447756627, -30.791666663956391 ], [ -60.190948129303166, -30.787499997290091 ], [ -60.195798326573865, -30.787499997290091 ], [ -60.200648523844571, -30.787499997290091 ], [ -60.205498721115276, -30.787499997290091 ], [ -60.202890316587656, -30.78333333062379 ], [ -60.207740303723448, -30.78333333062379 ], [ -60.212590290859268, -30.78333333062379 ], [ -60.207374274520554, -30.7749999972912 ], [ -60.192825573527884, -30.7749999972912 ], [ -60.18797600653032, -30.7749999972912 ], [ -60.193190342316043, -30.78333333062379 ], [ -60.188340355180237, -30.78333333062379 ], [ -60.183490368044446, -30.78333333062379 ], [ -60.18609793203246, -30.787499997290091 ] ] ] ] } },
{ "type": "Feature", "properties": { "_uid_": 458950.0, "id": 25157541.0, "initialdat": "2022-02-02", "finaldate": "2022-02-06", "area_ha": 42.890188578176499 }, "geometry": { "type": "MultiPolygon", "coordinates": [ [ [ [ -60.215199115656688, -30.787499997290091 ], [ -60.210348918385975, -30.787499997290091 ], [ -60.212958077554504, -30.791666663956391 ], [ -60.217808485003985, -30.791666663956391 ], [ -60.215199115656688, -30.787499997290091 ] ] ], [ [ [ -60.212958077554504, -30.791666663956391 ], [ -60.208107670105036, -30.791666663956391 ], [ -60.210717163655318, -30.795833330622688 ], [ -60.215567781327415, -30.795833330622688 ], [ -60.212958077554504, -30.791666663956391 ] ] ] ] } },
{ "type": "Feature", "properties": { "_uid_": 458951.0, "id": 25157542.0, "initialdat": "2022-02-03", "finaldate": "2022-02-03", "area_ha": 21.445103505599494 }, "geometry": { "type": "MultiPolygon", "coordinates": [ [ [ [ -60.203257262655576, -30.791666663956391 ], [ -60.198406855206109, -30.791666663956391 ], [ -60.201015928311115, -30.795833330622688 ], [ -60.205866545983213, -30.795833330622688 ], [ -60.203257262655576, -30.791666663956391 ] ] ] ] } },
{ "type": "Feature", "properties": { "_uid_": 458952.0, "id": 25157543.0, "initialdat": "2022-02-03", "finaldate": "2022-02-03", "area_ha": 21.445140234088896 }, "geometry": { "type": "MultiPolygon", "coordinates": [ [ [ [ -60.2036255459873, -30.799999997288989 ], [ -60.198774718048689, -30.799999997288989 ], [ -60.201384670084067, -30.804166663955282 ], [ -60.206235708333082, -30.804166663955282 ], [ -60.2036255459873, -30.799999997288989 ] ] ] ] } },
{ "type": "Feature", "properties": { "_uid_": 458953.0, "id": 25157544.0, "initialdat": "2022-02-02", "finaldate": "2022-02-02", "area_ha": 21.44515864869356 }, "geometry": { "type": "MultiPolygon", "coordinates": [ [ [ [ -60.215937784831098, -30.804166663955282 ], [ -60.211086746582083, -30.804166663955282 ], [ -60.213697664050208, -30.808333330621583 ], [ -60.218548912653517, -30.808333330621583 ], [ -60.215937784831098, -30.804166663955282 ] ] ] ] } },
{ "type": "Feature", "properties": { "_uid_": 458954.0, "id": 25157545.0, "initialdat": "2022-02-02", "finaldate": "2022-02-02", "area_ha": 21.44523237669468 }, "geometry": { "type": "MultiPolygon", "coordinates": [ [ [ [ -60.245793085959477, -30.820833330620474 ], [ -60.240941206029845, -30.820833330620474 ], [ -60.243555145850792, -30.824999997286767 ], [ -60.248407236310371, -30.824999997286767 ], [ -60.245793085959477, -30.820833330620474 ] ] ] ] } },
{ "type": "Feature", "properties": { "_uid_": 458956.0, "id": 25157547.0, "initialdat": "2022-02-01", "finaldate": "2022-02-06", "area_ha": 300.23895220614673 }, "geometry": { "type": "MultiPolygon", "coordinates": [ [ [ [ -60.291882103903085, -30.924999997277908 ], [ -60.287024947526376, -30.924999997277908 ], [ -60.284398735224144, -30.920833330611615 ], [ -60.289255680014307, -30.920833330611615 ], [ -60.294112624804448, -30.920833330611615 ], [ -60.298969569594604, -30.920833330611615 ], [ -60.296343270246346, -30.916666663945314 ], [ -60.291486536998619, -30.916666663945314 ], [ -60.288860996762949, -30.912499997279014 ], [ -60.293717518512352, -30.912499997279014 ], [ -60.291092314293337, -30.90833333061272 ], [ -60.286236003998162, -30.90833333061272 ], [ -60.281379693703009, -30.90833333061272 ], [ -60.276523383407849, -30.90833333061272 ], [ -60.279147953264172, -30.912499997279014 ], [ -60.274291431514797, -30.912499997279014 ], [ -60.276916337255479, -30.916666663945314 ], [ -60.272059604007758, -30.916666663945314 ], [ -60.274684845643847, -30.920833330611615 ], [ -60.279541790434003, -30.920833330611615 ], [ -60.282167791149668, -30.924999997277908 ], [ -60.284794339501836, -30.929166663944205 ], [ -60.294509075516608, -30.929166663944205 ], [ -60.291882103903085, -30.924999997277908 ] ] ] ] } },
{ "type": "Feature", "properties": { "_uid_": 458957.0, "id": 25157549.0, "initialdat": "2022-02-02", "finaldate": "2022-02-07", "area_ha": 214.45821721353531 }, "geometry": { "type": "MultiPolygon", "coordinates": [ [ [ [ -60.300967390521286, -30.962499997274591 ], [ -60.296108327879011, -30.962499997274591 ], [ -60.301370991421223, -30.970833330607185 ], [ -60.306230478164039, -30.970833330607185 ], [ -60.303598934342659, -30.966666663940885 ], [ -60.308457934719435, -30.966666663940885 ], [ -60.305826453163569, -30.962499997274591 ], [ -60.310685515805844, -30.962499997274591 ], [ -60.308054370797926, -30.958333330608291 ], [ -60.305423774266494, -30.95416666394199 ], [ -60.302793726111958, -30.949999997275697 ], [ -60.307652152934892, -30.949999997275697 ], [ -60.302393277699636, -30.941666663943099 ], [ -60.297535274535377, -30.941666663943099 ], [ -60.300164226234763, -30.9458333306094 ], [ -60.295306011263264, -30.9458333306094 ], [ -60.300565135547963, -30.95416666394199 ], [ -60.303195520139617, -30.958333330608291 ], [ -60.298336669481301, -30.958333330608291 ], [ -60.300967390521286, -30.962499997274591 ] ] ] ] } },
{ "type": "Feature", "properties": { "_uid_": 498148.0, "id": 25157558.0, "initialdat": "2022-02-14", "finaldate": "2022-02-18", "area_ha": 150.12720965399745 }, "geometry": { "type": "MultiPolygon", "coordinates": [ [ [ [ -60.246016972448182, -31.129166663926483 ], [ -60.241149394119624, -31.129166663926483 ], [ -60.24379541589564, -31.133333330592784 ], [ -60.238927623764432, -31.133333330592784 ], [ -60.241573982777382, -31.137499997259084 ], [ -60.251309994734214, -31.137499997259084 ], [ -60.261046006691053, -31.137499997259084 ], [ -60.25839879228932, -31.133333330592784 ], [ -60.255752129105304, -31.129166663926483 ], [ -60.250884550776746, -31.129166663926483 ], [ -60.246016972448182, -31.129166663926483 ] ] ] ] } },
{ "type": "Feature", "properties": { "_uid_": 498214.0, "id": 25157532.0, "initialdat": "2022-02-16", "finaldate": "2022-02-16", "area_ha": 42.888187755155563 }, "geometry": { "type": "MultiPolygon", "coordinates": [ [ [ [ -60.079938169624619, -30.562499997310027 ], [ -60.070260344532834, -30.562499997310027 ], [ -60.072840240381765, -30.566666663976328 ], [ -60.082518481116516, -30.566666663976328 ], [ -60.079938169624619, -30.562499997310027 ] ] ] ] } },
{ "type": "Feature", "properties": { "_uid_": 498215.0, "id": 25157533.0, "initialdat": "2022-02-16", "finaldate": "2022-02-16", "area_ha": 21.444130537843705 }, "geometry": { "type": "MultiPolygon", "coordinates": [ [ [ [ -60.075420675565127, -30.570833330642628 ], [ -60.07058134733284, -30.570833330642628 ], [ -60.073162114039043, -30.574999997308922 ], [ -60.078001650179715, -30.574999997308922 ], [ -60.075420675565127, -30.570833330642628 ] ] ] ] } },
{ "type": "Feature", "properties": { "_uid_": 498219.0, "id": 25157548.0, "initialdat": "2022-02-13", "finaldate": "2022-02-19", "area_ha": 278.79514350122213 }, "geometry": { "type": "MultiPolygon", "coordinates": [ [ [ [ -60.27770627622548, -30.933333330610505 ], [ -60.28033349671086, -30.937499997276799 ], [ -60.285191288112003, -30.937499997276799 ], [ -60.282563855907668, -30.933333330610505 ], [ -60.28742143558987, -30.933333330610505 ], [ -60.284794339501836, -30.929166663944205 ], [ -60.279541790434003, -30.920833330611615 ], [ -60.274684845643847, -30.920833330611615 ], [ -60.269827900853699, -30.920833330611615 ], [ -60.264970956063529, -30.920833330611615 ], [ -60.26759632201955, -30.924999997277908 ], [ -60.262739165642849, -30.924999997277908 ], [ -60.2653648674723, -30.929166663944205 ], [ -60.267991116861083, -30.933333330610505 ], [ -60.27770627622548, -30.933333330610505 ] ] ], [ [ [ -60.289255680014307, -30.920833330611615 ], [ -60.284398735224144, -30.920833330611615 ], [ -60.287024947526376, -30.924999997277908 ], [ -60.291882103903085, -30.924999997277908 ], [ -60.289255680014307, -30.920833330611615 ] ] ] ] } },
{ "type": "Feature", "properties": { "_uid_": 498220.0, "id": 25157550.0, "initialdat": "2022-02-20", "finaldate": "2022-02-20", "area_ha": 21.445785112285613 }, "geometry": { "type": "MultiPolygon", "coordinates": [ [ [ [ -60.309880656177789, -30.9458333306094 ], [ -60.305022441206276, -30.9458333306094 ], [ -60.307652152934892, -30.949999997275697 ], [ -60.31251057975782, -30.949999997275697 ], [ -60.309880656177789, -30.9458333306094 ] ] ] ] } },
{ "type": "Feature", "properties": { "_uid_": 498222.0, "id": 25157552.0, "initialdat": "2022-02-18", "finaldate": "2022-02-18", "area_ha": 64.336886068046098 }, "geometry": { "type": "MultiPolygon", "coordinates": [ [ [ [ -60.188163011302365, -30.99166666393867 ], [ -60.178441915766321, -30.99166666393867 ], [ -60.183700371644235, -30.99999999727126 ], [ -60.188561344132054, -30.99999999727126 ], [ -60.185931629810028, -30.995833330604967 ], [ -60.190792389915828, -30.995833330604967 ], [ -60.188163011302365, -30.99166666393867 ] ] ] ] } },
{ "type": "Feature", "properties": { "_uid_": 498223.0, "id": 25157553.0, "initialdat": "2022-02-15", "finaldate": "2022-02-18", "area_ha": 150.12316485148668 }, "geometry": { "type": "MultiPolygon", "coordinates": [ [ [ [ -60.216304245113093, -31.020833330602752 ], [ -60.218937887750393, -31.024999997269052 ], [ -60.228662383170324, -31.024999997269052 ], [ -60.226028315237485, -31.020833330602752 ], [ -60.230890350299681, -31.020833330602752 ], [ -60.228256618629672, -31.016666663936455 ], [ -60.223394796170929, -31.016666663936455 ], [ -60.220761825870831, -31.012499997270154 ], [ -60.21590021597126, -31.012499997270154 ], [ -60.211038606071682, -31.012499997270154 ], [ -60.213671151253457, -31.016666663936455 ], [ -60.216304245113093, -31.020833330602752 ] ] ] ] } },
{ "type": "Feature", "properties": { "_uid_": 498224.0, "id": 25157554.0, "initialdat": "2022-02-13", "finaldate": "2022-02-18", "area_ha": 85.784839900469777 }, "geometry": { "type": "MultiPolygon", "coordinates": [ [ [ [ -60.188344531574742, -31.045833330600537 ], [ -60.193207843188496, -31.045833330600537 ], [ -60.190573158119719, -31.041666663934237 ], [ -60.187939021973463, -31.037499997267943 ], [ -60.183076136054254, -31.037499997267943 ], [ -60.185710059375417, -31.041666663934237 ], [ -60.180846960631108, -31.041666663934237 ], [ -60.183481219961003, -31.045833330600537 ], [ -60.188344531574742, -31.045833330600537 ] ] ], [ [ [ -60.183481219961003, -31.045833330600537 ], [ -60.178617908347256, -31.045833330600537 ], [ -60.181252503697102, -31.049999997266838 ], [ -60.18611602822466, -31.049999997266838 ], [ -60.183481219961003, -31.045833330600537 ] ] ] ] } },
{ "type": "Feature", "properties": { "_uid_": 635664.0, "id": 25345533.0, "initialdat": "2022-05-05", "finaldate": "2022-05-05", "area_ha": 64.328064448440074 }, "geometry": { "type": "MultiPolygon", "coordinates": [ [ [ [ -59.984150300767737, -30.241666664005127 ], [ -59.969681180328514, -30.241666664005127 ], [ -59.972223925768269, -30.245833330671417 ], [ -59.986693659705679, -30.245833330671417 ], [ -59.984150300767737, -30.241666664005127 ] ] ] ] } },
{ "type": "Feature", "properties": { "_uid_": 635665.0, "id": 25345534.0, "initialdat": "2022-05-13", "finaldate": "2022-05-13", "area_ha": 21.442706238186361 }, "geometry": { "type": "MultiPolygon", "coordinates": [ [ [ [ -59.986693659705679, -30.245833330671417 ], [ -59.981870415059895, -30.245833330671417 ], [ -59.984414102410533, -30.249999997337717 ], [ -59.989237551598578, -30.249999997337717 ], [ -59.986693659705679, -30.245833330671417 ] ] ] ] } },
{ "type": "Feature", "properties": { "_uid_": 635666.0, "id": 25345535.0, "initialdat": "2022-05-10", "finaldate": "2022-05-10", "area_ha": 21.442706254029275 }, "geometry": { "type": "MultiPolygon", "coordinates": [ [ [ [ -59.977047170414068, -30.245833330671417 ], [ -59.972223925768269, -30.245833330671417 ], [ -59.974767204034443, -30.249999997337717 ], [ -59.979590653222481, -30.249999997337717 ], [ -59.977047170414068, -30.245833330671417 ] ] ] ] } },
{ "type": "Feature", "properties": { "_uid_": 635667.0, "id": 25345536.0, "initialdat": "2022-05-10", "finaldate": "2022-05-10", "area_ha": 64.330397719669335 }, "geometry": { "type": "MultiPolygon", "coordinates": [ [ [ [ -60.035399907027831, -30.333333330663667 ], [ -60.030572357984141, -30.333333330663667 ], [ -60.033127052967323, -30.337499997329964 ], [ -60.028299298479752, -30.337499997329964 ], [ -60.030854322935369, -30.341666663996264 ], [ -60.040510242884395, -30.341666663996264 ], [ -60.035399907027831, -30.333333330663667 ] ] ] ] } },
{ "type": "Feature", "properties": { "_uid_": 635668.0, "id": 25345538.0, "initialdat": "2022-05-02", "finaldate": "2022-05-13", "area_ha": 85.772537649774549 }, "geometry": { "type": "MultiPolygon", "coordinates": [ [ [ [ -60.028581716898202, -30.345833330662565 ], [ -60.031137605899559, -30.349999997328858 ], [ -60.035965976977032, -30.349999997328858 ], [ -60.040794348054476, -30.349999997328858 ], [ -60.038238047907143, -30.345833330662565 ], [ -60.035682282909875, -30.341666663996264 ], [ -60.030854322935369, -30.341666663996264 ], [ -60.026026362960863, -30.341666663996264 ], [ -60.028581716898202, -30.345833330662565 ] ] ] ] } },
{ "type": "Feature", "properties": { "_uid_": 635677.0, "id": 25345554.0, "initialdat": "2022-05-08", "finaldate": "2022-05-09", "area_ha": 64.333642684984213 }, "geometry": { "type": "MultiPolygon", "coordinates": [ [ [ [ -60.076790310484711, -30.666666663967465 ], [ -60.071946189350165, -30.666666663967465 ], [ -60.077128115522918, -30.674999997300059 ], [ -60.081972654521032, -30.674999997300059 ], [ -60.079381482502875, -30.670833330633766 ], [ -60.084225541927552, -30.670833330633766 ], [ -60.08163443161925, -30.666666663967465 ], [ -60.076790310484711, -30.666666663967465 ] ] ] ] } },
{ "type": "Feature", "properties": { "_uid_": 635678.0, "id": 25345555.0, "initialdat": "2022-05-02", "finaldate": "2022-05-10", "area_ha": 171.55626545742751 }, "geometry": { "type": "MultiPolygon", "coordinates": [ [ [ [ -60.111381949087253, -30.68333333063266 ], [ -60.113976061451943, -30.68749999729895 ], [ -60.118821227572802, -30.68749999729895 ], [ -60.116226906123543, -30.68333333063266 ], [ -60.121071863159841, -30.68333333063266 ], [ -60.11847787446375, -30.67916666396636 ], [ -60.123322622459128, -30.67916666396636 ], [ -60.120728966505972, -30.674999997300059 ], [ -60.118135852239135, -30.670833330633766 ], [ -60.113291522194622, -30.670833330633766 ], [ -60.103602862105603, -30.670833330633766 ], [ -60.106195349511616, -30.674999997300059 ], [ -60.11103988850973, -30.674999997300059 ], [ -60.113633126468372, -30.67916666396636 ], [ -60.108788378473001, -30.67916666396636 ], [ -60.111381949087253, -30.68333333063266 ] ] ] ] } },
{ "type": "Feature", "properties": { "_uid_": 635679.0, "id": 25345556.0, "initialdat": "2022-05-02", "finaldate": "2022-05-02", "area_ha": 21.444570580828191 }, "geometry": { "type": "MultiPolygon", "coordinates": [ [ [ [ -60.074536881838533, -30.670833330633766 ], [ -60.06969255179402, -30.670833330633766 ], [ -60.072283576524782, -30.674999997300059 ], [ -60.077128115522918, -30.674999997300059 ], [ -60.074536881838533, -30.670833330633766 ] ] ] ] } },
{ "type": "Feature", "properties": { "_uid_": 635680.0, "id": 25345557.0, "initialdat": "2022-05-15", "finaldate": "2022-05-15", "area_ha": 21.444589090883731 }, "geometry": { "type": "MultiPolygon", "coordinates": [ [ [ [ -60.11103988850973, -30.674999997300059 ], [ -60.106195349511616, -30.674999997300059 ], [ -60.108788378473001, -30.67916666396636 ], [ -60.113633126468372, -30.67916666396636 ], [ -60.11103988850973, -30.674999997300059 ] ] ] ] } },
{ "type": "Feature", "properties": { "_uid_": 658061.0, "id": 25345537.0, "initialdat": "2022-05-20", "finaldate": "2022-05-20", "area_ha": 21.443125301575662 }, "geometry": { "type": "MultiPolygon", "coordinates": [ [ [ [ -60.040510242884395, -30.341666663996264 ], [ -60.035682282909875, -30.341666663996264 ], [ -60.038238047907143, -30.345833330662565 ], [ -60.04306621341162, -30.345833330662565 ], [ -60.040510242884395, -30.341666663996264 ] ] ] ] } },
{ "type": "Feature", "properties": { "_uid_": 658122.0, "id": 25345558.0, "initialdat": "2022-05-11", "finaldate": "2022-05-16", "area_ha": 150.11438260430097 }, "geometry": { "type": "MultiPolygon", "coordinates": [ [ [ [ -60.214542751132548, -30.716666663963036 ], [ -60.20969639181213, -30.716666663963036 ], [ -60.207094862597494, -30.712499997296735 ], [ -60.202248441051758, -30.712499997296735 ], [ -60.197402019506015, -30.712499997296735 ], [ -60.192555597960272, -30.712499997296735 ], [ -60.19515622738777, -30.716666663963036 ], [ -60.200002858323955, -30.716666663963036 ], [ -60.202604240286021, -30.720833330629336 ], [ -60.212297921026774, -30.720833330629336 ], [ -60.217144761397158, -30.720833330629336 ], [ -60.214542751132548, -30.716666663963036 ] ] ], [ [ [ -60.207094862597494, -30.712499997296735 ], [ -60.211941284143236, -30.712499997296735 ], [ -60.209340360331282, -30.708333330630438 ], [ -60.204494148132262, -30.708333330630438 ], [ -60.207094862597494, -30.712499997296735 ] ] ] ] } },
{ "type": "Feature", "properties": { "_uid_": 694845.0, "id": 25410999.0, "initialdat": "2022-06-07", "finaldate": "2022-06-07", "area_ha": 42.886469522321221 }, "geometry": { "type": "MultiPolygon", "coordinates": [ [ [ [ -60.002732964053763, -30.366666663994049 ], [ -59.9930745764539, -30.366666663994049 ], [ -59.995631084323804, -30.370833330660343 ], [ -60.005289883500247, -30.370833330660343 ], [ -60.002732964053763, -30.366666663994049 ] ] ] ] } },
{ "type": "Feature", "properties": { "_uid_": 694846.0, "id": 25411000.0, "initialdat": "2022-06-12", "finaldate": "2022-06-12", "area_ha": 42.887419352483747 }, "geometry": { "type": "MultiPolygon", "coordinates": [ [ [ [ -60.035545180109082, -30.474999997317781 ], [ -60.025876063475131, -30.474999997317781 ], [ -60.028445069431093, -30.479166663984081 ], [ -60.038114599886889, -30.479166663984081 ], [ -60.035545180109082, -30.474999997317781 ] ] ] ] } },
{ "type": "Feature", "properties": { "_uid_": 694847.0, "id": 25411001.0, "initialdat": "2022-06-03", "finaldate": "2022-06-12", "area_ha": 300.21288632154466 }, "geometry": { "type": "MultiPolygon", "coordinates": [ [ [ [ -59.997169807507412, -30.483333330650375 ], [ -59.999738439367249, -30.487499997316675 ], [ -60.014243976906002, -30.487499997316675 ], [ -60.011674724053705, -30.483333330650375 ], [ -60.009106008519495, -30.479166663984081 ], [ -60.013940773747393, -30.479166663984081 ], [ -60.01137238852418, -30.474999997317781 ], [ -60.006537830207201, -30.474999997317781 ], [ -59.996868713573249, -30.474999997317781 ], [ -59.99203415525627, -30.474999997317781 ], [ -59.982365038622298, -30.474999997317781 ], [ -59.987499863143221, -30.483333330650375 ], [ -59.997169807507412, -30.483333330650375 ] ] ] ] } },
{ "type": "Feature", "properties": { "_uid_": 694850.0, "id": 25411004.0, "initialdat": "2022-06-08", "finaldate": "2022-06-08", "area_ha": 21.444515457391734 }, "geometry": { "type": "MultiPolygon", "coordinates": [ [ [ [ -60.153953089590964, -30.658333330634875 ], [ -60.149109386145454, -30.658333330634875 ], [ -60.151702546520013, -30.662499997301168 ], [ -60.156546458788227, -30.662499997301168 ], [ -60.153953089590964, -30.658333330634875 ] ] ] ] } },
{ "type": "Feature", "properties": { "_uid_": 694851.0, "id": 25411005.0, "initialdat": "2022-06-01", "finaldate": "2022-06-08", "area_ha": 128.66731352044343 }, "geometry": { "type": "MultiPolygon", "coordinates": [ [ [ [ -60.156546458788227, -30.662499997301168 ], [ -60.151702546520013, -30.662499997301168 ], [ -60.154296248637436, -30.666666663967465 ], [ -60.159140369771968, -30.666666663967465 ], [ -60.156546458788227, -30.662499997301168 ] ] ], [ [ [ -60.154296248637436, -30.666666663967465 ], [ -60.149452127502883, -30.666666663967465 ], [ -60.144608006368337, -30.666666663967465 ], [ -60.147201832506191, -30.670833330633766 ], [ -60.149796200494677, -30.674999997300059 ], [ -60.154640739492805, -30.674999997300059 ], [ -60.152046162550718, -30.670833330633766 ], [ -60.156890492595231, -30.670833330633766 ], [ -60.154296248637436, -30.666666663967465 ] ] ], [ [ [ -60.149796200494677, -30.674999997300059 ], [ -60.14495166149657, -30.674999997300059 ], [ -60.147546362436003, -30.67916666396636 ], [ -60.152391110431381, -30.67916666396636 ], [ -60.149796200494677, -30.674999997300059 ] ] ], [ [ [ -60.151702546520013, -30.662499997301168 ], [ -60.149109386145454, -30.658333330634875 ], [ -60.144265682699952, -30.658333330634875 ], [ -60.146858634251807, -30.662499997301168 ], [ -60.151702546520013, -30.662499997301168 ] ] ] ] } },
{ "type": "Feature", "properties": { "_uid_": 694853.0, "id": 25411011.0, "initialdat": "2022-06-01", "finaldate": "2022-06-11", "area_ha": 193.00230421867371 }, "geometry": { "type": "MultiPolygon", "coordinates": [ [ [ [ -60.144442155841524, -30.720833330629336 ], [ -60.141843287089635, -30.716666663963036 ], [ -60.139244960957114, -30.712499997296735 ], [ -60.134398539411372, -30.712499997296735 ], [ -60.136996656153435, -30.716666663963036 ], [ -60.132150025217236, -30.716666663963036 ], [ -60.137347467614021, -30.724999997295637 ], [ -60.142194517462315, -30.724999997295637 ], [ -60.147041567310609, -30.724999997295637 ], [ -60.144442155841524, -30.720833330629336 ] ] ], [ [ [ -60.144442155841524, -30.720833330629336 ], [ -60.149288996211894, -30.720833330629336 ], [ -60.144091382502864, -30.712499997296735 ], [ -60.141493389545161, -30.708333330630438 ], [ -60.136647177346163, -30.708333330630438 ], [ -60.139244960957114, -30.712499997296735 ], [ -60.144442155841524, -30.720833330629336 ] ] ], [ [ [ -60.137347467614021, -30.724999997295637 ], [ -60.134748475100771, -30.720833330629336 ], [ -60.129901634730388, -30.720833330629336 ], [ -60.132500417765733, -30.724999997295637 ], [ -60.137347467614021, -30.724999997295637 ] ] ] ] } },
{ "type": "Feature", "properties": { "_uid_": 694854.0, "id": 25411017.0, "initialdat": "2022-06-07", "finaldate": "2022-06-07", "area_ha": 21.444846098875999 }, "geometry": { "type": "MultiPolygon", "coordinates": [ [ [ [ -60.186174301339449, -30.733333330628227 ], [ -60.181326832404082, -30.733333330628227 ], [ -60.183929130267131, -30.737499997294528 ], [ -60.18877680881166, -30.737499997294528 ], [ -60.186174301339449, -30.733333330628227 ] ] ] ] } },
{ "type": "Feature", "properties": { "_uid_": 694855.0, "id": 25411024.0, "initialdat": "2022-06-11", "finaldate": "2022-06-11", "area_ha": 21.444882934081555 }, "geometry": { "type": "MultiPolygon", "coordinates": [ [ [ [ -60.128357313131936, -30.741666663960821 ], [ -60.123509424934468, -30.741666663960821 ], [ -60.126110083581189, -30.745833330627121 ], [ -60.130958181475371, -30.745833330627121 ], [ -60.128357313131936, -30.741666663960821 ] ] ] ] } },
{ "type": "Feature", "properties": { "_uid_": 694856.0, "id": 25411028.0, "initialdat": "2022-06-03", "finaldate": "2022-06-03", "area_ha": 85.780671671831612 }, "geometry": { "type": "MultiPolygon", "coordinates": [ [ [ [ -60.211086746582083, -30.804166663955282 ], [ -60.201384670084067, -30.804166663955282 ], [ -60.203995166843605, -30.808333330621583 ], [ -60.199143918240303, -30.808333330621583 ], [ -60.201754749424303, -30.812499997287883 ], [ -60.211457667427297, -30.812499997287883 ], [ -60.208846415446914, -30.808333330621583 ], [ -60.213697664050208, -30.808333330621583 ], [ -60.211086746582083, -30.804166663955282 ] ] ] ] } },
{ "type": "Feature", "properties": { "_uid_": 722569.0, "id": 25411006.0, "initialdat": "2022-06-11", "finaldate": "2022-06-25", "area_ha": 3023.6965481568932 }, "geometry": { "type": "MultiPolygon", "coordinates": [ [ [ [ -60.199647935933264, -30.708333330630438 ], [ -60.204494148132262, -30.708333330630438 ], [ -60.201893976702813, -30.704166663964145 ], [ -60.206739979598808, -30.704166663964145 ], [ -60.198942094899643, -30.69166666396525 ], [ -60.194096719650531, -30.69166666396525 ], [ -60.189251344401413, -30.69166666396525 ], [ -60.186653553264961, -30.68749999729895 ], [ -60.191498719385827, -30.68749999729895 ], [ -60.188901261667887, -30.68333333063266 ], [ -60.193746218704177, -30.68333333063266 ], [ -60.191149094394383, -30.67916666396636 ], [ -60.195993842389761, -30.67916666396636 ], [ -60.1908008029068, -30.670833330633766 ], [ -60.185956472862301, -30.670833330633766 ], [ -60.183360975444707, -30.666666663967465 ], [ -60.178516854310161, -30.666666663967465 ], [ -60.175922107861084, -30.662499997301168 ], [ -60.166234283324656, -30.662499997301168 ], [ -60.161390371056434, -30.662499997301168 ], [ -60.163984490906515, -30.666666663967465 ], [ -60.159140369771968, -30.666666663967465 ], [ -60.16173482263973, -30.670833330633766 ], [ -60.169521433522718, -30.68333333063266 ], [ -60.164676476486441, -30.68333333063266 ], [ -60.16727288878149, -30.68749999729895 ], [ -60.169869843404939, -30.69166666396525 ], [ -60.165024468155821, -30.69166666396525 ], [ -60.167621756033448, -30.695833330631551 ], [ -60.162776171612393, -30.695833330631551 ], [ -60.157930587191352, -30.695833330631551 ], [ -60.160527999117882, -30.699999997297844 ], [ -60.155682205481199, -30.699999997297844 ], [ -60.158279950638928, -30.704166663964145 ], [ -60.15343394774294, -30.704166663964145 ], [ -60.158630647140086, -30.712499997296735 ], [ -60.153784225594336, -30.712499997296735 ], [ -60.166784425597974, -30.733333330628227 ], [ -60.156383179898214, -30.716666663963036 ], [ -60.151536548962021, -30.716666663963036 ], [ -60.154135836582277, -30.720833330629336 ], [ -60.144442155841524, -30.720833330629336 ], [ -60.147041567310609, -30.724999997295637 ], [ -60.142194517462315, -30.724999997295637 ], [ -60.137347467614021, -30.724999997295637 ], [ -60.139947002854861, -30.72916666396193 ], [ -60.135099743484908, -30.72916666396193 ], [ -60.132500417765733, -30.724999997295637 ], [ -60.127653367917439, -30.724999997295637 ], [ -60.130252484114955, -30.72916666396193 ], [ -60.115710706005096, -30.72916666396193 ], [ -60.118309736244349, -30.733333330628227 ], [ -60.132852143050442, -30.733333330628227 ], [ -60.137699611985788, -30.733333330628227 ], [ -60.140300023366301, -30.737499997294528 ], [ -60.154843058999916, -30.737499997294528 ], [ -60.159690737544452, -30.737499997294528 ], [ -60.16453841608898, -30.737499997294528 ], [ -60.179081451722595, -30.737499997294528 ], [ -60.176479363468708, -30.733333330628227 ], [ -60.186174301339449, -30.733333330628227 ], [ -60.191021770274808, -30.733333330628227 ], [ -60.188419596554397, -30.72916666396193 ], [ -60.19326685592435, -30.72916666396193 ], [ -60.190665559121364, -30.724999997295637 ], [ -60.195512065793523, -30.724999997295637 ], [ -60.192910559545282, -30.720833330629336 ], [ -60.190309596451577, -30.716666663963036 ], [ -60.19515622738777, -30.716666663963036 ], [ -60.192555597960272, -30.712499997296735 ], [ -60.202248441051758, -30.712499997296735 ], [ -60.199647935933264, -30.708333330630438 ] ] ], [ [ [ -60.18877680881166, -30.737499997294528 ], [ -60.183929130267131, -30.737499997294528 ], [ -60.186531971501644, -30.741666663960821 ], [ -60.191379859699111, -30.741666663960821 ], [ -60.18877680881166, -30.737499997294528 ] ] ] ] } },
{ "type": "Feature", "properties": { "_uid_": 722571.0, "id": 25411009.0, "initialdat": "2022-06-19", "finaldate": "2022-06-21", "area_ha": 85.778869967007637 }, "geometry": { "type": "MultiPolygon", "coordinates": [ [ [ [ -60.112416116351113, -30.708333330630438 ], [ -60.107569904152101, -30.708333330630438 ], [ -60.110166431682664, -30.712499997296735 ], [ -60.115012853228407, -30.712499997296735 ], [ -60.112416116351113, -30.708333330630438 ] ] ], [ [ [ -60.112416116351113, -30.708333330630438 ], [ -60.117262328550126, -30.708333330630438 ], [ -60.114665924575043, -30.704166663964145 ], [ -60.112070062751165, -30.699999997297844 ], [ -60.107224269114496, -30.699999997297844 ], [ -60.109819921679062, -30.704166663964145 ], [ -60.112416116351113, -30.708333330630438 ] ] ], [ [ [ -60.107569904152101, -30.708333330630438 ], [ -60.10497391878306, -30.704166663964145 ], [ -60.100127915887086, -30.704166663964145 ], [ -60.102723691953095, -30.708333330630438 ], [ -60.107569904152101, -30.708333330630438 ] ] ] ] } },
{ "type": "Feature", "properties": { "_uid_": 722572.0, "id": 25411010.0, "initialdat": "2022-06-30", "finaldate": "2022-06-30", "area_ha": 42.889416984152795 }, "geometry": { "type": "MultiPolygon", "coordinates": [ [ [ [ -60.107224269114496, -30.699999997297844 ], [ -60.102378475477828, -30.699999997297844 ], [ -60.107569904152101, -30.708333330630438 ], [ -60.112416116351113, -30.708333330630438 ], [ -60.107224269114496, -30.699999997297844 ] ] ] ] } },
{ "type": "Feature", "properties": { "_uid_": 722573.0, "id": 25411012.0, "initialdat": "2022-06-30", "finaldate": "2022-06-30", "area_ha": 64.335450604009623 }, "geometry": { "type": "MultiPolygon", "coordinates": [ [ [ [ -60.073990453982901, -30.716666663963036 ], [ -60.069143823046716, -30.716666663963036 ], [ -60.071739550285891, -30.720833330629336 ], [ -60.066892709915507, -30.720833330629336 ], [ -60.069488769737923, -30.724999997295637 ], [ -60.079182869434518, -30.724999997295637 ], [ -60.073990453982901, -30.716666663963036 ] ] ] ] } },
{ "type": "Feature", "properties": { "_uid_": 722574.0, "id": 25411013.0, "initialdat": "2022-06-29", "finaldate": "2022-07-02", "area_ha": 321.67209731433394 }, "geometry": { "type": "MultiPolygon", "coordinates": [ [ [ [ -60.125756987732693, -30.737499997294528 ], [ -60.128357313131936, -30.741666663960821 ], [ -60.133205201329417, -30.741666663960821 ], [ -60.130604666277236, -30.737499997294528 ], [ -60.135452344821779, -30.737499997294528 ], [ -60.140300023366301, -30.737499997294528 ], [ -60.137699611985788, -30.733333330628227 ], [ -60.132852143050442, -30.733333330628227 ], [ -60.123157205179695, -30.733333330628227 ], [ -60.118309736244349, -30.733333330628227 ], [ -60.115710706005096, -30.72916666396193 ], [ -60.110863446635157, -30.72916666396193 ], [ -60.10601618726519, -30.72916666396193 ], [ -60.108614798373601, -30.733333330628227 ], [ -60.111213952099085, -30.737499997294528 ], [ -60.116061630643635, -30.737499997294528 ], [ -60.120909309188164, -30.737499997294528 ], [ -60.125756987732693, -30.737499997294528 ] ] ], [ [ [ -60.123509424934468, -30.741666663960821 ], [ -60.113813648539512, -30.741666663960821 ], [ -60.116413887792795, -30.745833330627121 ], [ -60.126110083581189, -30.745833330627121 ], [ -60.123509424934468, -30.741666663960821 ] ] ], [ [ [ -60.129901634730388, -30.720833330629336 ], [ -60.120207953989649, -30.720833330629336 ], [ -60.122806318069145, -30.724999997295637 ], [ -60.117959268220858, -30.724999997295637 ], [ -60.120557965375049, -30.72916666396193 ], [ -60.130252484114955, -30.72916666396193 ], [ -60.127653367917439, -30.724999997295637 ], [ -60.132500417765733, -30.724999997295637 ], [ -60.129901634730388, -30.720833330629336 ] ] ] ] } },
{ "type": "Feature", "properties": { "_uid_": 722575.0, "id": 25411015.0, "initialdat": "2022-06-20", "finaldate": "2022-06-20", "area_ha": 21.444809403550625 }, "geometry": { "type": "MultiPolygon", "coordinates": [ [ [ [ -60.079182869434518, -30.724999997295637 ], [ -60.074335819586231, -30.724999997295637 ], [ -60.07693263104548, -30.72916666396193 ], [ -60.081779890415433, -30.72916666396193 ], [ -60.079182869434518, -30.724999997295637 ] ] ] ] } },
{ "type": "Feature", "properties": { "_uid_": 722576.0, "id": 25411016.0, "initialdat": "2022-06-25", "finaldate": "2022-06-25", "area_ha": 21.444827889192105 }, "geometry": { "type": "MultiPolygon", "coordinates": [ [ [ [ -60.07693263104548, -30.72916666396193 ], [ -60.072085371675527, -30.72916666396193 ], [ -60.074682515826055, -30.733333330628227 ], [ -60.079529984761429, -30.733333330628227 ], [ -60.07693263104548, -30.72916666396193 ] ] ] ] } },
{ "type": "Feature", "properties": { "_uid_": 722577.0, "id": 25411019.0, "initialdat": "2022-06-30", "finaldate": "2022-06-30", "area_ha": 42.889728976190099 }, "geometry": { "type": "MultiPolygon", "coordinates": [ [ [ [ -60.222710558623426, -30.737499997294528 ], [ -60.21301520153434, -30.737499997294528 ], [ -60.215619300686484, -30.741666663960821 ], [ -60.225315077081433, -30.741666663960821 ], [ -60.222710558623426, -30.737499997294528 ] ] ] ] } },
{ "type": "Feature", "properties": { "_uid_": 722578.0, "id": 25411020.0, "initialdat": "2022-06-30", "finaldate": "2022-06-30", "area_ha": 21.44486458187103 }, "geometry": { "type": "MultiPolygon", "coordinates": [ [ [ [ -60.198472165900746, -30.737499997294528 ], [ -60.193624487356203, -30.737499997294528 ], [ -60.196227747896593, -30.741666663960821 ], [ -60.20107563609406, -30.741666663960821 ], [ -60.198472165900746, -30.737499997294528 ] ] ] ] } },
{ "type": "Feature", "properties": { "_uid_": 722579.0, "id": 25411022.0, "initialdat": "2022-06-30", "finaldate": "2022-06-30", "area_ha": 42.889729062235354 }, "geometry": { "type": "MultiPolygon", "coordinates": [ [ [ [ -60.183929130267131, -30.737499997294528 ], [ -60.174233773178052, -30.737499997294528 ], [ -60.176836195106695, -30.741666663960821 ], [ -60.186531971501644, -30.741666663960821 ], [ -60.183929130267131, -30.737499997294528 ] ] ] ] } },
{ "type": "Feature", "properties": { "_uid_": 722580.0, "id": 25411023.0, "initialdat": "2022-06-30", "finaldate": "2022-06-30", "area_ha": 21.444864583742618 }, "geometry": { "type": "MultiPolygon", "coordinates": [ [ [ [ -60.053041809564668, -30.737499997294528 ], [ -60.048194131020125, -30.737499997294528 ], [ -60.050791101972351, -30.741666663960821 ], [ -60.055638990169832, -30.741666663960821 ], [ -60.053041809564668, -30.737499997294528 ] ] ] ] } },
{ "type": "Feature", "properties": { "_uid_": 722581.0, "id": 25411025.0, "initialdat": "2022-06-30", "finaldate": "2022-06-30", "area_ha": 21.444919535827637 }, "geometry": { "type": "MultiPolygon", "coordinates": [ [ [ [ -60.215980822650607, -30.749999997293415 ], [ -60.211132515015926, -30.749999997293415 ], [ -60.213737826090281, -30.754166663959712 ], [ -60.218586343509244, -30.754166663959712 ], [ -60.215980822650607, -30.749999997293415 ] ] ] ] } },
{ "type": "Feature", "properties": { "_uid_": 722582.0, "id": 25411026.0, "initialdat": "2022-06-25", "finaldate": "2022-06-25", "area_ha": 64.335892737340927 }, "geometry": { "type": "MultiPolygon", "coordinates": [ [ [ [ -60.211132515015926, -30.749999997293415 ], [ -60.206284207381245, -30.749999997293415 ], [ -60.20888930867131, -30.754166663959712 ], [ -60.204040791252332, -30.754166663959712 ], [ -60.206646226609486, -30.758333330626012 ], [ -60.216343681103609, -30.758333330626012 ], [ -60.211132515015926, -30.749999997293415 ] ] ] ] } },
{ "type": "Feature", "properties": { "_uid_": 722583.0, "id": 25411027.0, "initialdat": "2022-06-30", "finaldate": "2022-06-30", "area_ha": 21.444956415390969 }, "geometry": { "type": "MultiPolygon", "coordinates": [ [ [ [ -60.216343681103609, -30.758333330626012 ], [ -60.211494953856551, -30.758333330626012 ], [ -60.21410114303513, -30.762499997292306 ], [ -60.21895008015408, -30.762499997292306 ], [ -60.216343681103609, -30.758333330626012 ] ] ] ] } },
{ "type": "Feature", "properties": { "_uid_": 767099.0, "id": 25493967.0, "initialdat": "2022-07-08", "finaldate": "2022-07-08", "area_ha": 42.88972913347483 }, "geometry": { "type": "MultiPolygon", "coordinates": [ [ [ [ -60.125756987732693, -30.737499997294528 ], [ -60.116061630643635, -30.737499997294528 ], [ -60.118661536737001, -30.741666663960821 ], [ -60.128357313131936, -30.741666663960821 ], [ -60.125756987732693, -30.737499997294528 ] ] ] ] } },
{ "type": "Feature", "properties": { "_uid_": 857353.0, "id": 25598541.0, "initialdat": "2022-08-10", "finaldate": "2022-08-10", "area_ha": 21.44580368913412 }, "geometry": { "type": "MultiPolygon", "coordinates": [ [ [ [ -60.239634177413819, -30.949999997275697 ], [ -60.234775750590885, -30.949999997275697 ], [ -60.237402832207053, -30.95416666394199 ], [ -60.242261470925577, -30.95416666394199 ], [ -60.239634177413819, -30.949999997275697 ] ] ] ] } },
{ "type": "Feature", "properties": { "_uid_": 857354.0, "id": 25598543.0, "initialdat": "2022-08-11", "finaldate": "2022-08-15", "area_ha": 235.90872044948338 }, "geometry": { "type": "MultiPolygon", "coordinates": [ [ [ [ -60.218129404237381, -31.008333330603861 ], [ -60.215497531170747, -31.004166663937561 ], [ -60.205775161342494, -31.004166663937561 ], [ -60.200913976428374, -31.004166663937561 ], [ -60.196052791514234, -31.004166663937561 ], [ -60.201315386272547, -31.012499997270154 ], [ -60.206176996172118, -31.012499997270154 ], [ -60.20354548630025, -31.008333330603861 ], [ -60.208406609467957, -31.008333330603861 ], [ -60.218129404237381, -31.008333330603861 ] ] ], [ [ [ -60.218129404237381, -31.008333330603861 ], [ -60.220761825870831, -31.012499997270154 ], [ -60.211038606071682, -31.012499997270154 ], [ -60.206176996172118, -31.012499997270154 ], [ -60.208809328794729, -31.016666663936455 ], [ -60.213671151253457, -31.016666663936455 ], [ -60.228256618629672, -31.016666663936455 ], [ -60.222990801622089, -31.008333330603861 ], [ -60.218129404237381, -31.008333330603861 ] ] ], [ [ [ -60.201315386272547, -31.012499997270154 ], [ -60.196453776372969, -31.012499997270154 ], [ -60.199085683877264, -31.016666663936455 ], [ -60.203947506336, -31.016666663936455 ], [ -60.201315386272547, -31.012499997270154 ] ] ] ] } },
{ "type": "Feature", "properties": { "_uid_": 857355.0, "id": 25598546.0, "initialdat": "2022-08-13", "finaldate": "2022-08-13", "area_ha": 21.446339410662652 }, "geometry": { "type": "MultiPolygon", "coordinates": [ [ [ [ -60.30145469205533, -31.070833330598322 ], [ -60.296590102293131, -31.070833330598322 ], [ -60.299232469862091, -31.074999997264616 ], [ -60.304097272804412, -31.074999997264616 ], [ -60.30145469205533, -31.070833330598322 ] ] ] ] } },
{ "type": "Feature", "properties": { "_uid_": 857356.0, "id": 25598549.0, "initialdat": "2022-08-13", "finaldate": "2022-08-13", "area_ha": 21.446376376640796 }, "geometry": { "type": "MultiPolygon", "coordinates": [ [ [ [ -60.31160542028725, -31.079166663930916 ], [ -60.306740404120397, -31.079166663930916 ], [ -60.309384086103641, -31.083333330597213 ], [ -60.314249315539442, -31.083333330597213 ], [ -60.31160542028725, -31.079166663930916 ] ] ] ] } },
{ "type": "Feature", "properties": { "_uid_": 857359.0, "id": 25598553.0, "initialdat": "2022-08-11", "finaldate": "2022-08-13", "area_ha": 171.57455406509638 }, "geometry": { "type": "MultiPolygon", "coordinates": [ [ [ [ -60.31277795615371, -31.195833330587245 ], [ -60.30790695163455, -31.195833330587245 ], [ -60.305251580659444, -31.191666663920952 ], [ -60.295510000564001, -31.191666663920952 ], [ -60.300820437359178, -31.199999997253546 ], [ -60.305691656394437, -31.199999997253546 ], [ -60.315434094464969, -31.199999997253546 ], [ -60.31277795615371, -31.195833330587245 ] ] ], [ [ [ -60.300820437359178, -31.199999997253546 ], [ -60.295949218323912, -31.199999997253546 ], [ -60.286206780253394, -31.199999997253546 ], [ -60.288862184165957, -31.204166663919839 ], [ -60.298605051357974, -31.204166663919839 ], [ -60.303476484953997, -31.204166663919839 ], [ -60.300820437359178, -31.199999997253546 ] ] ] ] } },
{ "type": "Feature", "properties": { "_uid_": 857360.0, "id": 25598554.0, "initialdat": "2022-08-06", "finaldate": "2022-08-06", "area_ha": 21.4468950630188 }, "geometry": { "type": "MultiPolygon", "coordinates": [ [ [ [ -60.298164942596216, -31.195833330587245 ], [ -60.293293938077042, -31.195833330587245 ], [ -60.295949218323912, -31.199999997253546 ], [ -60.300820437359178, -31.199999997253546 ], [ -60.298164942596216, -31.195833330587245 ] ] ] ] } },
{ "type": "Feature", "properties": { "_uid_": 924318.0, "id": 25598540.0, "initialdat": "2022-08-17", "finaldate": "2022-08-22", "area_ha": 257.34924836270807 }, "geometry": { "type": "MultiPolygon", "coordinates": [ [ [ [ -60.2497481628982, -30.958333330608291 ], [ -60.2523767640985, -30.962499997274591 ], [ -60.257235826740789, -30.962499997274591 ], [ -60.262094889383064, -30.962499997274591 ], [ -60.259465864214825, -30.958333330608291 ], [ -60.256837387081184, -30.95416666394199 ], [ -60.261696025799715, -30.95416666394199 ], [ -60.259067884705551, -30.949999997275697 ], [ -60.256440291491181, -30.9458333306094 ], [ -60.246723861548169, -30.9458333306094 ], [ -60.241865646576656, -30.9458333306094 ], [ -60.244492604236747, -30.949999997275697 ], [ -60.239634177413819, -30.949999997275697 ], [ -60.242261470925577, -30.95416666394199 ], [ -60.244889312239884, -30.958333330608291 ], [ -60.2497481628982, -30.958333330608291 ] ] ] ] } },
{ "type": "Feature", "properties": { "_uid_": 924319.0, "id": 25598542.0, "initialdat": "2022-08-24", "finaldate": "2022-08-24", "area_ha": 21.445803652143479 }, "geometry": { "type": "MultiPolygon", "coordinates": [ [ [ [ -60.234775750590885, -30.949999997275697 ], [ -60.229917323767943, -30.949999997275697 ], [ -60.232544193488515, -30.95416666394199 ], [ -60.237402832207053, -30.95416666394199 ], [ -60.234775750590885, -30.949999997275697 ] ] ] ] } },
{ "type": "Feature", "properties": { "_uid_": 924324.0, "id": 25598552.0, "initialdat": "2022-08-16", "finaldate": "2022-08-16", "area_ha": 21.446728106844425 }, "geometry": { "type": "MultiPolygon", "coordinates": [ [ [ [ -60.415493551084452, -31.158333330590569 ], [ -60.410624475201871, -31.158333330590569 ], [ -60.413280994231584, -31.162499997256862 ], [ -60.418150284228709, -31.162499997256862 ], [ -60.415493551084452, -31.158333330590569 ] ] ] ] } }
]
}
